DateTime,Date/Time,Year,Month,Day,Time,Temp (°C),Temp Flag,Dew Point Temp (°C),Dew Point Temp Flag,Rel Hum (%),Rel Hum Flag,Wind Dir (10s deg),Wind Dir Flag,Wind Spd (km/h),Wind Spd Flag,Visibility (km),Visibility Flag,Stn Press (kPa),Stn Press Flag,Hmdx,Hmdx Flag,Wind Chill,Wind Chill Flag,Weather
2005-09-01 00:00:00,2005-09-01 00:00,2005,9,1,00:00,19.3,,18.7,,96,,27.0,,11,,,,99.33,,,,,,
2005-09-01 01:00:00,2005-09-01 01:00,2005,9,1,01:00,18.4,,18.0,,98,,27.0,,11,,,,99.36,,,,,,
2005-09-01 02:00:00,2005-09-01 02:00,2005,9,1,02:00,17.8,,17.4,,98,,26.0,,13,,,,99.39,,,,,,
2005-09-01 03:00:00,2005-09-01 03:00,2005,9,1,03:00,17.3,,16.9,,97,,27.0,,15,,,,99.42,,,,,,
2005-09-01 04:00:00,2005-09-01 04:00,2005,9,1,04:00,17.1,,16.5,,96,,27.0,,13,,,,99.49,,,,,,
2005-09-01 05:00:00,2005-09-01 05:00,2005,9,1,05:00,16.7,,16.1,,96,,27.0,,11,,,,99.55,,,,,,
2005-09-01 06:00:00,2005-09-01 06:00,2005,9,1,06:00,16.6,,15.9,,96,,26.0,,19,,,,99.6,,,,,,
2005-09-01 07:00:00,2005-09-01 07:00,2005,9,1,07:00,17.2,,16.0,,93,,26.0,,19,,,,99.66,,,,,,
2005-09-01 08:00:00,2005-09-01 08:00,2005,9,1,08:00,18.0,,16.3,,90,,27.0,,20,,,,99.72,,,,,,
2005-09-01 09:00:00,2005-09-01 09:00,2005,9,1,09:00,19.7,,16.8,,83,,27.0,,15,,,,99.76,,,,,,
2005-09-01 10:00:00,2005-09-01 10:00,2005,9,1,10:00,20.3,,16.8,,80,,30.0,,17,,,,99.79,,25.0,,,,
2005-09-01 11:00:00,2005-09-01 11:00,2005,9,1,11:00,22.4,,18.0,,76,,28.0,,13,,,,99.79,,28.0,,,,
2005-09-01 12:00:00,2005-09-01 12:00,2005,9,1,12:00,24.0,,17.4,,67,,33.0,,17,,,,99.77,,30.0,,,,
2005-09-01 13:00:00,2005-09-01 13:00,2005,9,1,13:00,24.8,,17.1,,62,,32.0,,15,,,,99.79,,30.0,,,,
2005-09-01 14:00:00,2005-09-01 14:00,2005,9,1,14:00,25.7,,16.7,,58,,33.0,,15,,,,99.78,,31.0,,,,
2005-09-01 15:00:00,2005-09-01 15:00,2005,9,1,15:00,26.3,,16.1,,53,,32.0,,15,,,,99.77,,31.0,,,,
2005-09-01 16:00:00,2005-09-01 16:00,2005,9,1,16:00,26.3,,16.3,,54,,33.0,,13,,,,99.77,,31.0,,,,
2005-09-01 17:00:00,2005-09-01 17:00,2005,9,1,17:00,26.2,,16.8,,56,,32.0,,9,,,,99.78,,31.0,,,,
2005-09-01 18:00:00,2005-09-01 18:00,2005,9,1,18:00,25.3,,16.1,,57,,32.0,,7,,,,99.82,,30.0,,,,
2005-09-01 19:00:00,2005-09-01 19:00,2005,9,1,19:00,22.1,,16.5,,71,,30.0,,2,,,,99.83,,27.0,,,,
2005-09-01 20:00:00,2005-09-01 20:00,2005,9,1,20:00,20.0,,16.5,,80,,29.0,,7,,,,99.86,,25.0,,,,
2005-09-01 21:00:00,2005-09-01 21:00,2005,9,1,21:00,22.3,,15.5,,65,,31.0,,11,,,,99.9,,27.0,,,,
2005-09-01 22:00:00,2005-09-01 22:00,2005,9,1,22:00,20.7,,14.9,,69,,31.0,,7,,,,99.95,,25.0,,,,
2005-09-01 23:00:00,2005-09-01 23:00,2005,9,1,23:00,18.9,,14.9,,78,,31.0,,2,,,,99.98,,,,,,
2005-09-02 00:00:00,2005-09-02 00:00,2005,9,2,00:00,19.4,,15.4,,78,,31.0,,9,,,,99.97,,,,,,
2005-09-02 01:00:00,2005-09-02 01:00,2005,9,2,01:00,20.0,,15.5,,75,,31.0,,7,,,,99.94,,,,,,
2005-09-02 02:00:00,2005-09-02 02:00,2005,9,2,02:00,18.3,,15.7,,85,,30.0,,4,,,,99.94,,,,,,
2005-09-02 03:00:00,2005-09-02 03:00,2005,9,2,03:00,18.7,,15.3,,81,,28.0,,4,,,,99.94,,,,,,
2005-09-02 04:00:00,2005-09-02 04:00,2005,9,2,04:00,17.4,,15.6,,89,,26.0,,2,,,,99.93,,,,,,
2005-09-02 05:00:00,2005-09-02 05:00,2005,9,2,05:00,17.1,,16.0,,93,,28.0,,6,,,,99.92,,,,,,
2005-09-02 06:00:00,2005-09-02 06:00,2005,9,2,06:00,15.4,,15.4,,100,,28.0,,7,,,,99.94,,,,,,
2005-09-02 07:00:00,2005-09-02 07:00,2005,9,2,07:00,17.7,,17.0,,96,,29.0,,7,,,,99.91,,,,,,
2005-09-02 08:00:00,2005-09-02 08:00,2005,9,2,08:00,20.0,,17.7,,87,,29.0,,9,,,,99.88,,26.0,,,,
2005-09-02 09:00:00,2005-09-02 09:00,2005,9,2,09:00,23.6,,17.4,,68,,30.0,,9,,,,99.83,,29.0,,,,
2005-09-02 10:00:00,2005-09-02 10:00,2005,9,2,10:00,24.9,,14.9,,54,,29.0,,20,,,,99.75,,29.0,,,,
2005-09-02 11:00:00,2005-09-02 11:00,2005,9,2,11:00,25.8,,13.6,,47,,30.0,,22,,,,99.69,,29.0,,,,
2005-09-02 12:00:00,2005-09-02 12:00,2005,9,2,12:00,26.2,,13.2,,45,,30.0,,22,,,,99.63,,29.0,,,,
2005-09-02 13:00:00,2005-09-02 13:00,2005,9,2,13:00,26.4,,13.1,,44,,31.0,,26,,,,99.6,,29.0,,,,
2005-09-02 14:00:00,2005-09-02 14:00,2005,9,2,14:00,21.0,,15.4,,70,,29.0,,20,,,,99.72,,25.0,,,,
2005-09-02 15:00:00,2005-09-02 15:00,2005,9,2,15:00,20.9,,15.5,,71,,28.0,,19,,,,99.79,,25.0,,,,
2005-09-02 16:00:00,2005-09-02 16:00,2005,9,2,16:00,22.1,,14.3,,61,,27.0,,17,,,,99.8,,26.0,,,,
2005-09-02 17:00:00,2005-09-02 17:00,2005,9,2,17:00,21.2,,13.2,,60,,29.0,,19,,,,99.86,,,,,,
2005-09-02 18:00:00,2005-09-02 18:00,2005,9,2,18:00,20.7,,13.9,,65,,28.0,,15,,,,99.91,,,,,,
2005-09-02 19:00:00,2005-09-02 19:00,2005,9,2,19:00,19.0,,14.6,,76,,31.0,,9,,,,99.98,,,,,,
2005-09-02 20:00:00,2005-09-02 20:00,2005,9,2,20:00,18.9,,14.3,,75,,30.0,,11,,,,100.06,,,,,,
2005-09-02 21:00:00,2005-09-02 21:00,2005,9,2,21:00,18.5,,14.1,,76,,29.0,,13,,,,100.1,,,,,,
2005-09-02 22:00:00,2005-09-02 22:00,2005,9,2,22:00,17.5,,14.2,,81,,30.0,,11,,,,100.15,,,,,,
2005-09-02 23:00:00,2005-09-02 23:00,2005,9,2,23:00,16.9,,14.4,,85,,27.0,,9,,,,100.21,,,,,,
2005-09-03 00:00:00,2005-09-03 00:00,2005,9,3,00:00,16.4,,14.3,,87,,27.0,,9,,,,100.25,,,,,,
2005-09-03 01:00:00,2005-09-03 01:00,2005,9,3,01:00,16.4,,14.9,,91,,27.0,,7,,,,100.27,,,,,,
2005-09-03 02:00:00,2005-09-03 02:00,2005,9,3,02:00,16.1,,14.5,,90,,25.0,,13,,,,100.27,,,,,,
2005-09-03 03:00:00,2005-09-03 03:00,2005,9,3,03:00,15.6,,13.9,,90,,26.0,,9,,,,100.29,,,,,,
2005-09-03 04:00:00,2005-09-03 04:00,2005,9,3,04:00,15.6,,13.8,,89,,27.0,,17,,,,100.35,,,,,,
2005-09-03 05:00:00,2005-09-03 05:00,2005,9,3,05:00,14.9,,13.7,,93,,26.0,,11,,,,100.41,,,,,,
2005-09-03 06:00:00,2005-09-03 06:00,2005,9,3,06:00,14.8,,13.8,,94,,26.0,,13,,,,100.46,,,,,,
2005-09-03 07:00:00,2005-09-03 07:00,2005,9,3,07:00,16.0,,14.4,,90,,27.0,,13,,,,100.5,,,,,,
2005-09-03 08:00:00,2005-09-03 08:00,2005,9,3,08:00,17.6,,14.7,,83,,30.0,,11,,,,100.53,,,,,,
2005-09-03 09:00:00,2005-09-03 09:00,2005,9,3,09:00,19.2,,15.3,,78,,26.0,,9,,,,100.57,,,,,,
2005-09-03 10:00:00,2005-09-03 10:00,2005,9,3,10:00,20.6,,15.6,,73,,27.0,,9,,,,100.56,,25.0,,,,
2005-09-03 11:00:00,2005-09-03 11:00,2005,9,3,11:00,22.3,,16.3,,69,,24.0,,11,,,,100.55,,27.0,,,,
2005-09-03 12:00:00,2005-09-03 12:00,2005,9,3,12:00,22.4,,14.7,,62,,29.0,,17,,,,100.53,,26.0,,,,
2005-09-03 13:00:00,2005-09-03 13:00,2005,9,3,13:00,22.1,,15.1,,65,,31.0,,9,,,,100.49,,26.0,,,,
2005-09-03 14:00:00,2005-09-03 14:00,2005,9,3,14:00,20.8,,16.5,,76,,36.0,,13,,,,100.51,,26.0,,,,
2005-09-03 15:00:00,2005-09-03 15:00,2005,9,3,15:00,20.1,,18.5,,91,,33.0,,9,,,,100.54,,26.0,,,,
2005-09-03 16:00:00,2005-09-03 16:00,2005,9,3,16:00,20.3,,17.9,,86,,30.0,,6,,,,100.57,,26.0,,,,
2005-09-03 17:00:00,2005-09-03 17:00,2005,9,3,17:00,19.0,,17.8,,93,,25.0,,7,,,,100.59,,,,,,
2005-09-03 18:00:00,2005-09-03 18:00,2005,9,3,18:00,18.5,,17.7,,95,,27.0,,6,,,,100.61,,,,,,
2005-09-03 19:00:00,2005-09-03 19:00,2005,9,3,19:00,18.1,,17.4,,96,,31.0,,9,,,,100.68,,,,,,
2005-09-03 20:00:00,2005-09-03 20:00,2005,9,3,20:00,16.7,,14.9,,89,,32.0,,15,,,,100.72,,,,,,
2005-09-03 21:00:00,2005-09-03 21:00,2005,9,3,21:00,15.6,,14.4,,93,,33.0,,11,,,,100.77,,,,,,
2005-09-03 22:00:00,2005-09-03 22:00,2005,9,3,22:00,15.0,,14.3,,96,,33.0,,6,,,,100.84,,,,,,
2005-09-03 23:00:00,2005-09-03 23:00,2005,9,3,23:00,15.2,,14.8,,97,,32.0,,9,,,,100.9,,,,,,
2005-09-04 00:00:00,2005-09-04 00:00,2005,9,4,00:00,15.4,,14.8,,96,,32.0,,17,,,,100.96,,,,,,
2005-09-04 01:00:00,2005-09-04 01:00,2005,9,4,01:00,15.0,,14.3,,96,,31.0,,15,,,,101.02,,,,,,
2005-09-04 02:00:00,2005-09-04 02:00,2005,9,4,02:00,14.5,,13.9,,96,,31.0,,13,,,,101.09,,,,,,
2005-09-04 03:00:00,2005-09-04 03:00,2005,9,4,03:00,14.1,,12.3,,89,,32.0,,17,,,,101.15,,,,,,
2005-09-04 04:00:00,2005-09-04 04:00,2005,9,4,04:00,13.1,,10.6,,85,,33.0,,13,,,,101.2,,,,,,
2005-09-04 05:00:00,2005-09-04 05:00,2005,9,4,05:00,12.1,,11.0,,93,,31.0,,7,,,,101.29,,,,,,
2005-09-04 06:00:00,2005-09-04 06:00,2005,9,4,06:00,12.3,,11.7,,96,,31.0,,11,,,,101.36,,,,,,
2005-09-04 07:00:00,2005-09-04 07:00,2005,9,4,07:00,13.0,,11.7,,92,,32.0,,11,,,,101.41,,,,,,
2005-09-04 08:00:00,2005-09-04 08:00,2005,9,4,08:00,14.1,,11.7,,85,,34.0,,15,,,,101.49,,,,,,
2005-09-04 09:00:00,2005-09-04 09:00,2005,9,4,09:00,15.1,,11.6,,80,,33.0,,13,,,,101.53,,,,,,
2005-09-04 10:00:00,2005-09-04 10:00,2005,9,4,10:00,15.9,,11.0,,73,,34.0,,13,,,,101.55,,,,,,
2005-09-04 11:00:00,2005-09-04 11:00,2005,9,4,11:00,16.5,,10.7,,69,,34.0,,13,,,,101.58,,,,,,
2005-09-04 12:00:00,2005-09-04 12:00,2005,9,4,12:00,17.5,,10.8,,65,,33.0,,7,,,,101.57,,,,,,
2005-09-04 13:00:00,2005-09-04 13:00,2005,9,4,13:00,18.5,,9.6,,56,,29.0,,11,,,,101.55,,,,,,
2005-09-04 14:00:00,2005-09-04 14:00,2005,9,4,14:00,19.4,,10.5,,56,,33.0,,9,,,,101.53,,,,,,
2005-09-04 15:00:00,2005-09-04 15:00,2005,9,4,15:00,20.0,,9.5,,51,,33.0,,9,,,,101.55,,,,,,
2005-09-04 16:00:00,2005-09-04 16:00,2005,9,4,16:00,20.3,,8.8,,48,,34.0,,13,,,,101.54,,,,,,
2005-09-04 17:00:00,2005-09-04 17:00,2005,9,4,17:00,20.2,,8.9,,48,,35.0,,13,,,,101.52,,,,,,
2005-09-04 18:00:00,2005-09-04 18:00,2005,9,4,18:00,19.2,,9.5,,53,,34.0,,11,,,,101.54,,,,,,
2005-09-04 19:00:00,2005-09-04 19:00,2005,9,4,19:00,17.0,,10.6,,66,,33.0,,6,,,,101.61,,,,,,
2005-09-04 20:00:00,2005-09-04 20:00,2005,9,4,20:00,14.0,,11.0,,82,,22.0,,2,,,,101.7,,,,,,
2005-09-04 21:00:00,2005-09-04 21:00,2005,9,4,21:00,12.8,,11.3,,91,,19.0,,6,,,,101.77,,,,,,
2005-09-04 22:00:00,2005-09-04 22:00,2005,9,4,22:00,11.7,,11.0,,95,,30.0,,2,,,,101.8,,,,,,
2005-09-04 23:00:00,2005-09-04 23:00,2005,9,4,23:00,10.8,,10.6,,99,,,,0,,,,101.8,,,,,,
2005-09-05 00:00:00,2005-09-05 00:00,2005,9,5,00:00,10.6,,10.6,,100,,,,0,,,,101.82,,,,,,
2005-09-05 01:00:00,2005-09-05 01:00,2005,9,5,01:00,9.4,,9.4,,100,,33.0,,2,,,,101.85,,,,,,
2005-09-05 02:00:00,2005-09-05 02:00,2005,9,5,02:00,10.6,,10.6,,100,,34.0,,4,,,,101.87,,,,,,
2005-09-05 03:00:00,2005-09-05 03:00,2005,9,5,03:00,10.2,,10.2,,100,,34.0,,4,,,,101.87,,,,,,
2005-09-05 04:00:00,2005-09-05 04:00,2005,9,5,04:00,8.6,,8.6,,100,,35.0,,4,,,,101.92,,,,,,
2005-09-05 05:00:00,2005-09-05 05:00,2005,9,5,05:00,9.0,,9.0,,100,,34.0,,4,,,,101.99,,,,,,
2005-09-05 06:00:00,2005-09-05 06:00,2005,9,5,06:00,9.0,,9.0,,100,,35.0,,4,,,,102.03,,,,,,
2005-09-05 07:00:00,2005-09-05 07:00,2005,9,5,07:00,12.6,,12.6,,100,,35.0,,6,,,,102.1,,,,,,
2005-09-05 08:00:00,2005-09-05 08:00,2005,9,5,08:00,15.6,,12.1,,80,,3.0,,2,,,,102.12,,,,,,
2005-09-05 09:00:00,2005-09-05 09:00,2005,9,5,09:00,17.4,,11.9,,70,,10.0,,4,,,,102.12,,,,,,
2005-09-05 10:00:00,2005-09-05 10:00,2005,9,5,10:00,19.5,,12.1,,62,,8.0,,4,,,,102.13,,,,,,
2005-09-05 11:00:00,2005-09-05 11:00,2005,9,5,11:00,20.8,,11.2,,54,,7.0,,4,,,,102.1,,,,,,
2005-09-05 12:00:00,2005-09-05 12:00,2005,9,5,12:00,21.5,,11.1,,52,,35.0,,4,,,,102.03,,,,,,
2005-09-05 13:00:00,2005-09-05 13:00,2005,9,5,13:00,22.3,,10.5,,47,,27.0,,6,,,,102.03,,,,,,
2005-09-05 14:00:00,2005-09-05 14:00,2005,9,5,14:00,22.8,,11.7,,50,,19.0,,9,,,,101.98,,25.0,,,,
2005-09-05 15:00:00,2005-09-05 15:00,2005,9,5,15:00,23.5,,11.3,,46,,27.0,,6,,,,101.97,,25.0,,,,
2005-09-05 16:00:00,2005-09-05 16:00,2005,9,5,16:00,23.6,,10.5,,44,,26.0,,2,,,,101.98,,25.0,,,,
2005-09-05 17:00:00,2005-09-05 17:00,2005,9,5,17:00,23.4,,11.3,,47,,25.0,,4,,,,101.94,,25.0,,,,
2005-09-05 18:00:00,2005-09-05 18:00,2005,9,5,18:00,21.3,,13.2,,60,,14.0,,9,,,,101.89,,,,,,
2005-09-05 19:00:00,2005-09-05 19:00,2005,9,5,19:00,19.4,,13.2,,67,,23.0,,7,,,,101.91,,,,,,
2005-09-05 20:00:00,2005-09-05 20:00,2005,9,5,20:00,17.1,,13.2,,78,,16.0,,4,,,,101.95,,,,,,
2005-09-05 21:00:00,2005-09-05 21:00,2005,9,5,21:00,15.1,,12.9,,87,,17.0,,6,,,,102.01,,,,,,
2005-09-05 22:00:00,2005-09-05 22:00,2005,9,5,22:00,15.1,,12.4,,84,,19.0,,4,,,,102.01,,,,,,
2005-09-05 23:00:00,2005-09-05 23:00,2005,9,5,23:00,14.6,,12.7,,88,,15.0,,4,,,,102.01,,,,,,
2005-09-06 00:00:00,2005-09-06 00:00,2005,9,6,00:00,12.6,,11.9,,95,,19.0,,2,,,,102.0,,,,,,
2005-09-06 01:00:00,2005-09-06 01:00,2005,9,6,01:00,11.5,,11.5,,100,,,,0,,,,102.03,,,,,,
2005-09-06 02:00:00,2005-09-06 02:00,2005,9,6,02:00,10.5,,10.5,,100,,,,0,,,,102.0,,,,,,
2005-09-06 03:00:00,2005-09-06 03:00,2005,9,6,03:00,10.5,,10.5,,100,,1.0,,2,,,,102.01,,,,,,
2005-09-06 04:00:00,2005-09-06 04:00,2005,9,6,04:00,10.0,,10.0,,100,,10.0,,2,,,,102.01,,,,,,
2005-09-06 05:00:00,2005-09-06 05:00,2005,9,6,05:00,9.8,,9.8,,100,,33.0,,2,,,,102.03,,,,,,
2005-09-06 06:00:00,2005-09-06 06:00,2005,9,6,06:00,8.9,,8.9,,100,,13.0,,2,,,,102.02,,,,,,
2005-09-06 07:00:00,2005-09-06 07:00,2005,9,6,07:00,12.5,,12.5,,100,,35.0,,2,,,,102.03,,,,,,
2005-09-06 08:00:00,2005-09-06 08:00,2005,9,6,08:00,16.5,,14.5,,88,,15.0,,2,,,,102.04,,,,,,
2005-09-06 09:00:00,2005-09-06 09:00,2005,9,6,09:00,19.3,,14.9,,76,,22.0,,2,,,,102.07,,,,,,
2005-09-06 10:00:00,2005-09-06 10:00,2005,9,6,10:00,21.4,,15.2,,68,,18.0,,6,,,,102.03,,25.0,,,,
2005-09-06 11:00:00,2005-09-06 11:00,2005,9,6,11:00,23.1,,16.2,,65,,22.0,,6,,,,102.0,,28.0,,,,
2005-09-06 12:00:00,2005-09-06 12:00,2005,9,6,12:00,24.4,,14.8,,55,,24.0,,7,,,,101.9,,28.0,,,,
2005-09-06 13:00:00,2005-09-06 13:00,2005,9,6,13:00,25.2,,15.7,,56,,22.0,,7,,,,101.82,,30.0,,,,
2005-09-06 14:00:00,2005-09-06 14:00,2005,9,6,14:00,26.8,,15.0,,48,,22.0,,7,,,,101.74,,31.0,,,,
2005-09-06 15:00:00,2005-09-06 15:00,2005,9,6,15:00,26.6,,15.4,,50,,18.0,,15,,,,101.68,,31.0,,,,
2005-09-06 16:00:00,2005-09-06 16:00,2005,9,6,16:00,26.4,,16.0,,53,,18.0,,15,,,,101.63,,31.0,,,,
2005-09-06 17:00:00,2005-09-06 17:00,2005,9,6,17:00,26.1,,15.3,,51,,21.0,,9,,,,101.6,,30.0,,,,
2005-09-06 18:00:00,2005-09-06 18:00,2005,9,6,18:00,24.2,,16.0,,60,,20.0,,7,,,,101.59,,29.0,,,,
2005-09-06 19:00:00,2005-09-06 19:00,2005,9,6,19:00,22.4,,16.0,,67,,19.0,,11,,,,101.59,,27.0,,,,
2005-09-06 20:00:00,2005-09-06 20:00,2005,9,6,20:00,21.0,,14.2,,65,,19.0,,15,,,,101.61,,,,,,
2005-09-06 21:00:00,2005-09-06 21:00,2005,9,6,21:00,19.2,,13.7,,70,,21.0,,11,,,,101.6,,,,,,
2005-09-06 22:00:00,2005-09-06 22:00,2005,9,6,22:00,19.2,,13.6,,70,,29.0,,9,,,,101.6,,,,,,
2005-09-06 23:00:00,2005-09-06 23:00,2005,9,6,23:00,18.9,,13.7,,72,,23.0,,6,,,,101.58,,,,,,
2005-09-07 00:00:00,2005-09-07 00:00,2005,9,7,00:00,16.6,,13.6,,82,,29.0,,2,,,,101.57,,,,,,
2005-09-07 01:00:00,2005-09-07 01:00,2005,9,7,01:00,17.1,,13.9,,81,,35.0,,2,,,,101.57,,,,,,
2005-09-07 02:00:00,2005-09-07 02:00,2005,9,7,02:00,16.5,,13.7,,84,,25.0,,6,,,,101.55,,,,,,
2005-09-07 03:00:00,2005-09-07 03:00,2005,9,7,03:00,14.9,,13.4,,91,,26.0,,2,,,,101.54,,,,,,
2005-09-07 04:00:00,2005-09-07 04:00,2005,9,7,04:00,14.5,,13.7,,95,,20.0,,4,,,,101.5,,,,,,
2005-09-07 05:00:00,2005-09-07 05:00,2005,9,7,05:00,12.9,,12.7,,99,,19.0,,6,,,,101.51,,,,,,
2005-09-07 06:00:00,2005-09-07 06:00,2005,9,7,06:00,13.5,,13.5,,100,,15.0,,6,,,,101.53,,,,,,
2005-09-07 07:00:00,2005-09-07 07:00,2005,9,7,07:00,16.0,,14.5,,91,,17.0,,6,,,,101.53,,,,,,
2005-09-07 08:00:00,2005-09-07 08:00,2005,9,7,08:00,19.4,,15.3,,77,,21.0,,6,,,,101.5,,,,,,
2005-09-07 09:00:00,2005-09-07 09:00,2005,9,7,09:00,22.0,,16.0,,69,,21.0,,7,,,,101.47,,27.0,,,,
2005-09-07 10:00:00,2005-09-07 10:00,2005,9,7,10:00,24.2,,16.6,,63,,22.0,,11,,,,101.42,,29.0,,,,
2005-09-07 11:00:00,2005-09-07 11:00,2005,9,7,11:00,25.6,,16.7,,58,,22.0,,11,,,,101.34,,31.0,,,,
2005-09-07 12:00:00,2005-09-07 12:00,2005,9,7,12:00,26.6,,17.3,,57,,22.0,,9,,,,101.27,,32.0,,,,
2005-09-07 13:00:00,2005-09-07 13:00,2005,9,7,13:00,26.9,,16.8,,54,,18.0,,15,,,,101.2,,32.0,,,,
2005-09-07 14:00:00,2005-09-07 14:00,2005,9,7,14:00,27.5,,16.8,,52,,19.0,,19,,,,101.13,,33.0,,,,
2005-09-07 15:00:00,2005-09-07 15:00,2005,9,7,15:00,27.9,,16.9,,51,,20.0,,17,,,,101.05,,33.0,,,,
2005-09-07 16:00:00,2005-09-07 16:00,2005,9,7,16:00,27.3,,15.0,,47,,20.0,,17,,,,100.97,,31.0,,,,
2005-09-07 17:00:00,2005-09-07 17:00,2005,9,7,17:00,26.3,,16.7,,56,,19.0,,17,,,,100.93,,31.0,,,,
2005-09-07 18:00:00,2005-09-07 18:00,2005,9,7,18:00,24.6,,16.8,,62,,18.0,,17,,,,100.86,,30.0,,,,
2005-09-07 19:00:00,2005-09-07 19:00,2005,9,7,19:00,22.5,,15.7,,65,,19.0,,13,,,,100.89,,27.0,,,,
2005-09-07 20:00:00,2005-09-07 20:00,2005,9,7,20:00,21.1,,15.5,,70,,21.0,,11,,,,100.9,,25.0,,,,
2005-09-07 21:00:00,2005-09-07 21:00,2005,9,7,21:00,20.0,,15.5,,75,,19.0,,7,,,,100.88,,,,,,
2005-09-07 22:00:00,2005-09-07 22:00,2005,9,7,22:00,19.7,,15.4,,76,,23.0,,4,,,,100.88,,,,,,
2005-09-07 23:00:00,2005-09-07 23:00,2005,9,7,23:00,18.2,,15.0,,82,,25.0,,4,,,,100.84,,,,,,
2005-09-08 00:00:00,2005-09-08 00:00,2005,9,8,00:00,17.1,,14.5,,85,,18.0,,4,,,,100.84,,,,,,
2005-09-08 01:00:00,2005-09-08 01:00,2005,9,8,01:00,16.8,,15.4,,91,,17.0,,6,,,,100.8,,,,,,
2005-09-08 02:00:00,2005-09-08 02:00,2005,9,8,02:00,16.6,,15.3,,92,,19.0,,6,,,,100.76,,,,,,
2005-09-08 03:00:00,2005-09-08 03:00,2005,9,8,03:00,16.3,,15.3,,94,,19.0,,6,,,,100.71,,,,,,
2005-09-08 04:00:00,2005-09-08 04:00,2005,9,8,04:00,16.8,,15.7,,93,,17.0,,2,,,,100.69,,,,,,
2005-09-08 05:00:00,2005-09-08 05:00,2005,9,8,05:00,16.4,,15.8,,96,,19.0,,4,,,,100.67,,,,,,
2005-09-08 06:00:00,2005-09-08 06:00,2005,9,8,06:00,16.3,,15.9,,97,,10.0,,2,,,,100.67,,,,,,
2005-09-08 07:00:00,2005-09-08 07:00,2005,9,8,07:00,17.5,,16.9,,96,,18.0,,2,,,,100.7,,,,,,
2005-09-08 08:00:00,2005-09-08 08:00,2005,9,8,08:00,18.6,,16.8,,89,,22.0,,2,,,,100.69,,,,,,
2005-09-08 09:00:00,2005-09-08 09:00,2005,9,8,09:00,18.6,,17.8,,95,,30.0,,9,,,,100.77,,,,,,
2005-09-08 10:00:00,2005-09-08 10:00,2005,9,8,10:00,17.5,,17.5,,100,,5.0,,4,,,,100.69,,,,,,
2005-09-08 11:00:00,2005-09-08 11:00,2005,9,8,11:00,17.8,,17.8,,100,,26.0,,7,,,,100.75,,,,,,
2005-09-08 12:00:00,2005-09-08 12:00,2005,9,8,12:00,18.1,,18.1,,100,,34.0,,11,,,,100.69,,,,,,
2005-09-08 13:00:00,2005-09-08 13:00,2005,9,8,13:00,17.4,,16.8,,96,,3.0,,9,,,,100.68,,,,,,
2005-09-08 14:00:00,2005-09-08 14:00,2005,9,8,14:00,16.3,,14.9,,91,,4.0,,13,,,,100.73,,,,,,
2005-09-08 15:00:00,2005-09-08 15:00,2005,9,8,15:00,18.1,,15.7,,86,,2.0,,9,,,,100.69,,,,,,
2005-09-08 16:00:00,2005-09-08 16:00,2005,9,8,16:00,18.9,,14.6,,76,,4.0,,9,,,,100.69,,,,,,
2005-09-08 17:00:00,2005-09-08 17:00,2005,9,8,17:00,18.9,,14.7,,77,,5.0,,6,,,,100.7,,,,,,
2005-09-08 18:00:00,2005-09-08 18:00,2005,9,8,18:00,17.9,,14.6,,81,,11.0,,6,,,,100.67,,,,,,
2005-09-08 19:00:00,2005-09-08 19:00,2005,9,8,19:00,15.2,,14.3,,94,,15.0,,4,,,,100.71,,,,,,
2005-09-08 20:00:00,2005-09-08 20:00,2005,9,8,20:00,13.5,,13.5,,100,,19.0,,2,,,,100.74,,,,,,
2005-09-08 21:00:00,2005-09-08 21:00,2005,9,8,21:00,13.8,,13.8,,100,,18.0,,6,,,,100.77,,,,,,
2005-09-08 22:00:00,2005-09-08 22:00,2005,9,8,22:00,13.3,,13.3,,100,,19.0,,4,,,,100.8,,,,,,
2005-09-08 23:00:00,2005-09-08 23:00,2005,9,8,23:00,12.8,,12.8,,100,,20.0,,2,,,,100.79,,,,,,
2005-09-09 00:00:00,2005-09-09 00:00,2005,9,9,00:00,11.5,,11.5,,100,,19.0,,2,,,,100.77,,,,,,
2005-09-09 01:00:00,2005-09-09 01:00,2005,9,9,01:00,11.0,,11.0,,100,,,,0,,,,100.82,,,,,,
2005-09-09 02:00:00,2005-09-09 02:00,2005,9,9,02:00,10.7,,10.7,,100,,20.0,,2,,,,100.79,,,,,,
2005-09-09 03:00:00,2005-09-09 03:00,2005,9,9,03:00,11.9,,11.9,,100,,19.0,,6,,,,100.79,,,,,,
2005-09-09 04:00:00,2005-09-09 04:00,2005,9,9,04:00,12.3,,12.3,,100,,,,0,,,,100.82,,,,,,
2005-09-09 05:00:00,2005-09-09 05:00,2005,9,9,05:00,12.6,,12.6,,100,,34.0,,4,,,,100.85,,,,,,
2005-09-09 06:00:00,2005-09-09 06:00,2005,9,9,06:00,12.9,,12.9,,100,,33.0,,9,,,,100.93,,,,,,
2005-09-09 07:00:00,2005-09-09 07:00,2005,9,9,07:00,14.0,,14.0,,100,,35.0,,7,,,,101.0,,,,,,
2005-09-09 08:00:00,2005-09-09 08:00,2005,9,9,08:00,15.0,,14.1,,94,,34.0,,13,,,,101.03,,,,,,
2005-09-09 09:00:00,2005-09-09 09:00,2005,9,9,09:00,16.7,,14.3,,86,,34.0,,11,,,,101.05,,,,,,
2005-09-09 10:00:00,2005-09-09 10:00,2005,9,9,10:00,18.6,,12.7,,69,,35.0,,13,,,,101.05,,,,,,
2005-09-09 11:00:00,2005-09-09 11:00,2005,9,9,11:00,19.3,,10.6,,57,,31.0,,17,,,,101.07,,,,,,
2005-09-09 12:00:00,2005-09-09 12:00,2005,9,9,12:00,19.3,,10.4,,56,,33.0,,17,,,,101.06,,,,,,
2005-09-09 13:00:00,2005-09-09 13:00,2005,9,9,13:00,20.6,,11.9,,57,,31.0,,11,,,,101.02,,,,,,
2005-09-09 14:00:00,2005-09-09 14:00,2005,9,9,14:00,20.3,,10.7,,54,,31.0,,11,,,,100.99,,,,,,
2005-09-09 15:00:00,2005-09-09 15:00,2005,9,9,15:00,19.6,,9.9,,53,,34.0,,17,,,,100.99,,,,,,
2005-09-09 16:00:00,2005-09-09 16:00,2005,9,9,16:00,20.2,,9.4,,50,,34.0,,15,,,,101.01,,,,,,
2005-09-09 17:00:00,2005-09-09 17:00,2005,9,9,17:00,19.7,,9.7,,52,,32.0,,13,,,,101.05,,,,,,
2005-09-09 18:00:00,2005-09-09 18:00,2005,9,9,18:00,18.0,,8.6,,54,,1.0,,19,,,,101.09,,,,,,
2005-09-09 19:00:00,2005-09-09 19:00,2005,9,9,19:00,16.5,,7.5,,55,,5.0,,15,,,,101.15,,,,,,
2005-09-09 20:00:00,2005-09-09 20:00,2005,9,9,20:00,15.2,,7.5,,60,,2.0,,11,,,,101.24,,,,,,
2005-09-09 21:00:00,2005-09-09 21:00,2005,9,9,21:00,13.8,,8.1,,68,,36.0,,9,,,,101.29,,,,,,
2005-09-09 22:00:00,2005-09-09 22:00,2005,9,9,22:00,12.9,,8.2,,73,,34.0,,7,,,,101.31,,,,,,
2005-09-09 23:00:00,2005-09-09 23:00,2005,9,9,23:00,11.8,,8.5,,80,,35.0,,7,,,,101.39,,,,,,
2005-09-10 00:00:00,2005-09-10 00:00,2005,9,10,00:00,11.9,,7.3,,73,,3.0,,15,,,,101.41,,,,,,
2005-09-10 01:00:00,2005-09-10 01:00,2005,9,10,01:00,10.7,,7.0,,78,,4.0,,11,,,,101.46,,,,,,
2005-09-10 02:00:00,2005-09-10 02:00,2005,9,10,02:00,9.3,,6.7,,84,,5.0,,6,,,,101.51,,,,,,
2005-09-10 03:00:00,2005-09-10 03:00,2005,9,10,03:00,6.7,,6.0,,95,,2.0,,6,,,,101.52,,,,,,
2005-09-10 04:00:00,2005-09-10 04:00,2005,9,10,04:00,6.0,,5.8,,99,,34.0,,6,,,,101.55,,,,,,
2005-09-10 05:00:00,2005-09-10 05:00,2005,9,10,05:00,6.6,,6.5,,99,,35.0,,7,,,,101.57,,,,,,
2005-09-10 06:00:00,2005-09-10 06:00,2005,9,10,06:00,6.8,,6.5,,98,,2.0,,4,,,,101.63,,,,,,
2005-09-10 07:00:00,2005-09-10 07:00,2005,9,10,07:00,9.9,,7.2,,83,,1.0,,9,,,,101.66,,,,,,
2005-09-10 08:00:00,2005-09-10 08:00,2005,9,10,08:00,11.6,,7.4,,75,,36.0,,9,,,,101.69,,,,,,
2005-09-10 09:00:00,2005-09-10 09:00,2005,9,10,09:00,14.0,,7.6,,65,,36.0,,6,,,,101.68,,,,,,
2005-09-10 10:00:00,2005-09-10 10:00,2005,9,10,10:00,14.9,,6.6,,58,,4.0,,9,,,,101.68,,,,,,
2005-09-10 11:00:00,2005-09-10 11:00,2005,9,10,11:00,15.6,,6.0,,53,,36.0,,11,,,,101.7,,,,,,
2005-09-10 12:00:00,2005-09-10 12:00,2005,9,10,12:00,16.9,,6.7,,51,,32.0,,11,,,,101.66,,,,,,
2005-09-10 13:00:00,2005-09-10 13:00,2005,9,10,13:00,17.9,,7.1,,49,,31.0,,9,,,,101.61,,,,,,
2005-09-10 14:00:00,2005-09-10 14:00,2005,9,10,14:00,18.9,,7.7,,48,,2.0,,6,,,,101.57,,,,,,
2005-09-10 15:00:00,2005-09-10 15:00,2005,9,10,15:00,19.1,,7.0,,45,,30.0,,9,,,,101.57,,,,,,
2005-09-10 16:00:00,2005-09-10 16:00,2005,9,10,16:00,19.6,,6.0,,41,,35.0,,6,,,,101.5,,,,,,
2005-09-10 17:00:00,2005-09-10 17:00,2005,9,10,17:00,19.2,,4.9,,39,,32.0,,7,,,,101.5,,,,,,
2005-09-10 18:00:00,2005-09-10 18:00,2005,9,10,18:00,18.0,,6.6,,47,,33.0,,6,,,,101.51,,,,,,
2005-09-10 19:00:00,2005-09-10 19:00,2005,9,10,19:00,13.9,,8.2,,68,,,,0,,,,101.49,,,,,,
2005-09-10 20:00:00,2005-09-10 20:00,2005,9,10,20:00,12.2,,9.1,,81,,10.0,,4,,,,101.51,,,,,,
2005-09-10 21:00:00,2005-09-10 21:00,2005,9,10,21:00,10.9,,9.0,,88,,14.0,,4,,,,101.54,,,,,,
2005-09-10 22:00:00,2005-09-10 22:00,2005,9,10,22:00,11.1,,9.0,,87,,20.0,,6,,,,101.55,,,,,,
2005-09-10 23:00:00,2005-09-10 23:00,2005,9,10,23:00,11.2,,8.3,,82,,19.0,,2,,,,101.59,,,,,,
2005-09-11 00:00:00,2005-09-11 00:00,2005,9,11,00:00,10.8,,8.2,,84,,19.0,,4,,,,101.6,,,,,,
2005-09-11 01:00:00,2005-09-11 01:00,2005,9,11,01:00,10.0,,8.2,,89,,,,0,,,,101.66,,,,,,
2005-09-11 02:00:00,2005-09-11 02:00,2005,9,11,02:00,8.9,,8.4,,97,,14.0,,4,,,,101.62,,,,,,
2005-09-11 03:00:00,2005-09-11 03:00,2005,9,11,03:00,8.4,,8.2,,99,,18.0,,4,,,,101.65,,,,,,
2005-09-11 04:00:00,2005-09-11 04:00,2005,9,11,04:00,10.0,,8.8,,92,,18.0,,6,,,,101.64,,,,,,
2005-09-11 05:00:00,2005-09-11 05:00,2005,9,11,05:00,9.8,,8.7,,93,,30.0,,2,,,,101.64,,,,,,
2005-09-11 06:00:00,2005-09-11 06:00,2005,9,11,06:00,8.8,,8.6,,99,,16.0,,2,,,,101.69,,,,,,
2005-09-11 07:00:00,2005-09-11 07:00,2005,9,11,07:00,11.3,,10.4,,94,,,,0,,,,101.72,,,,,,
2005-09-11 08:00:00,2005-09-11 08:00,2005,9,11,08:00,14.2,,9.7,,74,,22.0,,6,,,,101.71,,,,,,
2005-09-11 09:00:00,2005-09-11 09:00,2005,9,11,09:00,17.3,,11.5,,69,,19.0,,9,,,,101.67,,,,,,
2005-09-11 10:00:00,2005-09-11 10:00,2005,9,11,10:00,19.2,,12.9,,67,,20.0,,15,,,,101.59,,,,,,
2005-09-11 11:00:00,2005-09-11 11:00,2005,9,11,11:00,20.9,,13.5,,63,,19.0,,17,,,,101.51,,,,,,
2005-09-11 12:00:00,2005-09-11 12:00,2005,9,11,12:00,22.0,,13.7,,59,,20.0,,19,,,,101.42,,25.0,,,,
2005-09-11 13:00:00,2005-09-11 13:00,2005,9,11,13:00,22.9,,14.7,,60,,20.0,,19,,,,101.32,,27.0,,,,
2005-09-11 14:00:00,2005-09-11 14:00,2005,9,11,14:00,23.6,,14.9,,58,,21.0,,17,,,,101.19,,28.0,,,,
2005-09-11 15:00:00,2005-09-11 15:00,2005,9,11,15:00,24.0,,15.0,,57,,21.0,,17,,,,101.08,,28.0,,,,
2005-09-11 16:00:00,2005-09-11 16:00,2005,9,11,16:00,23.5,,14.7,,58,,20.0,,22,,,,100.99,,27.0,,,,
2005-09-11 17:00:00,2005-09-11 17:00,2005,9,11,17:00,22.8,,13.9,,57,,21.0,,17,,,,100.91,,26.0,,,,
2005-09-11 18:00:00,2005-09-11 18:00,2005,9,11,18:00,21.3,,13.0,,59,,21.0,,15,,,,100.83,,,,,,
2005-09-11 19:00:00,2005-09-11 19:00,2005,9,11,19:00,19.3,,12.2,,63,,21.0,,11,,,,100.8,,,,,,
2005-09-11 20:00:00,2005-09-11 20:00,2005,9,11,20:00,18.7,,12.1,,65,,21.0,,15,,,,100.77,,,,,,
2005-09-11 21:00:00,2005-09-11 21:00,2005,9,11,21:00,16.9,,11.9,,72,,20.0,,9,,,,100.73,,,,,,
2005-09-11 22:00:00,2005-09-11 22:00,2005,9,11,22:00,18.0,,10.5,,62,,21.0,,7,,,,100.69,,,,,,
2005-09-11 23:00:00,2005-09-11 23:00,2005,9,11,23:00,18.9,,11.4,,62,,24.0,,9,,,,100.66,,,,,,
2005-09-12 00:00:00,2005-09-12 00:00,2005,9,12,00:00,18.9,,12.8,,68,,23.0,,11,,,,100.65,,,,,,
2005-09-12 01:00:00,2005-09-12 01:00,2005,9,12,01:00,18.7,,13.4,,71,,22.0,,11,,,,100.63,,,,,,
2005-09-12 02:00:00,2005-09-12 02:00,2005,9,12,02:00,18.4,,13.7,,74,,22.0,,17,,,,100.58,,,,,,
2005-09-12 03:00:00,2005-09-12 03:00,2005,9,12,03:00,17.9,,13.9,,77,,22.0,,13,,,,100.57,,,,,,
2005-09-12 04:00:00,2005-09-12 04:00,2005,9,12,04:00,16.9,,14.0,,83,,23.0,,6,,,,100.61,,,,,,
2005-09-12 05:00:00,2005-09-12 05:00,2005,9,12,05:00,16.6,,14.4,,87,,24.0,,9,,,,100.63,,,,,,
2005-09-12 06:00:00,2005-09-12 06:00,2005,9,12,06:00,15.6,,14.3,,92,,21.0,,6,,,,100.65,,,,,,
2005-09-12 07:00:00,2005-09-12 07:00,2005,9,12,07:00,17.8,,15.7,,88,,20.0,,7,,,,100.65,,,,,,
2005-09-12 08:00:00,2005-09-12 08:00,2005,9,12,08:00,20.8,,17.1,,79,,24.0,,7,,,,100.64,,26.0,,,,
2005-09-12 09:00:00,2005-09-12 09:00,2005,9,12,09:00,22.5,,17.9,,75,,26.0,,11,,,,100.64,,28.0,,,,
2005-09-12 10:00:00,2005-09-12 10:00,2005,9,12,10:00,24.8,,19.3,,72,,27.0,,9,,,,100.58,,32.0,,,,
2005-09-12 11:00:00,2005-09-12 11:00,2005,9,12,11:00,26.4,,20.0,,68,,28.0,,13,,,,100.54,,34.0,,,,
2005-09-12 12:00:00,2005-09-12 12:00,2005,9,12,12:00,27.8,,20.3,,64,,27.0,,9,,,,100.51,,36.0,,,,
2005-09-12 13:00:00,2005-09-12 13:00,2005,9,12,13:00,29.2,,20.7,,60,,27.0,,11,,,,100.44,,37.0,,,,
2005-09-12 14:00:00,2005-09-12 14:00,2005,9,12,14:00,30.8,,21.0,,56,,28.0,,6,,,,100.37,,39.0,,,,
2005-09-12 15:00:00,2005-09-12 15:00,2005,9,12,15:00,30.9,,20.9,,55,,31.0,,7,,,,100.31,,39.0,,,,
2005-09-12 16:00:00,2005-09-12 16:00,2005,9,12,16:00,30.3,,21.0,,58,,28.0,,6,,,,100.29,,39.0,,,,
2005-09-12 17:00:00,2005-09-12 17:00,2005,9,12,17:00,29.0,,22.4,,68,,20.0,,4,,,,100.28,,39.0,,,,
2005-09-12 18:00:00,2005-09-12 18:00,2005,9,12,18:00,27.6,,22.4,,73,,18.0,,9,,,,100.29,,37.0,,,,
2005-09-12 19:00:00,2005-09-12 19:00,2005,9,12,19:00,25.8,,22.4,,82,,17.0,,11,,,,100.29,,35.0,,,,
2005-09-12 20:00:00,2005-09-12 20:00,2005,9,12,20:00,24.3,,22.0,,87,,20.0,,4,,,,100.32,,34.0,,,,
2005-09-12 21:00:00,2005-09-12 21:00,2005,9,12,21:00,23.6,,22.1,,91,,23.0,,6,,,,100.32,,33.0,,,,
2005-09-12 22:00:00,2005-09-12 22:00,2005,9,12,22:00,24.7,,21.8,,84,,27.0,,11,,,,100.31,,34.0,,,,
2005-09-12 23:00:00,2005-09-12 23:00,2005,9,12,23:00,23.4,,21.3,,88,,22.0,,7,,,,100.34,,32.0,,,,
2005-09-13 00:00:00,2005-09-13 00:00,2005,9,13,00:00,22.8,,20.1,,85,,24.0,,6,,,,100.35,,30.0,,,,
2005-09-13 01:00:00,2005-09-13 01:00,2005,9,13,01:00,20.7,,19.8,,95,,19.0,,4,,,,100.36,,28.0,,,,
2005-09-13 02:00:00,2005-09-13 02:00,2005,9,13,02:00,20.0,,19.5,,97,,20.0,,4,,,,100.36,,27.0,,,,
2005-09-13 03:00:00,2005-09-13 03:00,2005,9,13,03:00,19.7,,19.3,,98,,21.0,,6,,,,100.37,,,,,,
2005-09-13 04:00:00,2005-09-13 04:00,2005,9,13,04:00,18.9,,18.9,,100,,20.0,,2,,,,100.38,,,,,,
2005-09-13 05:00:00,2005-09-13 05:00,2005,9,13,05:00,17.7,,17.7,,100,,,,0,,,,100.42,,,,,,
2005-09-13 06:00:00,2005-09-13 06:00,2005,9,13,06:00,16.5,,16.5,,100,,17.0,,4,,,,100.48,,,,,,
2005-09-13 07:00:00,2005-09-13 07:00,2005,9,13,07:00,19.0,,19.0,,100,,20.0,,2,,,,100.51,,,,,,
2005-09-13 08:00:00,2005-09-13 08:00,2005,9,13,08:00,21.4,,19.9,,91,,18.0,,7,,,,100.52,,29.0,,,,
2005-09-13 09:00:00,2005-09-13 09:00,2005,9,13,09:00,23.7,,20.2,,81,,18.0,,7,,,,100.5,,31.0,,,,
2005-09-13 10:00:00,2005-09-13 10:00,2005,9,13,10:00,25.7,,20.0,,71,,19.0,,9,,,,100.45,,33.0,,,,
2005-09-13 11:00:00,2005-09-13 11:00,2005,9,13,11:00,28.3,,20.0,,61,,20.0,,11,,,,100.37,,36.0,,,,
2005-09-13 12:00:00,2005-09-13 12:00,2005,9,13,12:00,29.4,,19.7,,56,,19.0,,15,,,,100.33,,37.0,,,,
2005-09-13 13:00:00,2005-09-13 13:00,2005,9,13,13:00,30.0,,18.2,,49,,19.0,,22,,,,100.26,,36.0,,,,
2005-09-13 14:00:00,2005-09-13 14:00,2005,9,13,14:00,30.2,,18.1,,48,,20.0,,19,,,,100.2,,36.0,,,,
2005-09-13 15:00:00,2005-09-13 15:00,2005,9,13,15:00,29.8,,16.8,,46,,21.0,,19,,,,100.16,,35.0,,,,
2005-09-13 16:00:00,2005-09-13 16:00,2005,9,13,16:00,28.7,,17.2,,50,,19.0,,22,,,,100.11,,34.0,,,,
2005-09-13 17:00:00,2005-09-13 17:00,2005,9,13,17:00,27.5,,18.1,,57,,19.0,,17,,,,100.15,,34.0,,,,
2005-09-13 18:00:00,2005-09-13 18:00,2005,9,13,18:00,25.8,,18.3,,63,,19.0,,15,,,,100.18,,32.0,,,,
2005-09-13 19:00:00,2005-09-13 19:00,2005,9,13,19:00,24.1,,17.9,,68,,19.0,,15,,,,100.19,,30.0,,,,
2005-09-13 20:00:00,2005-09-13 20:00,2005,9,13,20:00,23.1,,18.1,,73,,20.0,,15,,,,100.2,,29.0,,,,
2005-09-13 21:00:00,2005-09-13 21:00,2005,9,13,21:00,22.2,,17.8,,76,,20.0,,11,,,,100.2,,28.0,,,,
2005-09-13 22:00:00,2005-09-13 22:00,2005,9,13,22:00,20.8,,17.7,,82,,26.0,,6,,,,100.23,,27.0,,,,
2005-09-13 23:00:00,2005-09-13 23:00,2005,9,13,23:00,19.6,,17.4,,87,,20.0,,6,,,,100.24,,,,,,
2005-09-14 00:00:00,2005-09-14 00:00,2005,9,14,00:00,19.5,,17.6,,89,,21.0,,6,,,,100.27,,,,,,
2005-09-14 01:00:00,2005-09-14 01:00,2005,9,14,01:00,18.7,,17.2,,91,,20.0,,4,,,,100.26,,,,,,
2005-09-14 02:00:00,2005-09-14 02:00,2005,9,14,02:00,17.6,,16.9,,96,,17.0,,6,,,,100.15,,,,,,
2005-09-14 03:00:00,2005-09-14 03:00,2005,9,14,03:00,17.9,,17.2,,96,,19.0,,6,,,,100.11,,,,,,
2005-09-14 04:00:00,2005-09-14 04:00,2005,9,14,04:00,18.2,,17.6,,96,,18.0,,7,,,,100.11,,,,,,
2005-09-14 05:00:00,2005-09-14 05:00,2005,9,14,05:00,17.4,,17.2,,99,,19.0,,6,,,,100.14,,,,,,
2005-09-14 06:00:00,2005-09-14 06:00,2005,9,14,06:00,17.5,,17.5,,100,,17.0,,4,,,,100.16,,,,,,
2005-09-14 07:00:00,2005-09-14 07:00,2005,9,14,07:00,18.7,,18.3,,98,,18.0,,7,,,,100.18,,,,,,
2005-09-14 08:00:00,2005-09-14 08:00,2005,9,14,08:00,20.9,,18.8,,88,,19.0,,9,,,,100.17,,28.0,,,,
2005-09-14 09:00:00,2005-09-14 09:00,2005,9,14,09:00,23.8,,19.9,,79,,19.0,,11,,,,100.12,,31.0,,,,
2005-09-14 10:00:00,2005-09-14 10:00,2005,9,14,10:00,26.2,,20.3,,70,,20.0,,13,,,,100.08,,34.0,,,,
2005-09-14 11:00:00,2005-09-14 11:00,2005,9,14,11:00,28.0,,19.9,,61,,20.0,,20,,,,100.03,,35.0,,,,
2005-09-14 12:00:00,2005-09-14 12:00,2005,9,14,12:00,28.9,,20.3,,60,,19.0,,20,,,,99.99,,37.0,,,,
2005-09-14 13:00:00,2005-09-14 13:00,2005,9,14,13:00,29.3,,19.7,,56,,19.0,,30,,,,99.96,,37.0,,,,
2005-09-14 14:00:00,2005-09-14 14:00,2005,9,14,14:00,29.5,,20.2,,57,,20.0,,20,,,,99.93,,37.0,,,,
2005-09-14 15:00:00,2005-09-14 15:00,2005,9,14,15:00,29.5,,20.4,,58,,20.0,,20,,,,99.87,,37.0,,,,
2005-09-14 16:00:00,2005-09-14 16:00,2005,9,14,16:00,28.2,,19.3,,59,,20.0,,19,,,,99.92,,35.0,,,,
2005-09-14 17:00:00,2005-09-14 17:00,2005,9,14,17:00,27.2,,19.4,,62,,21.0,,17,,,,100.01,,34.0,,,,
2005-09-14 18:00:00,2005-09-14 18:00,2005,9,14,18:00,22.5,,16.9,,71,,27.0,,15,,,,100.23,,28.0,,,,
2005-09-14 19:00:00,2005-09-14 19:00,2005,9,14,19:00,21.7,,17.4,,77,,36.0,,9,,,,100.28,,27.0,,,,
2005-09-14 20:00:00,2005-09-14 20:00,2005,9,14,20:00,20.1,,18.1,,88,,34.0,,9,,,,100.39,,26.0,,,,
2005-09-14 21:00:00,2005-09-14 21:00,2005,9,14,21:00,18.5,,18.4,,99,,20.0,,6,,,,100.45,,,,,,
2005-09-14 22:00:00,2005-09-14 22:00,2005,9,14,22:00,18.0,,18.0,,100,,23.0,,2,,,,100.44,,,,,,
2005-09-14 23:00:00,2005-09-14 23:00,2005,9,14,23:00,18.0,,18.0,,100,,32.0,,4,,,,100.4,,,,,,
2005-09-15 00:00:00,2005-09-15 00:00,2005,9,15,00:00,17.7,,17.7,,100,,20.0,,4,,,,100.48,,,,,,
2005-09-15 01:00:00,2005-09-15 01:00,2005,9,15,01:00,17.3,,17.3,,100,,24.0,,2,,,,100.47,,,,,,
2005-09-15 02:00:00,2005-09-15 02:00,2005,9,15,02:00,17.2,,17.2,,100,,18.0,,4,,,,100.48,,,,,,
2005-09-15 03:00:00,2005-09-15 03:00,2005,9,15,03:00,16.3,,16.3,,100,,19.0,,4,,,,100.52,,,,,,
2005-09-15 04:00:00,2005-09-15 04:00,2005,9,15,04:00,16.5,,16.5,,100,,19.0,,4,,,,100.58,,,,,,
2005-09-15 05:00:00,2005-09-15 05:00,2005,9,15,05:00,16.8,,16.8,,100,,,,0,,,,100.63,,,,,,
2005-09-15 06:00:00,2005-09-15 06:00,2005,9,15,06:00,16.2,,16.2,,100,,19.0,,2,,,,100.74,,,,,,
2005-09-15 07:00:00,2005-09-15 07:00,2005,9,15,07:00,18.0,,18.0,,100,,32.0,,7,,,,100.79,,,,,,
2005-09-15 08:00:00,2005-09-15 08:00,2005,9,15,08:00,18.8,,18.8,,100,,35.0,,9,,,,100.8,,,,,,
2005-09-15 09:00:00,2005-09-15 09:00,2005,9,15,09:00,20.3,,19.0,,92,,33.0,,11,,,,100.84,,27.0,,,,
2005-09-15 10:00:00,2005-09-15 10:00,2005,9,15,10:00,21.6,,19.1,,86,,22.0,,6,,,,100.89,,28.0,,,,
2005-09-15 11:00:00,2005-09-15 11:00,2005,9,15,11:00,21.2,,18.9,,87,,33.0,,4,,,,100.92,,28.0,,,,
2005-09-15 12:00:00,2005-09-15 12:00,2005,9,15,12:00,21.9,,19.3,,85,,31.0,,9,,,,100.92,,29.0,,,,
2005-09-15 13:00:00,2005-09-15 13:00,2005,9,15,13:00,22.8,,18.8,,78,,36.0,,13,,,,100.88,,29.0,,,,
2005-09-15 14:00:00,2005-09-15 14:00,2005,9,15,14:00,23.5,,19.0,,76,,33.0,,7,,,,100.84,,30.0,,,,
2005-09-15 15:00:00,2005-09-15 15:00,2005,9,15,15:00,24.0,,18.1,,70,,35.0,,6,,,,100.87,,30.0,,,,
2005-09-15 16:00:00,2005-09-15 16:00,2005,9,15,16:00,23.6,,17.3,,68,,36.0,,9,,,,100.87,,29.0,,,,
2005-09-15 17:00:00,2005-09-15 17:00,2005,9,15,17:00,23.8,,16.8,,65,,34.0,,13,,,,100.92,,29.0,,,,
2005-09-15 18:00:00,2005-09-15 18:00,2005,9,15,18:00,21.9,,16.4,,71,,22.0,,13,,,,100.96,,27.0,,,,
2005-09-15 19:00:00,2005-09-15 19:00,2005,9,15,19:00,21.2,,15.6,,70,,2.0,,15,,,,101.03,,26.0,,,,
2005-09-15 20:00:00,2005-09-15 20:00,2005,9,15,20:00,20.1,,15.3,,74,,22.0,,9,,,,101.08,,,,,,
2005-09-15 21:00:00,2005-09-15 21:00,2005,9,15,21:00,19.2,,14.6,,75,,23.0,,9,,,,101.09,,,,,,
2005-09-15 22:00:00,2005-09-15 22:00,2005,9,15,22:00,18.0,,14.6,,81,,2.0,,6,,,,101.13,,,,,,
2005-09-15 23:00:00,2005-09-15 23:00,2005,9,15,23:00,18.4,,14.3,,77,,9.0,,7,,,,101.13,,,,,,
2005-09-16 00:00:00,2005-09-16 00:00,2005,9,16,00:00,18.7,,14.5,,77,,10.0,,11,,,,101.18,,,,,,
2005-09-16 01:00:00,2005-09-16 01:00,2005,9,16,01:00,18.1,,14.3,,78,,10.0,,13,,,,101.17,,,,,,
2005-09-16 02:00:00,2005-09-16 02:00,2005,9,16,02:00,17.8,,14.0,,78,,9.0,,13,,,,101.17,,,,,,
2005-09-16 03:00:00,2005-09-16 03:00,2005,9,16,03:00,17.2,,13.5,,79,,9.0,,11,,,,101.13,,,,,,
2005-09-16 04:00:00,2005-09-16 04:00,2005,9,16,04:00,16.5,,13.2,,81,,8.0,,9,,,,101.13,,,,,,
2005-09-16 05:00:00,2005-09-16 05:00,2005,9,16,05:00,16.6,,12.5,,77,,9.0,,13,,,,101.12,,,,,,
2005-09-16 06:00:00,2005-09-16 06:00,2005,9,16,06:00,16.3,,12.3,,77,,9.0,,13,,,,101.16,,,,,,
2005-09-16 07:00:00,2005-09-16 07:00,2005,9,16,07:00,16.6,,12.2,,75,,9.0,,15,,,,101.19,,,,,,
2005-09-16 08:00:00,2005-09-16 08:00,2005,9,16,08:00,16.9,,12.4,,75,,9.0,,19,,,,101.17,,,,,,
2005-09-16 09:00:00,2005-09-16 09:00,2005,9,16,09:00,17.7,,12.4,,71,,9.0,,19,,,,101.17,,,,,,
2005-09-16 10:00:00,2005-09-16 10:00,2005,9,16,10:00,18.3,,12.8,,70,,9.0,,19,,,,101.14,,,,,,
2005-09-16 11:00:00,2005-09-16 11:00,2005,9,16,11:00,18.9,,12.8,,68,,10.0,,20,,,,101.09,,,,,,
2005-09-16 12:00:00,2005-09-16 12:00,2005,9,16,12:00,19.1,,13.3,,69,,8.0,,20,,,,100.99,,,,,,
2005-09-16 13:00:00,2005-09-16 13:00,2005,9,16,13:00,18.9,,13.2,,69,,8.0,,19,,,,100.95,,,,,,
2005-09-16 14:00:00,2005-09-16 14:00,2005,9,16,14:00,18.2,,14.3,,78,,9.0,,13,,,,100.88,,,,,,
2005-09-16 15:00:00,2005-09-16 15:00,2005,9,16,15:00,16.7,,14.8,,89,,3.0,,11,,,,100.87,,,,,,
2005-09-16 16:00:00,2005-09-16 16:00,2005,9,16,16:00,15.6,,15.2,,97,,4.0,,13,,,,100.83,,,,,,
2005-09-16 17:00:00,2005-09-16 17:00,2005,9,16,17:00,15.1,,15.1,,100,,9.0,,17,,,,100.72,,,,,,
2005-09-16 18:00:00,2005-09-16 18:00,2005,9,16,18:00,15.1,,15.1,,100,,5.0,,11,,,,100.73,,,,,,
2005-09-16 19:00:00,2005-09-16 19:00,2005,9,16,19:00,15.2,,15.2,,100,,4.0,,13,,,,100.68,,,,,,
2005-09-16 20:00:00,2005-09-16 20:00,2005,9,16,20:00,15.4,,15.4,,100,,2.0,,11,,,,100.68,,,,,,
2005-09-16 21:00:00,2005-09-16 21:00,2005,9,16,21:00,15.7,,15.7,,100,,34.0,,15,,,,100.64,,,,,,
2005-09-16 22:00:00,2005-09-16 22:00,2005,9,16,22:00,15.6,,15.6,,100,,35.0,,15,,,,100.58,,,,,,
2005-09-16 23:00:00,2005-09-16 23:00,2005,9,16,23:00,16.0,,16.0,,100,,1.0,,15,,,,100.52,,,,,,
2005-09-17 00:00:00,2005-09-17 00:00,2005,9,17,00:00,15.8,,15.8,,100,,2.0,,13,,,,100.46,,,,,,
2005-09-17 01:00:00,2005-09-17 01:00,2005,9,17,01:00,16.0,,16.0,,100,,3.0,,19,,,,100.4,,,,,,
2005-09-17 02:00:00,2005-09-17 02:00,2005,9,17,02:00,16.1,,16.1,,100,,2.0,,17,,,,100.34,,,,,,
2005-09-17 03:00:00,2005-09-17 03:00,2005,9,17,03:00,15.9,,15.9,,100,,2.0,,17,,,,100.32,,,,,,
2005-09-17 04:00:00,2005-09-17 04:00,2005,9,17,04:00,15.8,,15.8,,100,,23.0,,15,,,,100.33,,,,,,
2005-09-17 05:00:00,2005-09-17 05:00,2005,9,17,05:00,15.6,,15.6,,100,,27.0,,13,,,,100.32,,,,,,
2005-09-17 06:00:00,2005-09-17 06:00,2005,9,17,06:00,15.7,,15.7,,100,,34.0,,15,,,,100.36,,,,,,
2005-09-17 07:00:00,2005-09-17 07:00,2005,9,17,07:00,15.7,,15.7,,100,,34.0,,13,,,,100.35,,,,,,
2005-09-17 08:00:00,2005-09-17 08:00,2005,9,17,08:00,16.4,,16.4,,100,,23.0,,15,,,,100.33,,,,,,
2005-09-17 09:00:00,2005-09-17 09:00,2005,9,17,09:00,16.8,,16.6,,99,,31.0,,11,,,,100.36,,,,,,
2005-09-17 10:00:00,2005-09-17 10:00,2005,9,17,10:00,16.8,,16.8,,100,,32.0,,9,,,,100.39,,,,,,
2005-09-17 11:00:00,2005-09-17 11:00,2005,9,17,11:00,17.1,,17.1,,100,,32.0,,9,,,,100.38,,,,,,
2005-09-17 12:00:00,2005-09-17 12:00,2005,9,17,12:00,17.2,,17.1,,99,,33.0,,15,,,,100.39,,,,,,
2005-09-17 13:00:00,2005-09-17 13:00,2005,9,17,13:00,17.3,,17.3,,100,,29.0,,11,,,,100.39,,,,,,
2005-09-17 14:00:00,2005-09-17 14:00,2005,9,17,14:00,17.1,,17.1,,100,,26.0,,4,,,,100.36,,,,,,
2005-09-17 15:00:00,2005-09-17 15:00,2005,9,17,15:00,17.0,,17.0,,100,,36.0,,13,,,,100.38,,,,,,
2005-09-17 16:00:00,2005-09-17 16:00,2005,9,17,16:00,17.0,,17.0,,100,,32.0,,7,,,,100.37,,,,,,
2005-09-17 17:00:00,2005-09-17 17:00,2005,9,17,17:00,17.7,,17.5,,99,,32.0,,11,,,,100.36,,,,,,
2005-09-17 18:00:00,2005-09-17 18:00,2005,9,17,18:00,17.4,,17.1,,98,,24.0,,7,,,,100.4,,,,,,
2005-09-17 19:00:00,2005-09-17 19:00,2005,9,17,19:00,17.3,,16.9,,97,,24.0,,9,,,,100.45,,,,,,
2005-09-17 20:00:00,2005-09-17 20:00,2005,9,17,20:00,17.1,,17.0,,99,,19.0,,4,,,,100.49,,,,,,
2005-09-17 21:00:00,2005-09-17 21:00,2005,9,17,21:00,17.2,,16.8,,97,,33.0,,9,,,,100.48,,,,,,
2005-09-17 22:00:00,2005-09-17 22:00,2005,9,17,22:00,17.1,,16.7,,97,,35.0,,7,,,,100.5,,,,,,
2005-09-17 23:00:00,2005-09-17 23:00,2005,9,17,23:00,17.1,,16.4,,96,,19.0,,6,,,,100.51,,,,,,
2005-09-18 00:00:00,2005-09-18 00:00,2005,9,18,00:00,16.1,,16.0,,99,,22.0,,6,,,,100.52,,,,,,
2005-09-18 01:00:00,2005-09-18 01:00,2005,9,18,01:00,15.5,,15.5,,100,,24.0,,6,,,,100.53,,,,,,
2005-09-18 02:00:00,2005-09-18 02:00,2005,9,18,02:00,15.3,,15.3,,100,,29.0,,2,,,,100.52,,,,,,
2005-09-18 03:00:00,2005-09-18 03:00,2005,9,18,03:00,15.5,,15.5,,100,,24.0,,2,,,,100.52,,,,,,
2005-09-18 04:00:00,2005-09-18 04:00,2005,9,18,04:00,15.1,,15.1,,100,,28.0,,4,,,,100.53,,,,,,
2005-09-18 05:00:00,2005-09-18 05:00,2005,9,18,05:00,15.0,,15.0,,100,,25.0,,4,,,,100.59,,,,,,
2005-09-18 06:00:00,2005-09-18 06:00,2005,9,18,06:00,15.1,,15.1,,100,,24.0,,4,,,,100.64,,,,,,
2005-09-18 07:00:00,2005-09-18 07:00,2005,9,18,07:00,15.7,,15.7,,100,,26.0,,6,,,,100.67,,,,,,
2005-09-18 08:00:00,2005-09-18 08:00,2005,9,18,08:00,17.4,,16.2,,93,,22.0,,4,,,,100.7,,,,,,
2005-09-18 09:00:00,2005-09-18 09:00,2005,9,18,09:00,18.0,,16.0,,88,,27.0,,4,,,,100.73,,,,,,
2005-09-18 10:00:00,2005-09-18 10:00,2005,9,18,10:00,18.8,,16.4,,86,,22.0,,6,,,,100.73,,,,,,
2005-09-18 11:00:00,2005-09-18 11:00,2005,9,18,11:00,20.4,,15.6,,74,,25.0,,4,,,,100.71,,25.0,,,,
2005-09-18 12:00:00,2005-09-18 12:00,2005,9,18,12:00,21.0,,15.7,,72,,18.0,,6,,,,100.68,,25.0,,,,
2005-09-18 13:00:00,2005-09-18 13:00,2005,9,18,13:00,22.1,,16.2,,69,,20.0,,7,,,,100.64,,27.0,,,,
2005-09-18 14:00:00,2005-09-18 14:00,2005,9,18,14:00,22.7,,16.0,,66,,17.0,,6,,,,100.6,,27.0,,,,
2005-09-18 15:00:00,2005-09-18 15:00,2005,9,18,15:00,23.2,,16.0,,64,,13.0,,7,,,,100.58,,28.0,,,,
2005-09-18 16:00:00,2005-09-18 16:00,2005,9,18,16:00,23.5,,17.0,,67,,16.0,,7,,,,100.56,,29.0,,,,
2005-09-18 17:00:00,2005-09-18 17:00,2005,9,18,17:00,22.1,,16.9,,72,,27.0,,9,,,,100.55,,27.0,,,,
2005-09-18 18:00:00,2005-09-18 18:00,2005,9,18,18:00,19.9,,17.0,,83,,14.0,,7,,,,100.56,,,,,,
2005-09-18 19:00:00,2005-09-18 19:00,2005,9,18,19:00,19.1,,17.2,,89,,16.0,,9,,,,100.58,,,,,,
2005-09-18 20:00:00,2005-09-18 20:00,2005,9,18,20:00,18.1,,17.3,,95,,18.0,,7,,,,100.61,,,,,,
2005-09-18 21:00:00,2005-09-18 21:00,2005,9,18,21:00,17.4,,17.1,,98,,20.0,,6,,,,100.63,,,,,,
2005-09-18 22:00:00,2005-09-18 22:00,2005,9,18,22:00,17.4,,17.2,,99,,21.0,,7,,,,100.64,,,,,,
2005-09-18 23:00:00,2005-09-18 23:00,2005,9,18,23:00,17.5,,16.8,,96,,24.0,,7,,,,100.69,,,,,,
2005-09-19 00:00:00,2005-09-19 00:00,2005,9,19,00:00,17.9,,15.2,,84,,26.0,,11,,,,100.74,,,,,,
2005-09-19 01:00:00,2005-09-19 01:00,2005,9,19,01:00,17.3,,14.5,,84,,26.0,,13,,,,100.78,,,,,,
2005-09-19 02:00:00,2005-09-19 02:00,2005,9,19,02:00,16.4,,14.6,,89,,27.0,,11,,,,100.81,,,,,,
2005-09-19 03:00:00,2005-09-19 03:00,2005,9,19,03:00,16.0,,14.5,,91,,27.0,,11,,,,100.84,,,,,,
2005-09-19 04:00:00,2005-09-19 04:00,2005,9,19,04:00,15.7,,14.4,,92,,28.0,,9,,,,100.88,,,,,,
2005-09-19 05:00:00,2005-09-19 05:00,2005,9,19,05:00,15.1,,14.0,,93,,28.0,,9,,,,100.94,,,,,,
2005-09-19 06:00:00,2005-09-19 06:00,2005,9,19,06:00,14.9,,14.0,,94,,29.0,,7,,,,101.03,,,,,,
2005-09-19 07:00:00,2005-09-19 07:00,2005,9,19,07:00,15.8,,14.2,,90,,29.0,,4,,,,101.07,,,,,,
2005-09-19 08:00:00,2005-09-19 08:00,2005,9,19,08:00,17.3,,14.1,,81,,32.0,,9,,,,101.11,,,,,,
2005-09-19 09:00:00,2005-09-19 09:00,2005,9,19,09:00,19.0,,15.0,,78,,35.0,,7,,,,101.16,,,,,,
2005-09-19 10:00:00,2005-09-19 10:00,2005,9,19,10:00,20.3,,15.1,,72,,29.0,,6,,,,101.19,,,,,,
2005-09-19 11:00:00,2005-09-19 11:00,2005,9,19,11:00,21.0,,15.5,,71,,28.0,,7,,,,101.2,,25.0,,,,
2005-09-19 12:00:00,2005-09-19 12:00,2005,9,19,12:00,21.7,,15.2,,67,,26.0,,11,,,,101.18,,26.0,,,,
2005-09-19 13:00:00,2005-09-19 13:00,2005,9,19,13:00,22.7,,16.2,,67,,26.0,,9,,,,101.13,,27.0,,,,
2005-09-19 14:00:00,2005-09-19 14:00,2005,9,19,14:00,23.6,,16.9,,66,,27.0,,9,,,,101.06,,29.0,,,,
2005-09-19 15:00:00,2005-09-19 15:00,2005,9,19,15:00,23.2,,15.9,,64,,31.0,,6,,,,100.98,,28.0,,,,
2005-09-19 16:00:00,2005-09-19 16:00,2005,9,19,16:00,23.2,,16.2,,65,,25.0,,4,,,,100.95,,28.0,,,,
2005-09-19 17:00:00,2005-09-19 17:00,2005,9,19,17:00,22.6,,16.9,,70,,13.0,,7,,,,100.91,,28.0,,,,
2005-09-19 18:00:00,2005-09-19 18:00,2005,9,19,18:00,21.4,,17.0,,76,,10.0,,7,,,,100.86,,27.0,,,,
2005-09-19 19:00:00,2005-09-19 19:00,2005,9,19,19:00,20.8,,17.6,,82,,14.0,,7,,,,100.82,,27.0,,,,
2005-09-19 20:00:00,2005-09-19 20:00,2005,9,19,20:00,19.8,,16.1,,79,,14.0,,9,,,,100.74,,,,,,
2005-09-19 21:00:00,2005-09-19 21:00,2005,9,19,21:00,19.0,,16.0,,83,,15.0,,11,,,,100.66,,,,,,
2005-09-19 22:00:00,2005-09-19 22:00,2005,9,19,22:00,18.5,,15.9,,85,,14.0,,9,,,,100.63,,,,,,
2005-09-19 23:00:00,2005-09-19 23:00,2005,9,19,23:00,18.2,,16.0,,87,,14.0,,11,,,,100.54,,,,,,
2005-09-20 00:00:00,2005-09-20 00:00,2005,9,20,00:00,18.9,,16.1,,84,,15.0,,13,,,,100.43,,,,,,
2005-09-20 01:00:00,2005-09-20 01:00,2005,9,20,01:00,18.5,,16.3,,87,,13.0,,13,,,,100.24,,,,,,
2005-09-20 02:00:00,2005-09-20 02:00,2005,9,20,02:00,19.2,,15.8,,81,,14.0,,17,,,,100.09,,,,,,
2005-09-20 03:00:00,2005-09-20 03:00,2005,9,20,03:00,19.1,,15.5,,80,,14.0,,15,,,,99.95,,,,,,
2005-09-20 04:00:00,2005-09-20 04:00,2005,9,20,04:00,18.3,,15.6,,84,,16.0,,15,,,,99.86,,,,,,
2005-09-20 05:00:00,2005-09-20 05:00,2005,9,20,05:00,18.4,,16.0,,86,,17.0,,17,,,,99.76,,,,,,
2005-09-20 06:00:00,2005-09-20 06:00,2005,9,20,06:00,18.4,,16.6,,89,,20.0,,13,,,,99.77,,,,,,
2005-09-20 07:00:00,2005-09-20 07:00,2005,9,20,07:00,19.2,,17.4,,89,,19.0,,17,,,,99.71,,,,,,
2005-09-20 08:00:00,2005-09-20 08:00,2005,9,20,08:00,21.4,,19.2,,87,,20.0,,17,,,,99.69,,28.0,,,,
2005-09-20 09:00:00,2005-09-20 09:00,2005,9,20,09:00,22.6,,16.1,,67,,23.0,,26,,,,99.71,,27.0,,,,
2005-09-20 10:00:00,2005-09-20 10:00,2005,9,20,10:00,22.4,,15.5,,65,,23.0,,20,,,,99.71,,27.0,,,,
2005-09-20 11:00:00,2005-09-20 11:00,2005,9,20,11:00,22.1,,15.4,,66,,24.0,,22,,,,99.73,,26.0,,,,
2005-09-20 12:00:00,2005-09-20 12:00,2005,9,20,12:00,21.4,,14.9,,66,,24.0,,19,,,,99.8,,25.0,,,,
2005-09-20 13:00:00,2005-09-20 13:00,2005,9,20,13:00,21.6,,14.0,,62,,27.0,,28,,,,99.87,,25.0,,,,
2005-09-20 14:00:00,2005-09-20 14:00,2005,9,20,14:00,22.1,,14.2,,61,,27.0,,24,,,,99.93,,26.0,,,,
2005-09-20 15:00:00,2005-09-20 15:00,2005,9,20,15:00,22.7,,13.8,,57,,27.0,,22,,,,99.98,,26.0,,,,
2005-09-20 16:00:00,2005-09-20 16:00,2005,9,20,16:00,21.8,,13.5,,59,,27.0,,22,,,,100.08,,25.0,,,,
2005-09-20 17:00:00,2005-09-20 17:00,2005,9,20,17:00,20.8,,13.5,,63,,27.0,,17,,,,100.14,,,,,,
2005-09-20 18:00:00,2005-09-20 18:00,2005,9,20,18:00,19.8,,13.5,,67,,28.0,,15,,,,100.2,,,,,,
2005-09-20 19:00:00,2005-09-20 19:00,2005,9,20,19:00,18.6,,13.6,,73,,28.0,,9,,,,100.28,,,,,,
2005-09-20 20:00:00,2005-09-20 20:00,2005,9,20,20:00,17.3,,13.7,,79,,28.0,,7,,,,100.34,,,,,,
2005-09-20 21:00:00,2005-09-20 21:00,2005,9,20,21:00,16.3,,14.0,,86,,28.0,,7,,,,100.38,,,,,,
2005-09-20 22:00:00,2005-09-20 22:00,2005,9,20,22:00,16.4,,12.5,,78,,28.0,,13,,,,100.45,,,,,,
2005-09-20 23:00:00,2005-09-20 23:00,2005,9,20,23:00,15.1,,12.1,,82,,27.0,,11,,,,100.47,,,,,,
2005-09-21 00:00:00,2005-09-21 00:00,2005,9,21,00:00,14.6,,11.9,,84,,28.0,,13,,,,100.53,,,,,,
2005-09-21 01:00:00,2005-09-21 01:00,2005,9,21,01:00,13.9,,11.9,,88,,27.0,,11,,,,100.55,,,,,,
2005-09-21 02:00:00,2005-09-21 02:00,2005,9,21,02:00,13.2,,11.7,,91,,26.0,,13,,,,100.55,,,,,,
2005-09-21 03:00:00,2005-09-21 03:00,2005,9,21,03:00,12.0,,11.1,,94,,22.0,,6,,,,100.52,,,,,,
2005-09-21 04:00:00,2005-09-21 04:00,2005,9,21,04:00,10.4,,10.2,,99,,22.0,,4,,,,100.51,,,,,,
2005-09-21 05:00:00,2005-09-21 05:00,2005,9,21,05:00,10.5,,10.5,,100,,20.0,,7,,,,100.49,,,,,,
2005-09-21 06:00:00,2005-09-21 06:00,2005,9,21,06:00,11.0,,11.0,,100,,20.0,,7,,,,100.48,,,,,,
2005-09-21 07:00:00,2005-09-21 07:00,2005,9,21,07:00,12.9,,12.8,,99,,22.0,,6,,,,100.47,,,,,,
2005-09-21 08:00:00,2005-09-21 08:00,2005,9,21,08:00,15.9,,14.3,,90,,23.0,,9,,,,100.49,,,,,,
2005-09-21 09:00:00,2005-09-21 09:00,2005,9,21,09:00,18.0,,14.5,,80,,25.0,,15,,,,100.47,,,,,,
2005-09-21 10:00:00,2005-09-21 10:00,2005,9,21,10:00,20.1,,15.6,,75,,27.0,,19,,,,100.46,,,,,,
2005-09-21 11:00:00,2005-09-21 11:00,2005,9,21,11:00,21.6,,16.2,,71,,27.0,,19,,,,100.46,,26.0,,,,
2005-09-21 12:00:00,2005-09-21 12:00,2005,9,21,12:00,23.0,,15.8,,64,,26.0,,20,,,,100.48,,27.0,,,,
2005-09-21 13:00:00,2005-09-21 13:00,2005,9,21,13:00,24.2,,14.9,,56,,29.0,,20,,,,100.46,,28.0,,,,
2005-09-21 14:00:00,2005-09-21 14:00,2005,9,21,14:00,24.7,,12.8,,47,,26.0,,19,,,,100.46,,27.0,,,,
2005-09-21 15:00:00,2005-09-21 15:00,2005,9,21,15:00,25.4,,11.8,,43,,28.0,,13,,,,100.42,,28.0,,,,
2005-09-21 16:00:00,2005-09-21 16:00,2005,9,21,16:00,25.3,,9.5,,37,,31.0,,15,,,,100.42,,26.0,,,,
2005-09-21 17:00:00,2005-09-21 17:00,2005,9,21,17:00,24.8,,9.5,,38,,29.0,,9,,,,100.44,,26.0,,,,
2005-09-21 18:00:00,2005-09-21 18:00,2005,9,21,18:00,21.4,,10.8,,51,,,,0,,,,100.46,,,,,,
2005-09-21 19:00:00,2005-09-21 19:00,2005,9,21,19:00,16.7,,12.2,,75,,31.0,,2,,,,100.51,,,,,,
2005-09-21 20:00:00,2005-09-21 20:00,2005,9,21,20:00,14.5,,11.9,,84,,29.0,,2,,,,100.52,,,,,,
2005-09-21 21:00:00,2005-09-21 21:00,2005,9,21,21:00,14.4,,12.2,,87,,25.0,,6,,,,100.52,,,,,,
2005-09-21 22:00:00,2005-09-21 22:00,2005,9,21,22:00,13.6,,11.4,,87,,24.0,,4,,,,100.52,,,,,,
2005-09-21 23:00:00,2005-09-21 23:00,2005,9,21,23:00,14.3,,12.0,,86,,30.0,,2,,,,100.46,,,,,,
2005-09-22 00:00:00,2005-09-22 00:00,2005,9,22,00:00,14.4,,13.0,,91,,24.0,,2,,,,100.44,,,,,,
2005-09-22 01:00:00,2005-09-22 01:00,2005,9,22,01:00,15.4,,13.6,,89,,22.0,,6,,,,100.43,,,,,,
2005-09-22 02:00:00,2005-09-22 02:00,2005,9,22,02:00,17.0,,15.8,,93,,27.0,,6,,,,100.35,,,,,,
2005-09-22 03:00:00,2005-09-22 03:00,2005,9,22,03:00,18.0,,16.8,,93,,27.0,,6,,,,100.35,,,,,,
2005-09-22 04:00:00,2005-09-22 04:00,2005,9,22,04:00,18.6,,17.1,,91,,28.0,,11,,,,100.39,,,,,,
2005-09-22 05:00:00,2005-09-22 05:00,2005,9,22,05:00,17.2,,16.9,,98,,25.0,,9,,,,100.29,,,,,,
2005-09-22 06:00:00,2005-09-22 06:00,2005,9,22,06:00,17.7,,16.6,,93,,25.0,,7,,,,100.28,,,,,,
2005-09-22 07:00:00,2005-09-22 07:00,2005,9,22,07:00,18.2,,16.6,,90,,26.0,,9,,,,100.24,,,,,,
2005-09-22 08:00:00,2005-09-22 08:00,2005,9,22,08:00,19.6,,16.8,,84,,26.0,,9,,,,100.25,,,,,,
2005-09-22 09:00:00,2005-09-22 09:00,2005,9,22,09:00,21.4,,17.0,,76,,25.0,,17,,,,100.21,,27.0,,,,
2005-09-22 10:00:00,2005-09-22 10:00,2005,9,22,10:00,21.7,,17.2,,76,,24.0,,17,,,,100.14,,27.0,,,,
2005-09-22 11:00:00,2005-09-22 11:00,2005,9,22,11:00,22.3,,17.2,,73,,25.0,,13,,,,100.11,,28.0,,,,
2005-09-22 12:00:00,2005-09-22 12:00,2005,9,22,12:00,23.9,,16.7,,64,,28.0,,15,,,,100.09,,29.0,,,,
2005-09-22 13:00:00,2005-09-22 13:00,2005,9,22,13:00,23.4,,16.5,,65,,26.0,,13,,,,99.99,,28.0,,,,
2005-09-22 14:00:00,2005-09-22 14:00,2005,9,22,14:00,23.6,,16.5,,64,,26.0,,15,,,,99.93,,29.0,,,,
2005-09-22 15:00:00,2005-09-22 15:00,2005,9,22,15:00,23.7,,17.5,,68,,25.0,,15,,,,99.87,,29.0,,,,
2005-09-22 16:00:00,2005-09-22 16:00,2005,9,22,16:00,23.3,,17.9,,72,,26.0,,17,,,,99.83,,29.0,,,,
2005-09-22 17:00:00,2005-09-22 17:00,2005,9,22,17:00,22.4,,17.6,,74,,25.0,,19,,,,99.83,,28.0,,,,
2005-09-22 18:00:00,2005-09-22 18:00,2005,9,22,18:00,21.5,,17.7,,79,,25.0,,11,,,,99.82,,27.0,,,,
2005-09-22 19:00:00,2005-09-22 19:00,2005,9,22,19:00,21.2,,17.8,,81,,24.0,,9,,,,99.77,,27.0,,,,
2005-09-22 20:00:00,2005-09-22 20:00,2005,9,22,20:00,19.7,,18.6,,93,,25.0,,9,,,,99.79,,,,,,
2005-09-22 21:00:00,2005-09-22 21:00,2005,9,22,21:00,19.5,,18.7,,95,,25.0,,9,,,,99.74,,,,,,
2005-09-22 22:00:00,2005-09-22 22:00,2005,9,22,22:00,19.4,,18.8,,96,,28.0,,6,,,,99.77,,,,,,
2005-09-22 23:00:00,2005-09-22 23:00,2005,9,22,23:00,17.8,,17.8,,100,,32.0,,11,,,,99.74,,,,,,
2005-09-23 00:00:00,2005-09-23 00:00,2005,9,23,00:00,17.6,,17.6,,100,,29.0,,9,,,,99.74,,,,,,
2005-09-23 01:00:00,2005-09-23 01:00,2005,9,23,01:00,17.7,,17.7,,100,,31.0,,13,,,,99.81,,,,,,
2005-09-23 02:00:00,2005-09-23 02:00,2005,9,23,02:00,17.9,,17.9,,100,,33.0,,11,,,,99.93,,,,,,
2005-09-23 03:00:00,2005-09-23 03:00,2005,9,23,03:00,14.3,,13.1,,92,,34.0,,26,,,,100.13,,,,,,
2005-09-23 04:00:00,2005-09-23 04:00,2005,9,23,04:00,13.0,,12.0,,94,,34.0,,19,,,,100.3,,,,,,
2005-09-23 05:00:00,2005-09-23 05:00,2005,9,23,05:00,12.7,,12.0,,96,,34.0,,17,,,,100.44,,,,,,
2005-09-23 06:00:00,2005-09-23 06:00,2005,9,23,06:00,12.4,,11.7,,95,,33.0,,9,,,,100.58,,,,,,
2005-09-23 07:00:00,2005-09-23 07:00,2005,9,23,07:00,13.4,,12.0,,91,,34.0,,17,,,,100.7,,,,,,
2005-09-23 08:00:00,2005-09-23 08:00,2005,9,23,08:00,14.6,,11.7,,83,,34.0,,15,,,,100.8,,,,,,
2005-09-23 09:00:00,2005-09-23 09:00,2005,9,23,09:00,15.2,,11.2,,77,,34.0,,20,,,,100.87,,,,,,
2005-09-23 10:00:00,2005-09-23 10:00,2005,9,23,10:00,15.7,,10.6,,72,,34.0,,19,,,,100.94,,,,,,
2005-09-23 11:00:00,2005-09-23 11:00,2005,9,23,11:00,16.2,,9.0,,62,,34.0,,20,,,,100.99,,,,,,
2005-09-23 12:00:00,2005-09-23 12:00,2005,9,23,12:00,16.3,,7.7,,57,,34.0,,19,,,,101.05,,,,,,
2005-09-23 13:00:00,2005-09-23 13:00,2005,9,23,13:00,16.6,,6.4,,51,,35.0,,19,,,,101.08,,,,,,
2005-09-23 14:00:00,2005-09-23 14:00,2005,9,23,14:00,16.8,,6.9,,52,,34.0,,20,,,,101.12,,,,,,
2005-09-23 15:00:00,2005-09-23 15:00,2005,9,23,15:00,16.9,,5.7,,48,,34.0,,20,,,,101.17,,,,,,
2005-09-23 16:00:00,2005-09-23 16:00,2005,9,23,16:00,16.7,,5.3,,47,,34.0,,17,,,,101.23,,,,,,
2005-09-23 17:00:00,2005-09-23 17:00,2005,9,23,17:00,16.2,,5.4,,49,,34.0,,13,,,,101.33,,,,,,
2005-09-23 18:00:00,2005-09-23 18:00,2005,9,23,18:00,14.5,,6.0,,57,,34.0,,7,,,,101.4,,,,,,
2005-09-23 19:00:00,2005-09-23 19:00,2005,9,23,19:00,12.7,,5.9,,63,,35.0,,4,,,,101.47,,,,,,
2005-09-23 20:00:00,2005-09-23 20:00,2005,9,23,20:00,10.6,,6.6,,76,,32.0,,6,,,,101.55,,,,,,
2005-09-23 21:00:00,2005-09-23 21:00,2005,9,23,21:00,10.2,,7.4,,83,,35.0,,7,,,,101.61,,,,,,
2005-09-23 22:00:00,2005-09-23 22:00,2005,9,23,22:00,11.3,,7.2,,76,,28.0,,11,,,,101.66,,,,,,
2005-09-23 23:00:00,2005-09-23 23:00,2005,9,23,23:00,9.7,,7.2,,84,,34.0,,9,,,,101.74,,,,,,
2005-09-24 00:00:00,2005-09-24 00:00,2005,9,24,00:00,9.5,,6.7,,83,,34.0,,6,,,,101.78,,,,,,
2005-09-24 01:00:00,2005-09-24 01:00,2005,9,24,01:00,8.2,,6.4,,88,,34.0,,4,,,,101.84,,,,,,
2005-09-24 02:00:00,2005-09-24 02:00,2005,9,24,02:00,8.2,,6.7,,90,,22.0,,7,,,,101.86,,,,,,
2005-09-24 03:00:00,2005-09-24 03:00,2005,9,24,03:00,7.7,,6.3,,91,,22.0,,6,,,,101.9,,,,,,
2005-09-24 04:00:00,2005-09-24 04:00,2005,9,24,04:00,5.6,,5.0,,96,,23.0,,4,,,,101.97,,,,,,
2005-09-24 05:00:00,2005-09-24 05:00,2005,9,24,05:00,6.0,,5.8,,99,,23.0,,4,,,,102.01,,,,,,
2005-09-24 06:00:00,2005-09-24 06:00,2005,9,24,06:00,5.8,,5.6,,99,,24.0,,4,,,,102.06,,,,,,
2005-09-24 07:00:00,2005-09-24 07:00,2005,9,24,07:00,7.1,,7.0,,99,,,,0,,,,102.09,,,,,,
2005-09-24 08:00:00,2005-09-24 08:00,2005,9,24,08:00,10.3,,7.0,,80,,23.0,,11,,,,102.11,,,,,,
2005-09-24 09:00:00,2005-09-24 09:00,2005,9,24,09:00,11.6,,6.6,,71,,25.0,,9,,,,102.1,,,,,,
2005-09-24 10:00:00,2005-09-24 10:00,2005,9,24,10:00,12.7,,5.6,,62,,26.0,,11,,,,102.05,,,,,,
2005-09-24 11:00:00,2005-09-24 11:00,2005,9,24,11:00,14.2,,7.1,,62,,25.0,,7,,,,101.98,,,,,,
2005-09-24 12:00:00,2005-09-24 12:00,2005,9,24,12:00,14.7,,5.8,,55,,24.0,,11,,,,101.92,,,,,,
2005-09-24 13:00:00,2005-09-24 13:00,2005,9,24,13:00,15.9,,6.5,,54,,25.0,,9,,,,101.77,,,,,,
2005-09-24 14:00:00,2005-09-24 14:00,2005,9,24,14:00,16.4,,5.3,,48,,25.0,,11,,,,101.72,,,,,,
2005-09-24 15:00:00,2005-09-24 15:00,2005,9,24,15:00,16.9,,6.0,,49,,26.0,,9,,,,101.63,,,,,,
2005-09-24 16:00:00,2005-09-24 16:00,2005,9,24,16:00,16.7,,5.8,,49,,24.0,,9,,,,101.62,,,,,,
2005-09-24 17:00:00,2005-09-24 17:00,2005,9,24,17:00,16.0,,5.6,,50,,25.0,,9,,,,101.54,,,,,,
2005-09-24 18:00:00,2005-09-24 18:00,2005,9,24,18:00,14.3,,6.4,,59,,25.0,,7,,,,101.52,,,,,,
2005-09-24 19:00:00,2005-09-24 19:00,2005,9,24,19:00,12.7,,6.5,,66,,25.0,,9,,,,101.46,,,,,,
2005-09-24 20:00:00,2005-09-24 20:00,2005,9,24,20:00,12.1,,6.1,,67,,25.0,,13,,,,101.42,,,,,,
2005-09-24 21:00:00,2005-09-24 21:00,2005,9,24,21:00,10.9,,6.1,,72,,25.0,,13,,,,101.37,,,,,,
2005-09-24 22:00:00,2005-09-24 22:00,2005,9,24,22:00,10.2,,6.4,,77,,24.0,,7,,,,101.33,,,,,,
2005-09-24 23:00:00,2005-09-24 23:00,2005,9,24,23:00,10.2,,6.8,,79,,24.0,,9,,,,101.27,,,,,,
2005-09-25 00:00:00,2005-09-25 00:00,2005,9,25,00:00,9.9,,7.0,,82,,24.0,,11,,,,101.19,,,,,,
2005-09-25 01:00:00,2005-09-25 01:00,2005,9,25,01:00,9.5,,7.1,,85,,24.0,,13,,,,101.17,,,,,,
2005-09-25 02:00:00,2005-09-25 02:00,2005,9,25,02:00,9.2,,7.4,,88,,24.0,,9,,,,101.1,,,,,,
2005-09-25 03:00:00,2005-09-25 03:00,2005,9,25,03:00,9.6,,7.6,,87,,24.0,,11,,,,101.02,,,,,,
2005-09-25 04:00:00,2005-09-25 04:00,2005,9,25,04:00,9.8,,8.1,,89,,24.0,,6,,,,101.03,,,,,,
2005-09-25 05:00:00,2005-09-25 05:00,2005,9,25,05:00,9.8,,8.4,,91,,24.0,,7,,,,101.0,,,,,,
2005-09-25 06:00:00,2005-09-25 06:00,2005,9,25,06:00,10.2,,8.9,,92,,24.0,,7,,,,100.95,,,,,,
2005-09-25 07:00:00,2005-09-25 07:00,2005,9,25,07:00,10.7,,9.2,,90,,24.0,,7,,,,100.93,,,,,,
2005-09-25 08:00:00,2005-09-25 08:00,2005,9,25,08:00,11.4,,9.8,,90,,23.0,,7,,,,100.92,,,,,,
2005-09-25 09:00:00,2005-09-25 09:00,2005,9,25,09:00,11.6,,10.8,,95,,23.0,,6,,,,100.91,,,,,,
2005-09-25 10:00:00,2005-09-25 10:00,2005,9,25,10:00,11.4,,11.4,,100,,24.0,,6,,,,100.82,,,,,,
2005-09-25 11:00:00,2005-09-25 11:00,2005,9,25,11:00,12.4,,12.4,,100,,24.0,,6,,,,100.75,,,,,,
2005-09-25 12:00:00,2005-09-25 12:00,2005,9,25,12:00,13.6,,13.6,,100,,23.0,,6,,,,100.71,,,,,,
2005-09-25 13:00:00,2005-09-25 13:00,2005,9,25,13:00,14.6,,14.6,,100,,23.0,,2,,,,100.61,,,,,,
2005-09-25 14:00:00,2005-09-25 14:00,2005,9,25,14:00,17.5,,17.5,,100,,29.0,,11,,,,100.55,,,,,,
2005-09-25 15:00:00,2005-09-25 15:00,2005,9,25,15:00,18.1,,18.1,,100,,29.0,,11,,,,100.44,,,,,,
2005-09-25 16:00:00,2005-09-25 16:00,2005,9,25,16:00,18.7,,18.7,,100,,29.0,,11,,,,100.41,,,,,,
2005-09-25 17:00:00,2005-09-25 17:00,2005,9,25,17:00,19.2,,19.2,,100,,29.0,,11,,,,100.37,,,,,,
2005-09-25 18:00:00,2005-09-25 18:00,2005,9,25,18:00,19.3,,19.3,,100,,29.0,,7,,,,100.37,,,,,,
2005-09-25 19:00:00,2005-09-25 19:00,2005,9,25,19:00,19.1,,19.1,,100,,29.0,,6,,,,100.33,,,,,,
2005-09-25 20:00:00,2005-09-25 20:00,2005,9,25,20:00,19.1,,19.1,,100,,22.0,,4,,,,100.26,,,,,,
2005-09-25 21:00:00,2005-09-25 21:00,2005,9,25,21:00,19.4,,19.4,,100,,28.0,,7,,,,100.2,,,,,,
2005-09-25 22:00:00,2005-09-25 22:00,2005,9,25,22:00,19.1,,18.9,,99,,28.0,,11,,,,100.08,,,,,,
2005-09-25 23:00:00,2005-09-25 23:00,2005,9,25,23:00,18.8,,18.8,,100,,29.0,,11,,,,99.97,,,,,,
2005-09-26 00:00:00,2005-09-26 00:00,2005,9,26,00:00,18.8,,18.8,,100,,20.0,,15,,,,99.99,,,,,,
2005-09-26 01:00:00,2005-09-26 01:00,2005,9,26,01:00,18.7,,18.7,,100,,20.0,,15,,,,99.92,,,,,,
2005-09-26 02:00:00,2005-09-26 02:00,2005,9,26,02:00,18.8,,18.8,,100,,29.0,,15,,,,99.81,,,,,,
2005-09-26 03:00:00,2005-09-26 03:00,2005,9,26,03:00,18.8,,18.8,,100,,28.0,,15,,,,99.72,,,,,,
2005-09-26 04:00:00,2005-09-26 04:00,2005,9,26,04:00,18.9,,18.9,,100,,26.0,,17,,,,99.64,,,,,,
2005-09-26 05:00:00,2005-09-26 05:00,2005,9,26,05:00,18.8,,18.8,,100,,19.0,,13,,,,99.52,,,,,,
2005-09-26 06:00:00,2005-09-26 06:00,2005,9,26,06:00,19.0,,19.0,,100,,28.0,,17,,,,99.44,,,,,,
2005-09-26 07:00:00,2005-09-26 07:00,2005,9,26,07:00,18.9,,18.9,,100,,27.0,,20,,,,99.34,,,,,,
2005-09-26 08:00:00,2005-09-26 08:00,2005,9,26,08:00,19.1,,19.1,,100,,19.0,,20,,,,99.24,,,,,,
2005-09-26 09:00:00,2005-09-26 09:00,2005,9,26,09:00,18.9,,18.9,,100,,19.0,,15,,,,99.18,,,,,,
2005-09-26 10:00:00,2005-09-26 10:00,2005,9,26,10:00,19.8,,19.8,,100,,25.0,,17,,,,99.07,,,,,,
2005-09-26 11:00:00,2005-09-26 11:00,2005,9,26,11:00,19.9,,19.9,,100,,21.0,,15,,,,99.01,,,,,,
2005-09-26 12:00:00,2005-09-26 12:00,2005,9,26,12:00,20.2,,20.2,,100,,23.0,,15,,,,98.98,,28.0,,,,
2005-09-26 13:00:00,2005-09-26 13:00,2005,9,26,13:00,21.3,,21.0,,98,,21.0,,17,,,,98.86,,30.0,,,,
2005-09-26 14:00:00,2005-09-26 14:00,2005,9,26,14:00,18.8,,18.8,,100,,27.0,,13,,,,98.9,,,,,,
2005-09-26 15:00:00,2005-09-26 15:00,2005,9,26,15:00,16.6,,16.6,,100,,31.0,,13,,,,98.97,,,,,,
2005-09-26 16:00:00,2005-09-26 16:00,2005,9,26,16:00,16.3,,16.3,,100,,32.0,,19,,,,99.04,,,,,,
2005-09-26 17:00:00,2005-09-26 17:00,2005,9,26,17:00,14.8,,14.5,,98,,32.0,,20,,,,99.12,,,,,,
2005-09-26 18:00:00,2005-09-26 18:00,2005,9,26,18:00,14.3,,13.8,,97,,32.0,,19,,,,99.23,,,,,,
2005-09-26 19:00:00,2005-09-26 19:00,2005,9,26,19:00,13.7,,13.3,,97,,31.0,,15,,,,99.36,,,,,,
2005-09-26 20:00:00,2005-09-26 20:00,2005,9,26,20:00,13.3,,12.8,,97,,31.0,,17,,,,99.47,,,,,,
2005-09-26 21:00:00,2005-09-26 21:00,2005,9,26,21:00,12.4,,11.8,,96,,33.0,,22,,,,99.58,,,,,,
2005-09-26 22:00:00,2005-09-26 22:00,2005,9,26,22:00,11.2,,11.2,,100,,34.0,,13,,,,99.64,,,,,,
2005-09-26 23:00:00,2005-09-26 23:00,2005,9,26,23:00,11.0,,11.0,,100,,33.0,,11,,,,99.75,,,,,,
2005-09-27 00:00:00,2005-09-27 00:00,2005,9,27,00:00,10.5,,10.5,,100,,33.0,,11,,,,99.85,,,,,,
2005-09-27 01:00:00,2005-09-27 01:00,2005,9,27,01:00,10.4,,10.1,,98,,34.0,,17,,,,99.94,,,,,,
2005-09-27 02:00:00,2005-09-27 02:00,2005,9,27,02:00,9.7,,9.1,,96,,34.0,,15,,,,100.03,,,,,,
2005-09-27 03:00:00,2005-09-27 03:00,2005,9,27,03:00,9.3,,8.4,,94,,34.0,,11,,,,100.16,,,,,,
2005-09-27 04:00:00,2005-09-27 04:00,2005,9,27,04:00,9.0,,7.8,,92,,34.0,,13,,,,100.25,,,,,,
2005-09-27 05:00:00,2005-09-27 05:00,2005,9,27,05:00,8.4,,7.4,,93,,34.0,,11,,,,100.36,,,,,,
2005-09-27 06:00:00,2005-09-27 06:00,2005,9,27,06:00,8.1,,7.3,,95,,34.0,,11,,,,100.45,,,,,,
2005-09-27 07:00:00,2005-09-27 07:00,2005,9,27,07:00,9.3,,8.5,,95,,26.0,,7,,,,100.55,,,,,,
2005-09-27 08:00:00,2005-09-27 08:00,2005,9,27,08:00,10.3,,9.0,,92,,27.0,,13,,,,100.61,,,,,,
2005-09-27 09:00:00,2005-09-27 09:00,2005,9,27,09:00,11.0,,9.6,,91,,27.0,,11,,,,100.67,,,,,,
2005-09-27 10:00:00,2005-09-27 10:00,2005,9,27,10:00,13.4,,9.9,,79,,25.0,,9,,,,100.66,,,,,,
2005-09-27 11:00:00,2005-09-27 11:00,2005,9,27,11:00,14.8,,8.7,,67,,25.0,,13,,,,100.63,,,,,,
2005-09-27 12:00:00,2005-09-27 12:00,2005,9,27,12:00,16.7,,8.6,,59,,31.0,,13,,,,100.63,,,,,,
2005-09-27 13:00:00,2005-09-27 13:00,2005,9,27,13:00,18.0,,8.5,,54,,31.0,,13,,,,100.58,,,,,,
2005-09-27 14:00:00,2005-09-27 14:00,2005,9,27,14:00,19.0,,10.6,,58,,32.0,,9,,,,100.57,,,,,,
2005-09-27 15:00:00,2005-09-27 15:00,2005,9,27,15:00,19.4,,10.2,,55,,32.0,,11,,,,100.54,,,,,,
2005-09-27 16:00:00,2005-09-27 16:00,2005,9,27,16:00,19.6,,10.5,,56,,32.0,,11,,,,100.55,,,,,,
2005-09-27 17:00:00,2005-09-27 17:00,2005,9,27,17:00,18.7,,10.5,,59,,31.0,,6,,,,100.55,,,,,,
2005-09-27 18:00:00,2005-09-27 18:00,2005,9,27,18:00,16.4,,11.2,,71,,29.0,,2,,,,100.6,,,,,,
2005-09-27 19:00:00,2005-09-27 19:00,2005,9,27,19:00,13.5,,11.7,,89,,29.0,,4,,,,100.62,,,,,,
2005-09-27 20:00:00,2005-09-27 20:00,2005,9,27,20:00,13.6,,12.1,,91,,29.0,,9,,,,100.66,,,,,,
2005-09-27 21:00:00,2005-09-27 21:00,2005,9,27,21:00,13.2,,12.4,,95,,29.0,,9,,,,100.7,,,,,,
2005-09-27 22:00:00,2005-09-27 22:00,2005,9,27,22:00,13.7,,12.9,,95,,29.0,,6,,,,100.71,,,,,,
2005-09-27 23:00:00,2005-09-27 23:00,2005,9,27,23:00,13.8,,12.2,,90,,31.0,,7,,,,100.73,,,,,,
2005-09-28 00:00:00,2005-09-28 00:00,2005,9,28,00:00,11.3,,11.0,,98,,30.0,,4,,,,100.74,,,,,,
2005-09-28 01:00:00,2005-09-28 01:00,2005,9,28,01:00,10.9,,10.9,,100,,29.0,,2,,,,100.78,,,,,,
2005-09-28 02:00:00,2005-09-28 02:00,2005,9,28,02:00,10.3,,10.3,,100,,29.0,,4,,,,100.78,,,,,,
2005-09-28 03:00:00,2005-09-28 03:00,2005,9,28,03:00,9.8,,9.8,,100,,15.0,,4,,,,100.81,,,,,,
2005-09-28 04:00:00,2005-09-28 04:00,2005,9,28,04:00,9.0,,9.0,,100,,18.0,,2,,,,100.85,,,,,,
2005-09-28 05:00:00,2005-09-28 05:00,2005,9,28,05:00,9.0,,9.0,,100,,22.0,,4,,,,100.88,,,,,,
2005-09-28 06:00:00,2005-09-28 06:00,2005,9,28,06:00,8.9,,8.9,,100,,20.0,,7,,,,100.94,,,,,,
2005-09-28 07:00:00,2005-09-28 07:00,2005,9,28,07:00,10.6,,10.6,,100,,19.0,,6,,,,101.0,,,,,,
2005-09-28 08:00:00,2005-09-28 08:00,2005,9,28,08:00,13.1,,12.5,,96,,20.0,,2,,,,101.0,,,,,,
2005-09-28 09:00:00,2005-09-28 09:00,2005,9,28,09:00,14.7,,12.6,,87,,17.0,,9,,,,100.99,,,,,,
2005-09-28 10:00:00,2005-09-28 10:00,2005,9,28,10:00,17.7,,14.6,,82,,18.0,,13,,,,100.88,,,,,,
2005-09-28 11:00:00,2005-09-28 11:00,2005,9,28,11:00,18.8,,14.1,,74,,18.0,,19,,,,100.81,,,,,,
2005-09-28 12:00:00,2005-09-28 12:00,2005,9,28,12:00,20.6,,14.7,,69,,20.0,,15,,,,100.74,,,,,,
2005-09-28 13:00:00,2005-09-28 13:00,2005,9,28,13:00,20.7,,11.2,,54,,16.0,,22,,,,100.58,,,,,,
2005-09-28 14:00:00,2005-09-28 14:00,2005,9,28,14:00,21.4,,11.2,,52,,19.0,,20,,,,100.52,,,,,,
2005-09-28 15:00:00,2005-09-28 15:00,2005,9,28,15:00,20.9,,9.4,,48,,18.0,,20,,,,100.41,,,,,,
2005-09-28 16:00:00,2005-09-28 16:00,2005,9,28,16:00,20.6,,9.3,,48,,19.0,,15,,,,100.33,,,,,,
2005-09-28 17:00:00,2005-09-28 17:00,2005,9,28,17:00,19.5,,9.8,,53,,18.0,,13,,,,100.3,,,,,,
2005-09-28 18:00:00,2005-09-28 18:00,2005,9,28,18:00,17.5,,9.6,,60,,28.0,,7,,,,100.24,,,,,,
2005-09-28 19:00:00,2005-09-28 19:00,2005,9,28,19:00,16.2,,10.5,,69,,14.0,,9,,,,100.17,,,,,,
2005-09-28 20:00:00,2005-09-28 20:00,2005,9,28,20:00,16.2,,10.4,,68,,27.0,,11,,,,100.09,,,,,,
2005-09-28 21:00:00,2005-09-28 21:00,2005,9,28,21:00,16.9,,10.2,,65,,27.0,,17,,,,99.96,,,,,,
2005-09-28 22:00:00,2005-09-28 22:00,2005,9,28,22:00,16.5,,10.3,,67,,15.0,,19,,,,99.82,,,,,,
2005-09-28 23:00:00,2005-09-28 23:00,2005,9,28,23:00,15.7,,10.9,,73,,13.0,,13,,,,99.69,,,,,,
2005-09-29 00:00:00,2005-09-29 00:00,2005,9,29,00:00,17.0,,11.4,,70,,16.0,,15,,,,99.54,,,,,,
2005-09-29 01:00:00,2005-09-29 01:00,2005,9,29,01:00,17.1,,11.8,,71,,17.0,,19,,,,99.43,,,,,,
2005-09-29 02:00:00,2005-09-29 02:00,2005,9,29,02:00,17.2,,12.4,,73,,16.0,,22,,,,99.19,,,,,,
2005-09-29 03:00:00,2005-09-29 03:00,2005,9,29,03:00,17.4,,13.2,,76,,16.0,,26,,,,98.96,,,,,,
2005-09-29 04:00:00,2005-09-29 04:00,2005,9,29,04:00,17.3,,13.7,,79,,16.0,,22,,,,98.81,,,,,,
2005-09-29 05:00:00,2005-09-29 05:00,2005,9,29,05:00,18.0,,13.7,,76,,16.0,,30,,,,98.58,,,,,,
2005-09-29 06:00:00,2005-09-29 06:00,2005,9,29,06:00,18.1,,14.1,,77,,16.0,,30,,,,98.37,,,,,,
2005-09-29 07:00:00,2005-09-29 07:00,2005,9,29,07:00,16.9,,16.0,,94,,18.0,,30,,,,98.37,,,,,,
2005-09-29 08:00:00,2005-09-29 08:00,2005,9,29,08:00,16.4,,16.4,,100,,18.0,,33,,,,98.24,,,,,,
2005-09-29 09:00:00,2005-09-29 09:00,2005,9,29,09:00,16.4,,15.2,,93,,19.0,,30,,,,98.23,,,,,,
2005-09-29 10:00:00,2005-09-29 10:00,2005,9,29,10:00,10.7,,10.5,,99,,27.0,,33,,,,98.5,,,,,,
2005-09-29 11:00:00,2005-09-29 11:00,2005,9,29,11:00,8.4,,7.5,,94,,26.0,,39,,,,98.94,,,,,,
2005-09-29 12:00:00,2005-09-29 12:00,2005,9,29,12:00,8.5,,6.0,,84,,27.0,,39,,,,99.22,,,,,,
2005-09-29 13:00:00,2005-09-29 13:00,2005,9,29,13:00,9.4,,6.1,,80,,27.0,,39,,,,99.44,,,,,,
2005-09-29 14:00:00,2005-09-29 14:00,2005,9,29,14:00,10.8,,6.7,,76,,27.0,,28,,,,99.67,,,,,,
2005-09-29 15:00:00,2005-09-29 15:00,2005,9,29,15:00,10.9,,5.4,,69,,29.0,,30,,,,99.85,,,,,,
2005-09-29 16:00:00,2005-09-29 16:00,2005,9,29,16:00,9.7,,6.9,,83,,27.0,,22,,,,99.98,,,,,,
2005-09-29 17:00:00,2005-09-29 17:00,2005,9,29,17:00,9.2,,7.2,,87,,28.0,,15,,,,100.08,,,,,,
2005-09-29 18:00:00,2005-09-29 18:00,2005,9,29,18:00,8.2,,6.1,,87,,28.0,,20,,,,100.2,,,,,,
2005-09-29 19:00:00,2005-09-29 19:00,2005,9,29,19:00,8.3,,5.2,,81,,31.0,,19,,,,100.34,,,,,,
2005-09-29 20:00:00,2005-09-29 20:00,2005,9,29,20:00,7.8,,3.9,,76,,32.0,,19,,,,100.4,,,,,,
2005-09-29 21:00:00,2005-09-29 21:00,2005,9,29,21:00,7.3,,3.4,,76,,32.0,,17,,,,100.45,,,,,,
2005-09-29 22:00:00,2005-09-29 22:00,2005,9,29,22:00,6.1,,2.8,,79,,31.0,,7,,,,100.48,,,,,,
2005-09-29 23:00:00,2005-09-29 23:00,2005,9,29,23:00,5.4,,2.6,,82,,33.0,,6,,,,100.54,,,,,,
2005-09-30 00:00:00,2005-09-30 00:00,2005,9,30,00:00,4.8,,3.4,,91,,31.0,,6,,,,100.54,,,,,,
2005-09-30 01:00:00,2005-09-30 01:00,2005,9,30,01:00,3.7,,3.1,,96,,27.0,,4,,,,100.59,,,,,,
2005-09-30 02:00:00,2005-09-30 02:00,2005,9,30,02:00,3.3,,3.0,,98,,20.0,,7,,,,100.7,,,,,,
2005-09-30 03:00:00,2005-09-30 03:00,2005,9,30,03:00,2.5,,2.3,,99,,21.0,,6,,,,100.79,,,,,,
2005-09-30 04:00:00,2005-09-30 04:00,2005,9,30,04:00,3.4,,3.1,,98,,23.0,,6,,,,100.88,,,,,,
2005-09-30 05:00:00,2005-09-30 05:00,2005,9,30,05:00,3.6,,3.3,,98,,23.0,,4,,,,100.94,,,,,,
2005-09-30 06:00:00,2005-09-30 06:00,2005,9,30,06:00,4.0,,3.6,,97,,20.0,,6,,,,100.96,,,,,,
2005-09-30 07:00:00,2005-09-30 07:00,2005,9,30,07:00,3.9,,3.6,,98,,20.0,,6,,,,101.03,,,,,,
2005-09-30 08:00:00,2005-09-30 08:00,2005,9,30,08:00,6.8,,3.7,,81,,22.0,,7,,,,101.12,,,,,,
2005-09-30 09:00:00,2005-09-30 09:00,2005,9,30,09:00,8.9,,4.5,,74,,19.0,,11,,,,101.12,,,,,,
2005-09-30 10:00:00,2005-09-30 10:00,2005,9,30,10:00,10.8,,3.9,,62,,21.0,,11,,,,101.08,,,,,,
2005-09-30 11:00:00,2005-09-30 11:00,2005,9,30,11:00,12.6,,5.0,,60,,20.0,,11,,,,101.03,,,,,,
2005-09-30 12:00:00,2005-09-30 12:00,2005,9,30,12:00,13.8,,5.0,,55,,21.0,,11,,,,100.98,,,,,,
2005-09-30 13:00:00,2005-09-30 13:00,2005,9,30,13:00,14.1,,5.1,,55,,21.0,,13,,,,100.91,,,,,,
2005-09-30 14:00:00,2005-09-30 14:00,2005,9,30,14:00,14.3,,6.2,,58,,18.0,,17,,,,100.88,,,,,,
2005-09-30 15:00:00,2005-09-30 15:00,2005,9,30,15:00,14.6,,6.5,,58,,21.0,,15,,,,100.85,,,,,,
2005-09-30 16:00:00,2005-09-30 16:00,2005,9,30,16:00,14.4,,6.8,,60,,20.0,,17,,,,100.82,,,,,,
2005-09-30 17:00:00,2005-09-30 17:00,2005,9,30,17:00,13.9,,6.6,,61,,19.0,,15,,,,100.85,,,,,,
2005-09-30 18:00:00,2005-09-30 18:00,2005,9,30,18:00,12.3,,7.4,,72,,19.0,,9,,,,100.86,,,,,,
2005-09-30 19:00:00,2005-09-30 19:00,2005,9,30,19:00,11.5,,8.2,,80,,19.0,,9,,,,100.87,,,,,,
2005-09-30 20:00:00,2005-09-30 20:00,2005,9,30,20:00,10.4,,7.8,,84,,18.0,,6,,,,100.92,,,,,,
2005-09-30 21:00:00,2005-09-30 21:00,2005,9,30,21:00,9.7,,7.6,,87,,14.0,,6,,,,100.96,,,,,,
2005-09-30 22:00:00,2005-09-30 22:00,2005,9,30,22:00,8.5,,7.7,,95,,15.0,,7,,,,100.95,,,,,,
2005-09-30 23:00:00,2005-09-30 23:00,2005,9,30,23:00,7.4,,7.0,,97,,21.0,,4,,,,100.93,,,,,,
