DateTime,Date/Time,Year,Month,Day,Time,Temp (°C),Temp Flag,Dew Point Temp (°C),Dew Point Temp Flag,Rel Hum (%),Rel Hum Flag,Wind Dir (10s deg),Wind Dir Flag,Wind Spd (km/h),Wind Spd Flag,Visibility (km),Visibility Flag,Stn Press (kPa),Stn Press Flag,Hmdx,Hmdx Flag,Wind Chill,Wind Chill Flag,Weather
2006-06-01 00:00:00,2006-06-01 00:00,2006,6,1,00:00,22.2,,21.5,,96.0,,,M,,M,,,100.29,,31.0,,,,
2006-06-01 01:00:00,2006-06-01 01:00,2006,6,1,01:00,21.5,,20.8,,96.0,,,M,,M,,,100.22,,30.0,,,,
2006-06-01 02:00:00,2006-06-01 02:00,2006,6,1,02:00,21.5,,21.0,,97.0,,,M,,M,,,100.18,,30.0,,,,
2006-06-01 03:00:00,2006-06-01 03:00,2006,6,1,03:00,21.2,,20.8,,98.0,,,M,,M,,,100.19,,29.0,,,,
2006-06-01 04:00:00,2006-06-01 04:00,2006,6,1,04:00,21.0,,20.7,,98.0,,,M,,M,,,100.16,,29.0,,,,
2006-06-01 05:00:00,2006-06-01 05:00,2006,6,1,05:00,20.6,,20.3,,98.0,,,M,,M,,,100.16,,28.0,,,,
2006-06-01 06:00:00,2006-06-01 06:00,2006,6,1,06:00,21.4,,21.1,,98.0,,,M,,M,,,100.18,,30.0,,,,
2006-06-01 07:00:00,2006-06-01 07:00,2006,6,1,07:00,21.5,,20.7,,95.0,,,M,,M,,,100.17,,30.0,,,,
2006-06-01 08:00:00,2006-06-01 08:00,2006,6,1,08:00,21.1,,19.9,,93.0,,,M,,M,,,100.17,,29.0,,,,
2006-06-01 09:00:00,2006-06-01 09:00,2006,6,1,09:00,20.8,,19.5,,92.0,,,M,,M,,,100.18,,28.0,,,,
2006-06-01 10:00:00,2006-06-01 10:00,2006,6,1,10:00,20.0,,18.3,,90.0,,,M,,M,,,100.19,,26.0,,,,
2006-06-01 11:00:00,2006-06-01 11:00,2006,6,1,11:00,19.8,,17.4,,86.0,,,M,,M,,,100.2,,,,,,
2006-06-01 12:00:00,2006-06-01 12:00,2006,6,1,12:00,19.2,,17.4,,89.0,,,M,,M,,,100.21,,,,,,
2006-06-01 13:00:00,2006-06-01 13:00,2006,6,1,13:00,19.1,,18.2,,95.0,,,M,,M,,,100.23,,,,,,
2006-06-01 14:00:00,2006-06-01 14:00,2006,6,1,14:00,19.2,,18.1,,93.0,,,M,,M,,,100.22,,,,,,
2006-06-01 15:00:00,2006-06-01 15:00,2006,6,1,15:00,20.8,,17.5,,81.0,,,M,,M,,,100.17,,26.0,,,,
2006-06-01 16:00:00,2006-06-01 16:00,2006,6,1,16:00,22.3,,17.7,,75.0,,,M,,M,,,100.1,,28.0,,,,
2006-06-01 17:00:00,2006-06-01 17:00,2006,6,1,17:00,22.3,,16.5,,70.0,,,M,,M,,,100.07,,27.0,,,,
2006-06-01 18:00:00,2006-06-01 18:00,2006,6,1,18:00,20.3,,17.0,,81.0,,,M,,M,,,100.07,,26.0,,,,
2006-06-01 19:00:00,2006-06-01 19:00,2006,6,1,19:00,18.5,,17.0,,91.0,,,M,,M,,,100.11,,,,,,
2006-06-01 20:00:00,2006-06-01 20:00,2006,6,1,20:00,17.7,,16.9,,95.0,,,M,,M,,,100.11,,,,,,
2006-06-01 21:00:00,2006-06-01 21:00,2006,6,1,21:00,17.6,,16.8,,95.0,,,M,,M,,,100.15,,,,,,
2006-06-01 22:00:00,2006-06-01 22:00,2006,6,1,22:00,18.1,,17.3,,95.0,,,M,,M,,,100.16,,,,,,
2006-06-01 23:00:00,2006-06-01 23:00,2006,6,1,23:00,18.0,,17.2,,95.0,,,M,,M,,,100.14,,,,,,
2006-06-02 00:00:00,2006-06-02 00:00,2006,6,2,00:00,18.1,,17.2,,94.0,,,M,,M,,,100.11,,,,,,
2006-06-02 01:00:00,2006-06-02 01:00,2006,6,2,01:00,17.7,,17.0,,96.0,,,M,,M,,,100.11,,,,,,
2006-06-02 02:00:00,2006-06-02 02:00,2006,6,2,02:00,17.3,,16.6,,96.0,,,M,,M,,,100.08,,,,,,
2006-06-02 03:00:00,2006-06-02 03:00,2006,6,2,03:00,17.5,,16.6,,94.0,,,M,,M,,,100.04,,,,,,
2006-06-02 04:00:00,2006-06-02 04:00,2006,6,2,04:00,17.2,,15.8,,91.0,,,M,,M,,,100.03,,,,,,
2006-06-02 05:00:00,2006-06-02 05:00,2006,6,2,05:00,17.0,,15.6,,91.0,,,M,,M,,,100.04,,,,,,
2006-06-02 06:00:00,2006-06-02 06:00,2006,6,2,06:00,17.5,,15.3,,87.0,,,M,,M,,,100.05,,,,,,
2006-06-02 07:00:00,2006-06-02 07:00,2006,6,2,07:00,18.8,,15.4,,81.0,,,M,,M,,,100.03,,,,,,
2006-06-02 08:00:00,2006-06-02 08:00,2006,6,2,08:00,20.8,,14.6,,68.0,,,M,,M,,,100.05,,25.0,,,,
2006-06-02 09:00:00,2006-06-02 09:00,2006,6,2,09:00,22.1,,15.6,,67.0,,,M,,M,,,100.02,,26.0,,,,
2006-06-02 10:00:00,2006-06-02 10:00,2006,6,2,10:00,22.2,,15.0,,64.0,,,M,,M,,,99.99,,26.0,,,,
2006-06-02 11:00:00,2006-06-02 11:00,2006,6,2,11:00,22.2,,16.2,,69.0,,,M,,M,,,99.99,,27.0,,,,
2006-06-02 12:00:00,2006-06-02 12:00,2006,6,2,12:00,22.4,,16.8,,71.0,,,M,,M,,,99.98,,28.0,,,,
2006-06-02 13:00:00,2006-06-02 13:00,2006,6,2,13:00,21.5,,15.4,,68.0,,,M,,M,,,99.96,,26.0,,,,
2006-06-02 14:00:00,2006-06-02 14:00,2006,6,2,14:00,21.2,,15.4,,69.0,,,M,,M,,,99.96,,25.0,,,,
2006-06-02 15:00:00,2006-06-02 15:00,2006,6,2,15:00,21.8,,15.8,,69.0,,,M,,M,,,99.9,,26.0,,,,
2006-06-02 16:00:00,2006-06-02 16:00,2006,6,2,16:00,22.2,,15.8,,67.0,,,M,,M,,,99.89,,27.0,,,,
2006-06-02 17:00:00,2006-06-02 17:00,2006,6,2,17:00,21.6,,15.6,,69.0,,,M,,M,,,99.85,,26.0,,,,
2006-06-02 18:00:00,2006-06-02 18:00,2006,6,2,18:00,21.2,,14.2,,64.0,,,M,,M,,,99.83,,25.0,,,,
2006-06-02 19:00:00,2006-06-02 19:00,2006,6,2,19:00,21.0,,14.8,,68.0,,,M,,M,,,99.83,,25.0,,,,
2006-06-02 20:00:00,2006-06-02 20:00,2006,6,2,20:00,20.7,,14.0,,65.0,,,M,,M,,,99.84,,,,,,
2006-06-02 21:00:00,2006-06-02 21:00,2006,6,2,21:00,19.7,,14.2,,71.0,,,M,,M,,,99.86,,,,,,
2006-06-02 22:00:00,2006-06-02 22:00,2006,6,2,22:00,19.0,,15.5,,80.0,,,M,,M,,,99.91,,,,,,
2006-06-02 23:00:00,2006-06-02 23:00,2006,6,2,23:00,17.8,,16.3,,91.0,,,M,,M,,,99.91,,,,,,
2006-06-03 00:00:00,2006-06-03 00:00,2006,6,3,00:00,17.2,,15.9,,92.0,,,M,,M,,,99.9,,,,,,
2006-06-03 01:00:00,2006-06-03 01:00,2006,6,3,01:00,16.2,,15.0,,93.0,,,M,,M,,,99.83,,,,,,
2006-06-03 02:00:00,2006-06-03 02:00,2006,6,3,02:00,16.8,,15.1,,90.0,,,M,,M,,,99.68,,,,,,
2006-06-03 03:00:00,2006-06-03 03:00,2006,6,3,03:00,16.5,,14.6,,89.0,,,M,,M,,,99.64,,,,,,
2006-06-03 04:00:00,2006-06-03 04:00,2006,6,3,04:00,16.7,,14.4,,86.0,,,M,,M,,,99.66,,,,,,
2006-06-03 05:00:00,2006-06-03 05:00,2006,6,3,05:00,16.3,,14.6,,90.0,,,M,,M,,,99.72,,,,,,
2006-06-03 06:00:00,2006-06-03 06:00,2006,6,3,06:00,16.4,,14.9,,91.0,,,M,,M,,,99.77,,,,,,
2006-06-03 07:00:00,2006-06-03 07:00,2006,6,3,07:00,16.7,,15.1,,90.0,,,M,,M,,,99.79,,,,,,
2006-06-03 08:00:00,2006-06-03 08:00,2006,6,3,08:00,17.1,,15.1,,88.0,,,M,,M,,,99.81,,,,,,
2006-06-03 09:00:00,2006-06-03 09:00,2006,6,3,09:00,17.5,,15.0,,85.0,,,M,,M,,,99.84,,,,,,
2006-06-03 10:00:00,2006-06-03 10:00,2006,6,3,10:00,16.9,,15.5,,91.0,,,M,,M,,,99.85,,,,,,
2006-06-03 11:00:00,2006-06-03 11:00,2006,6,3,11:00,16.4,,15.7,,96.0,,,M,,M,,,99.85,,,,,,
2006-06-03 12:00:00,2006-06-03 12:00,2006,6,3,12:00,15.7,,15.1,,96.0,,,M,,M,,,99.84,,,,,,
2006-06-03 13:00:00,2006-06-03 13:00,2006,6,3,13:00,15.9,,15.4,,97.0,,,M,,M,,,99.79,,,,,,
2006-06-03 14:00:00,2006-06-03 14:00,2006,6,3,14:00,16.4,,16.0,,97.0,,,M,,M,,,99.75,,,,,,
2006-06-03 15:00:00,2006-06-03 15:00,2006,6,3,15:00,16.5,,15.7,,95.0,,,M,,M,,,99.75,,,,,,
2006-06-03 16:00:00,2006-06-03 16:00,2006,6,3,16:00,16.5,,15.7,,95.0,,,M,,M,,,99.76,,,,,,
2006-06-03 17:00:00,2006-06-03 17:00,2006,6,3,17:00,15.9,,15.3,,96.0,,,M,,M,,,99.77,,,,,,
2006-06-03 18:00:00,2006-06-03 18:00,2006,6,3,18:00,15.7,,15.1,,96.0,,,M,,M,,,99.85,,,,,,
2006-06-03 19:00:00,2006-06-03 19:00,2006,6,3,19:00,15.1,,14.3,,95.0,,,M,,M,,,99.89,,,,,,
2006-06-03 20:00:00,2006-06-03 20:00,2006,6,3,20:00,14.9,,14.2,,96.0,,,M,,M,,,99.92,,,,,,
2006-06-03 21:00:00,2006-06-03 21:00,2006,6,3,21:00,14.4,,12.9,,91.0,,,M,,M,,,99.97,,,,,,
2006-06-03 22:00:00,2006-06-03 22:00,2006,6,3,22:00,14.2,,12.9,,92.0,,,M,,M,,,99.95,,,,,,
2006-06-03 23:00:00,2006-06-03 23:00,2006,6,3,23:00,14.1,,13.4,,96.0,,,M,,M,,,99.95,,,,,,
2006-06-04 00:00:00,2006-06-04 00:00,2006,6,4,00:00,14.3,,13.5,,95.0,,,M,,M,,,99.92,,,,,,
2006-06-04 01:00:00,2006-06-04 01:00,2006,6,4,01:00,14.6,,13.3,,92.0,,,M,,M,,,99.9,,,,,,
2006-06-04 02:00:00,2006-06-04 02:00,2006,6,4,02:00,14.6,,13.8,,95.0,,,M,,M,,,99.88,,,,,,
2006-06-04 03:00:00,2006-06-04 03:00,2006,6,4,03:00,14.9,,13.8,,93.0,,,M,,M,,,99.84,,,,,,
2006-06-04 04:00:00,2006-06-04 04:00,2006,6,4,04:00,15.0,,13.6,,91.0,,,M,,M,,,99.88,,,,,,
2006-06-04 05:00:00,2006-06-04 05:00,2006,6,4,05:00,14.9,,13.3,,90.0,,,M,,M,,,99.91,,,,,,
2006-06-04 06:00:00,2006-06-04 06:00,2006,6,4,06:00,15.1,,12.7,,86.0,,,M,,M,,,99.95,,,,,,
2006-06-04 07:00:00,2006-06-04 07:00,2006,6,4,07:00,15.7,,12.9,,83.0,,,M,,M,,,100.0,,,,,,
2006-06-04 08:00:00,2006-06-04 08:00,2006,6,4,08:00,16.7,,13.2,,80.0,,,M,,M,,,100.03,,,,,,
2006-06-04 09:00:00,2006-06-04 09:00,2006,6,4,09:00,17.4,,13.5,,78.0,,,M,,M,,,100.02,,,,,,
2006-06-04 10:00:00,2006-06-04 10:00,2006,6,4,10:00,18.3,,13.3,,73.0,,,M,,M,,,99.99,,,,,,
2006-06-04 11:00:00,2006-06-04 11:00,2006,6,4,11:00,18.9,,12.1,,65.0,,,M,,M,,,99.96,,,,,,
2006-06-04 12:00:00,2006-06-04 12:00,2006,6,4,12:00,20.1,,11.5,,58.0,,,M,,M,,,99.92,,,,,,
2006-06-04 13:00:00,2006-06-04 13:00,2006,6,4,13:00,21.7,,10.7,,50.0,,,M,,M,,,99.87,,,,,,
2006-06-04 14:00:00,2006-06-04 14:00,2006,6,4,14:00,20.1,,12.5,,62.0,,,M,,M,,,99.87,,,,,,
2006-06-04 15:00:00,2006-06-04 15:00,2006,6,4,15:00,20.8,,13.6,,63.0,,,M,,M,,,99.85,,,,,,
2006-06-04 16:00:00,2006-06-04 16:00,2006,6,4,16:00,20.0,,13.1,,64.0,,,M,,M,,,99.84,,,,,,
2006-06-04 17:00:00,2006-06-04 17:00,2006,6,4,17:00,19.2,,12.3,,64.0,,,M,,M,,,99.8,,,,,,
2006-06-04 18:00:00,2006-06-04 18:00,2006,6,4,18:00,18.4,,12.0,,66.0,,,M,,M,,,99.8,,,,,,
2006-06-04 19:00:00,2006-06-04 19:00,2006,6,4,19:00,18.3,,11.8,,66.0,,,M,,M,,,99.83,,,,,,
2006-06-04 20:00:00,2006-06-04 20:00,2006,6,4,20:00,18.1,,11.5,,65.0,,,M,,M,,,99.82,,,,,,
2006-06-04 21:00:00,2006-06-04 21:00,2006,6,4,21:00,17.1,,11.5,,70.0,,,M,,M,,,99.84,,,,,,
2006-06-04 22:00:00,2006-06-04 22:00,2006,6,4,22:00,16.8,,10.4,,66.0,,,M,,M,,,99.83,,,,,,
2006-06-04 23:00:00,2006-06-04 23:00,2006,6,4,23:00,17.4,,11.5,,68.0,,,M,,M,,,99.82,,,,,,
2006-06-05 00:00:00,2006-06-05 00:00,2006,6,5,00:00,17.3,,11.2,,67.0,,,M,,M,,,99.84,,,,,,
2006-06-05 01:00:00,2006-06-05 01:00,2006,6,5,01:00,16.6,,10.5,,67.0,,,M,,M,,,99.81,,,,,,
2006-06-05 02:00:00,2006-06-05 02:00,2006,6,5,02:00,14.6,,9.4,,71.0,,,M,,M,,,99.76,,,,,,
2006-06-05 03:00:00,2006-06-05 03:00,2006,6,5,03:00,13.8,,9.0,,73.0,,,M,,M,,,99.73,,,,,,
2006-06-05 04:00:00,2006-06-05 04:00,2006,6,5,04:00,17.2,,5.6,,46.0,,,M,,M,,,99.73,,,,,,
2006-06-05 05:00:00,2006-06-05 05:00,2006,6,5,05:00,16.6,,5.6,,48.0,,,M,,M,,,99.8,,,,,,
2006-06-05 06:00:00,2006-06-05 06:00,2006,6,5,06:00,16.6,,6.7,,52.0,,,M,,M,,,99.85,,,,,,
2006-06-05 07:00:00,2006-06-05 07:00,2006,6,5,07:00,19.0,,8.2,,49.0,,,M,,M,,,99.85,,,,,,
2006-06-05 08:00:00,2006-06-05 08:00,2006,6,5,08:00,21.5,,9.8,,47.0,,,M,,M,,,99.87,,,,,,
2006-06-05 09:00:00,2006-06-05 09:00,2006,6,5,09:00,23.3,,10.0,,43.0,,,M,,M,,,99.88,,25.0,,,,
2006-06-05 10:00:00,2006-06-05 10:00,2006,6,5,10:00,25.3,,8.5,,34.0,,,M,,M,,,99.85,,26.0,,,,
2006-06-05 11:00:00,2006-06-05 11:00,2006,6,5,11:00,25.7,,9.6,,36.0,,,M,,M,,,99.86,,27.0,,,,
2006-06-05 12:00:00,2006-06-05 12:00,2006,6,5,12:00,26.4,,8.4,,32.0,,,M,,M,,,99.85,,27.0,,,,
2006-06-05 13:00:00,2006-06-05 13:00,2006,6,5,13:00,25.1,,7.8,,33.0,,,M,,M,,,99.85,,25.0,,,,
2006-06-05 14:00:00,2006-06-05 14:00,2006,6,5,14:00,24.2,,9.2,,39.0,,,M,,M,,,99.87,,25.0,,,,
2006-06-05 15:00:00,2006-06-05 15:00,2006,6,5,15:00,24.8,,10.0,,39.0,,,M,,M,,,99.83,,26.0,,,,
2006-06-05 16:00:00,2006-06-05 16:00,2006,6,5,16:00,26.1,,9.6,,35.0,,,M,,M,,,99.79,,27.0,,,,
2006-06-05 17:00:00,2006-06-05 17:00,2006,6,5,17:00,26.2,,8.7,,33.0,,,M,,M,,,99.78,,27.0,,,,
2006-06-05 18:00:00,2006-06-05 18:00,2006,6,5,18:00,26.0,,8.2,,32.0,,,M,,M,,,99.78,,26.0,,,,
2006-06-05 19:00:00,2006-06-05 19:00,2006,6,5,19:00,25.3,,7.0,,31.0,,,M,,M,,,99.82,,25.0,,,,
2006-06-05 20:00:00,2006-06-05 20:00,2006,6,5,20:00,24.2,,8.3,,36.0,,,M,,M,,,99.85,,25.0,,,,
2006-06-05 21:00:00,2006-06-05 21:00,2006,6,5,21:00,22.7,,8.1,,39.0,,,M,,M,,,99.92,,,,,,
2006-06-05 22:00:00,2006-06-05 22:00,2006,6,5,22:00,22.0,,8.2,,41.0,,,M,,M,,,99.93,,,,,,
2006-06-05 23:00:00,2006-06-05 23:00,2006,6,5,23:00,20.0,,9.8,,52.0,,,M,,M,,,99.93,,,,,,
2006-06-06 00:00:00,2006-06-06 00:00,2006,6,6,00:00,18.8,,10.2,,57.0,,,M,,M,,,99.93,,,,,,
2006-06-06 01:00:00,2006-06-06 01:00,2006,6,6,01:00,18.2,,11.7,,66.0,,,M,,M,,,99.96,,,,,,
2006-06-06 02:00:00,2006-06-06 02:00,2006,6,6,02:00,17.6,,11.7,,68.0,,,M,,M,,,99.94,,,,,,
2006-06-06 03:00:00,2006-06-06 03:00,2006,6,6,03:00,16.6,,11.4,,71.0,,,M,,M,,,99.97,,,,,,
2006-06-06 04:00:00,2006-06-06 04:00,2006,6,6,04:00,16.8,,10.8,,68.0,,,M,,M,,,99.99,,,,,,
2006-06-06 05:00:00,2006-06-06 05:00,2006,6,6,05:00,17.9,,10.2,,61.0,,,M,,M,,,100.04,,,,,,
2006-06-06 06:00:00,2006-06-06 06:00,2006,6,6,06:00,18.7,,11.0,,61.0,,,M,,M,,,100.07,,,,,,
2006-06-06 07:00:00,2006-06-06 07:00,2006,6,6,07:00,19.7,,9.7,,52.0,,,M,,M,,,100.11,,,,,,
2006-06-06 08:00:00,2006-06-06 08:00,2006,6,6,08:00,20.0,,10.3,,54.0,,,M,,M,,,100.12,,,,,,
2006-06-06 09:00:00,2006-06-06 09:00,2006,6,6,09:00,21.7,,11.1,,51.0,,,M,,M,,,100.11,,,,,,
2006-06-06 10:00:00,2006-06-06 10:00,2006,6,6,10:00,22.5,,10.1,,45.0,,,M,,M,,,100.11,,,,,,
2006-06-06 11:00:00,2006-06-06 11:00,2006,6,6,11:00,23.0,,10.2,,44.0,,,M,,M,,,100.09,,,,,,
2006-06-06 12:00:00,2006-06-06 12:00,2006,6,6,12:00,23.9,,13.0,,50.0,,,M,,M,,,100.08,,27.0,,,,
2006-06-06 13:00:00,2006-06-06 13:00,2006,6,6,13:00,20.5,,11.6,,57.0,,,M,,M,,,100.08,,,,,,
2006-06-06 14:00:00,2006-06-06 14:00,2006,6,6,14:00,22.1,,12.5,,54.0,,,M,,M,,,100.05,,25.0,,,,
2006-06-06 15:00:00,2006-06-06 15:00,2006,6,6,15:00,22.9,,11.6,,49.0,,,M,,M,,,99.99,,25.0,,,,
2006-06-06 16:00:00,2006-06-06 16:00,2006,6,6,16:00,22.3,,12.6,,54.0,,,M,,M,,,99.98,,25.0,,,,
2006-06-06 17:00:00,2006-06-06 17:00,2006,6,6,17:00,22.4,,11.6,,50.0,,,M,,M,,,99.97,,,,,,
2006-06-06 18:00:00,2006-06-06 18:00,2006,6,6,18:00,22.2,,10.9,,49.0,,,M,,M,,,99.95,,,,,,
2006-06-06 19:00:00,2006-06-06 19:00,2006,6,6,19:00,21.5,,8.4,,43.0,,,M,,M,,,99.97,,,,,,
2006-06-06 20:00:00,2006-06-06 20:00,2006,6,6,20:00,20.5,,8.5,,46.0,,,M,,M,,,99.95,,,,,,
2006-06-06 21:00:00,2006-06-06 21:00,2006,6,6,21:00,20.3,,8.2,,46.0,,,M,,M,,,99.97,,,,,,
2006-06-06 22:00:00,2006-06-06 22:00,2006,6,6,22:00,19.8,,7.9,,46.0,,,M,,M,,,99.93,,,,,,
2006-06-06 23:00:00,2006-06-06 23:00,2006,6,6,23:00,18.0,,8.7,,55.0,,,M,,M,,,99.95,,,,,,
2006-06-07 00:00:00,2006-06-07 00:00,2006,6,7,00:00,17.1,,9.4,,60.0,,,M,,M,,,99.93,,,,,,
2006-06-07 01:00:00,2006-06-07 01:00,2006,6,7,01:00,16.7,,9.1,,61.0,,,M,,M,,,99.9,,,,,,
2006-06-07 02:00:00,2006-06-07 02:00,2006,6,7,02:00,17.8,,7.8,,52.0,,,M,,M,,,99.85,,,,,,
2006-06-07 03:00:00,2006-06-07 03:00,2006,6,7,03:00,17.8,,8.0,,53.0,,,M,,M,,,99.83,,,,,,
2006-06-07 04:00:00,2006-06-07 04:00,2006,6,7,04:00,16.1,,9.3,,64.0,,,M,,M,,,99.84,,,,,,
2006-06-07 05:00:00,2006-06-07 05:00,2006,6,7,05:00,16.4,,9.8,,65.0,,,M,,M,,,99.87,,,,,,
2006-06-07 06:00:00,2006-06-07 06:00,2006,6,7,06:00,17.1,,9.4,,60.0,,,M,,M,,,99.88,,,,,,
2006-06-07 07:00:00,2006-06-07 07:00,2006,6,7,07:00,19.0,,10.1,,56.0,,,M,,M,,,99.9,,,,,,
2006-06-07 08:00:00,2006-06-07 08:00,2006,6,7,08:00,21.0,,11.1,,53.0,,,M,,M,,,99.87,,,,,,
2006-06-07 09:00:00,2006-06-07 09:00,2006,6,7,09:00,21.1,,11.6,,55.0,,,M,,M,,,99.87,,,,,,
2006-06-07 10:00:00,2006-06-07 10:00,2006,6,7,10:00,21.7,,9.9,,47.0,,,M,,M,,,99.85,,,,,,
2006-06-07 11:00:00,2006-06-07 11:00,2006,6,7,11:00,22.6,,10.6,,47.0,,,M,,M,,,99.82,,,,,,
2006-06-07 12:00:00,2006-06-07 12:00,2006,6,7,12:00,25.7,,11.5,,41.0,,,M,,M,,,99.77,,28.0,,,,
2006-06-07 13:00:00,2006-06-07 13:00,2006,6,7,13:00,25.8,,11.5,,41.0,,,M,,M,,,99.71,,28.0,,,,
2006-06-07 14:00:00,2006-06-07 14:00,2006,6,7,14:00,24.8,,11.8,,44.0,,,M,,M,,,99.65,,27.0,,,,
2006-06-07 15:00:00,2006-06-07 15:00,2006,6,7,15:00,26.7,,11.2,,38.0,,,M,,M,,,99.63,,29.0,,,,
2006-06-07 16:00:00,2006-06-07 16:00,2006,6,7,16:00,24.3,,14.3,,54.0,,,M,,M,,,99.63,,28.0,,,,
2006-06-07 17:00:00,2006-06-07 17:00,2006,6,7,17:00,22.7,,12.6,,53.0,,,M,,M,,,99.62,,25.0,,,,
2006-06-07 18:00:00,2006-06-07 18:00,2006,6,7,18:00,23.1,,11.9,,49.0,,,M,,M,,,99.59,,25.0,,,,
2006-06-07 19:00:00,2006-06-07 19:00,2006,6,7,19:00,22.7,,9.6,,43.0,,,M,,M,,,99.6,,,,,,
2006-06-07 20:00:00,2006-06-07 20:00,2006,6,7,20:00,21.7,,9.4,,45.0,,,M,,M,,,99.63,,,,,,
2006-06-07 21:00:00,2006-06-07 21:00,2006,6,7,21:00,21.3,,11.1,,52.0,,,M,,M,,,99.66,,,,,,
2006-06-07 22:00:00,2006-06-07 22:00,2006,6,7,22:00,20.8,,11.5,,55.0,,,M,,M,,,99.67,,,,,,
2006-06-07 23:00:00,2006-06-07 23:00,2006,6,7,23:00,20.8,,11.9,,57.0,,,M,,M,,,99.66,,,,,,
2006-06-08 00:00:00,2006-06-08 00:00,2006,6,8,00:00,20.6,,12.1,,58.0,,,M,,M,,,99.65,,,,,,
2006-06-08 01:00:00,2006-06-08 01:00,2006,6,8,01:00,20.2,,12.2,,60.0,,,M,,M,,,99.64,,,,,,
2006-06-08 02:00:00,2006-06-08 02:00,2006,6,8,02:00,19.8,,12.3,,62.0,,,M,,M,,,99.62,,,,,,
2006-06-08 03:00:00,2006-06-08 03:00,2006,6,8,03:00,19.5,,12.2,,63.0,,,M,,M,,,99.61,,,,,,
2006-06-08 04:00:00,2006-06-08 04:00,2006,6,8,04:00,17.6,,12.4,,72.0,,,M,,M,,,99.59,,,,,,
2006-06-08 05:00:00,2006-06-08 05:00,2006,6,8,05:00,18.2,,12.3,,68.0,,,M,,M,,,99.6,,,,,,
2006-06-08 06:00:00,2006-06-08 06:00,2006,6,8,06:00,18.9,,12.6,,67.0,,,M,,M,,,99.64,,,,,,
2006-06-08 07:00:00,2006-06-08 07:00,2006,6,8,07:00,20.2,,13.2,,64.0,,,M,,M,,,99.67,,,,,,
2006-06-08 08:00:00,2006-06-08 08:00,2006,6,8,08:00,21.0,,12.7,,59.0,,,M,,M,,,99.72,,,,,,
2006-06-08 09:00:00,2006-06-08 09:00,2006,6,8,09:00,20.0,,13.3,,65.0,,,M,,M,,,99.76,,,,,,
2006-06-08 10:00:00,2006-06-08 10:00,2006,6,8,10:00,20.4,,13.5,,65.0,,,M,,M,,,99.75,,,,,,
2006-06-08 11:00:00,2006-06-08 11:00,2006,6,8,11:00,21.2,,13.2,,60.0,,,M,,M,,,99.76,,,,,,
2006-06-08 12:00:00,2006-06-08 12:00,2006,6,8,12:00,21.5,,12.0,,55.0,,,M,,M,,,99.76,,,,,,
2006-06-08 13:00:00,2006-06-08 13:00,2006,6,8,13:00,21.5,,11.6,,53.0,,,M,,M,,,99.71,,,,,,
2006-06-08 14:00:00,2006-06-08 14:00,2006,6,8,14:00,22.3,,12.0,,52.0,,,M,,M,,,99.62,,25.0,,,,
2006-06-08 15:00:00,2006-06-08 15:00,2006,6,8,15:00,21.5,,13.9,,62.0,,,M,,M,,,99.6,,25.0,,,,
2006-06-08 16:00:00,2006-06-08 16:00,2006,6,8,16:00,22.1,,12.6,,55.0,,,M,,M,,,99.6,,25.0,,,,
2006-06-08 17:00:00,2006-06-08 17:00,2006,6,8,17:00,21.7,,12.0,,54.0,,,M,,M,,,99.6,,,,,,
2006-06-08 18:00:00,2006-06-08 18:00,2006,6,8,18:00,20.6,,11.7,,57.0,,,M,,M,,,99.6,,,,,,
2006-06-08 19:00:00,2006-06-08 19:00,2006,6,8,19:00,20.8,,11.6,,56.0,,,M,,M,,,99.63,,,,,,
2006-06-08 20:00:00,2006-06-08 20:00,2006,6,8,20:00,19.9,,11.0,,56.0,,,M,,M,,,99.6,,,,,,
2006-06-08 21:00:00,2006-06-08 21:00,2006,6,8,21:00,19.2,,12.9,,67.0,,,M,,M,,,99.63,,,,,,
2006-06-08 22:00:00,2006-06-08 22:00,2006,6,8,22:00,18.4,,14.5,,78.0,,,M,,M,,,99.61,,,,,,
2006-06-08 23:00:00,2006-06-08 23:00,2006,6,8,23:00,17.9,,14.5,,81.0,,,M,,M,,,99.64,,,,,,
2006-06-09 00:00:00,2006-06-09 00:00,2006,6,9,00:00,18.2,,14.1,,77.0,,,M,,M,,,99.6,,,,,,
2006-06-09 01:00:00,2006-06-09 01:00,2006,6,9,01:00,17.6,,14.8,,84.0,,,M,,M,,,99.52,,,,,,
2006-06-09 02:00:00,2006-06-09 02:00,2006,6,9,02:00,17.1,,14.3,,84.0,,,M,,M,,,99.52,,,,,,
2006-06-09 03:00:00,2006-06-09 03:00,2006,6,9,03:00,17.0,,14.5,,85.0,,,M,,M,,,99.47,,,,,,
2006-06-09 04:00:00,2006-06-09 04:00,2006,6,9,04:00,17.1,,14.8,,86.0,,,M,,M,,,99.46,,,,,,
2006-06-09 05:00:00,2006-06-09 05:00,2006,6,9,05:00,16.7,,14.2,,85.0,,,M,,M,,,99.44,,,,,,
2006-06-09 06:00:00,2006-06-09 06:00,2006,6,9,06:00,16.6,,14.2,,86.0,,,M,,M,,,99.47,,,,,,
2006-06-09 07:00:00,2006-06-09 07:00,2006,6,9,07:00,17.1,,14.2,,83.0,,,M,,M,,,99.49,,,,,,
2006-06-09 08:00:00,2006-06-09 08:00,2006,6,9,08:00,18.3,,14.5,,79.0,,,M,,M,,,99.46,,,,,,
2006-06-09 09:00:00,2006-06-09 09:00,2006,6,9,09:00,19.3,,14.3,,73.0,,,M,,M,,,99.45,,,,,,
2006-06-09 10:00:00,2006-06-09 10:00,2006,6,9,10:00,18.2,,14.6,,80.0,,,M,,M,,,99.47,,,,,,
2006-06-09 11:00:00,2006-06-09 11:00,2006,6,9,11:00,17.3,,13.0,,76.0,,,M,,M,,,99.46,,,,,,
2006-06-09 12:00:00,2006-06-09 12:00,2006,6,9,12:00,17.9,,13.1,,73.0,,,M,,M,,,99.48,,,,,,
2006-06-09 13:00:00,2006-06-09 13:00,2006,6,9,13:00,18.1,,12.2,,68.0,,,M,,M,,,99.5,,,,,,
2006-06-09 14:00:00,2006-06-09 14:00,2006,6,9,14:00,17.2,,11.5,,69.0,,,M,,M,,,99.52,,,,,,
2006-06-09 15:00:00,2006-06-09 15:00,2006,6,9,15:00,15.9,,9.7,,67.0,,,M,,M,,,99.55,,,,,,
2006-06-09 16:00:00,2006-06-09 16:00,2006,6,9,16:00,14.9,,9.2,,69.0,,,M,,M,,,99.59,,,,,,
2006-06-09 17:00:00,2006-06-09 17:00,2006,6,9,17:00,14.1,,8.8,,70.0,,,M,,M,,,99.63,,,,,,
2006-06-09 18:00:00,2006-06-09 18:00,2006,6,9,18:00,13.9,,8.6,,70.0,,,M,,M,,,99.65,,,,,,
2006-06-09 19:00:00,2006-06-09 19:00,2006,6,9,19:00,13.7,,8.2,,69.0,,,M,,M,,,99.71,,,,,,
2006-06-09 20:00:00,2006-06-09 20:00,2006,6,9,20:00,13.3,,8.4,,72.0,,,M,,M,,,99.7,,,,,,
2006-06-09 21:00:00,2006-06-09 21:00,2006,6,9,21:00,13.2,,8.2,,72.0,,,M,,M,,,99.76,,,,,,
2006-06-09 22:00:00,2006-06-09 22:00,2006,6,9,22:00,13.1,,7.5,,69.0,,,M,,M,,,99.76,,,,,,
2006-06-09 23:00:00,2006-06-09 23:00,2006,6,9,23:00,13.0,,7.7,,70.0,,,M,,M,,,99.73,,,,,,
2006-06-10 00:00:00,2006-06-10 00:00,2006,6,10,00:00,11.9,,5.8,,66.0,,,M,,M,,,99.72,,,,,,
2006-06-10 01:00:00,2006-06-10 01:00,2006,6,10,01:00,11.4,,5.6,,67.0,,,M,,M,,,99.7,,,,,,
2006-06-10 02:00:00,2006-06-10 02:00,2006,6,10,02:00,11.0,,5.7,,70.0,,,M,,M,,,99.68,,,,,,
2006-06-10 03:00:00,2006-06-10 03:00,2006,6,10,03:00,10.6,,5.2,,69.0,,,M,,M,,,99.64,,,,,,
2006-06-10 04:00:00,2006-06-10 04:00,2006,6,10,04:00,10.0,,2.8,,61.0,,,M,,M,,,99.65,,,,,,
2006-06-10 05:00:00,2006-06-10 05:00,2006,6,10,05:00,9.5,,2.4,,61.0,,,M,,M,,,99.7,,,,,,
2006-06-10 06:00:00,2006-06-10 06:00,2006,6,10,06:00,9.6,,2.7,,62.0,,,M,,M,,,99.7,,,,,,
2006-06-10 07:00:00,2006-06-10 07:00,2006,6,10,07:00,10.2,,2.2,,58.0,,,M,,M,,,99.72,,,,,,
2006-06-10 08:00:00,2006-06-10 08:00,2006,6,10,08:00,11.7,,3.3,,56.0,,,M,,M,,,99.81,,,,,,
2006-06-10 09:00:00,2006-06-10 09:00,2006,6,10,09:00,12.7,,2.2,,49.0,,,M,,M,,,99.74,,,,,,
2006-06-10 10:00:00,2006-06-10 10:00,2006,6,10,10:00,14.4,,3.6,,48.0,,,M,,M,,,99.7,,,,,,
2006-06-10 11:00:00,2006-06-10 11:00,2006,6,10,11:00,14.3,,3.1,,47.0,,,M,,M,,,99.74,,,,,,
2006-06-10 12:00:00,2006-06-10 12:00,2006,6,10,12:00,15.4,,3.8,,46.0,,,M,,M,,,99.71,,,,,,
2006-06-10 13:00:00,2006-06-10 13:00,2006,6,10,13:00,15.3,,3.4,,45.0,,,M,,M,,,99.7,,,,,,
2006-06-10 14:00:00,2006-06-10 14:00,2006,6,10,14:00,14.8,,1.8,,41.0,,,M,,M,,,99.71,,,,,,
2006-06-10 15:00:00,2006-06-10 15:00,2006,6,10,15:00,14.5,,2.6,,45.0,,,M,,M,,,99.74,,,,,,
2006-06-10 16:00:00,2006-06-10 16:00,2006,6,10,16:00,14.5,,2.4,,44.0,,,M,,M,,,99.71,,,,,,
2006-06-10 17:00:00,2006-06-10 17:00,2006,6,10,17:00,14.2,,3.0,,47.0,,,M,,M,,,99.73,,,,,,
2006-06-10 18:00:00,2006-06-10 18:00,2006,6,10,18:00,13.5,,3.4,,50.0,,,M,,M,,,99.73,,,,,,
2006-06-10 19:00:00,2006-06-10 19:00,2006,6,10,19:00,13.1,,3.4,,52.0,,,M,,M,,,99.76,,,,,,
2006-06-10 20:00:00,2006-06-10 20:00,2006,6,10,20:00,12.4,,3.6,,55.0,,,M,,M,,,99.77,,,,,,
2006-06-10 21:00:00,2006-06-10 21:00,2006,6,10,21:00,12.0,,3.8,,57.0,,,M,,M,,,99.8,,,,,,
2006-06-10 22:00:00,2006-06-10 22:00,2006,6,10,22:00,11.7,,3.9,,59.0,,,M,,M,,,99.79,,,,,,
2006-06-10 23:00:00,2006-06-10 23:00,2006,6,10,23:00,11.0,,4.4,,64.0,,,M,,M,,,99.8,,,,,,
2006-06-11 00:00:00,2006-06-11 00:00,2006,6,11,00:00,10.2,,4.4,,67.0,,,M,,M,,,99.76,,,,,,
2006-06-11 01:00:00,2006-06-11 01:00,2006,6,11,01:00,9.7,,4.5,,70.0,,,M,,M,,,99.73,,,,,,
2006-06-11 02:00:00,2006-06-11 02:00,2006,6,11,02:00,9.3,,5.0,,74.0,,,M,,M,,,99.73,,,,,,
2006-06-11 03:00:00,2006-06-11 03:00,2006,6,11,03:00,9.2,,5.5,,78.0,,,M,,M,,,99.74,,,,,,
2006-06-11 04:00:00,2006-06-11 04:00,2006,6,11,04:00,9.5,,6.1,,79.0,,,M,,M,,,99.79,,,,,,
2006-06-11 05:00:00,2006-06-11 05:00,2006,6,11,05:00,9.2,,5.7,,79.0,,,M,,M,,,99.76,,,,,,
2006-06-11 06:00:00,2006-06-11 06:00,2006,6,11,06:00,9.4,,5.6,,77.0,,,M,,M,,,99.76,,,,,,
2006-06-11 07:00:00,2006-06-11 07:00,2006,6,11,07:00,10.3,,5.4,,72.0,,,M,,M,,,99.78,,,,,,
2006-06-11 08:00:00,2006-06-11 08:00,2006,6,11,08:00,11.9,,5.8,,66.0,,,M,,M,,,99.81,,,,,,
2006-06-11 09:00:00,2006-06-11 09:00,2006,6,11,09:00,13.1,,5.7,,61.0,,,M,,M,,,99.8,,,,,,
2006-06-11 10:00:00,2006-06-11 10:00,2006,6,11,10:00,14.1,,6.5,,60.0,,,M,,M,,,99.77,,,,,,
2006-06-11 11:00:00,2006-06-11 11:00,2006,6,11,11:00,15.5,,7.3,,58.0,,,M,,M,,,99.84,,,,,,
2006-06-11 12:00:00,2006-06-11 12:00,2006,6,11,12:00,16.4,,8.3,,59.0,,,M,,M,,,99.87,,,,,,
2006-06-11 13:00:00,2006-06-11 13:00,2006,6,11,13:00,17.0,,8.4,,57.0,,,M,,M,,,99.85,,,,,,
2006-06-11 14:00:00,2006-06-11 14:00,2006,6,11,14:00,18.2,,8.5,,53.0,,,M,,M,,,99.84,,,,,,
2006-06-11 15:00:00,2006-06-11 15:00,2006,6,11,15:00,18.5,,9.2,,55.0,,,M,,M,,,99.83,,,,,,
2006-06-11 16:00:00,2006-06-11 16:00,2006,6,11,16:00,17.7,,8.2,,54.0,,,M,,M,,,99.84,,,,,,
2006-06-11 17:00:00,2006-06-11 17:00,2006,6,11,17:00,16.8,,8.3,,57.0,,,M,,M,,,99.87,,,,,,
2006-06-11 18:00:00,2006-06-11 18:00,2006,6,11,18:00,15.7,,8.5,,62.0,,,M,,M,,,99.89,,,,,,
2006-06-11 19:00:00,2006-06-11 19:00,2006,6,11,19:00,14.7,,8.2,,65.0,,,M,,M,,,99.94,,,,,,
2006-06-11 20:00:00,2006-06-11 20:00,2006,6,11,20:00,13.8,,7.9,,68.0,,,M,,M,,,99.96,,,,,,
2006-06-11 21:00:00,2006-06-11 21:00,2006,6,11,21:00,13.5,,7.7,,68.0,,,M,,M,,,99.98,,,,,,
2006-06-11 22:00:00,2006-06-11 22:00,2006,6,11,22:00,13.0,,8.5,,74.0,,,M,,M,,,100.03,,,,,,
2006-06-11 23:00:00,2006-06-11 23:00,2006,6,11,23:00,12.8,,9.1,,78.0,,,M,,M,,,100.06,,,,,,
2006-06-12 00:00:00,2006-06-12 00:00,2006,6,12,00:00,12.9,,9.4,,79.0,,,M,,M,,,100.06,,,,,,
2006-06-12 01:00:00,2006-06-12 01:00,2006,6,12,01:00,12.9,,9.8,,81.0,,,M,,M,,,100.12,,,,,,
2006-06-12 02:00:00,2006-06-12 02:00,2006,6,12,02:00,13.0,,10.1,,83.0,,,M,,M,,,100.14,,,,,,
2006-06-12 03:00:00,2006-06-12 03:00,2006,6,12,03:00,12.9,,10.1,,83.0,,,M,,M,,,100.12,,,,,,
2006-06-12 04:00:00,2006-06-12 04:00,2006,6,12,04:00,13.0,,9.9,,81.0,,,M,,M,,,100.15,,,,,,
2006-06-12 05:00:00,2006-06-12 05:00,2006,6,12,05:00,13.1,,9.9,,81.0,,,M,,M,,,100.17,,,,,,
2006-06-12 06:00:00,2006-06-12 06:00,2006,6,12,06:00,13.6,,10.1,,79.0,,,M,,M,,,100.21,,,,,,
2006-06-12 07:00:00,2006-06-12 07:00,2006,6,12,07:00,14.3,,10.1,,76.0,,,M,,M,,,100.24,,,,,,
2006-06-12 08:00:00,2006-06-12 08:00,2006,6,12,08:00,15.1,,10.2,,73.0,,,M,,M,,,100.27,,,,,,
2006-06-12 09:00:00,2006-06-12 09:00,2006,6,12,09:00,16.3,,10.8,,70.0,,,M,,M,,,100.28,,,,,,
2006-06-12 10:00:00,2006-06-12 10:00,2006,6,12,10:00,17.5,,11.4,,67.0,,,M,,M,,,100.26,,,,,,
2006-06-12 11:00:00,2006-06-12 11:00,2006,6,12,11:00,18.3,,11.5,,65.0,,,M,,M,,,100.28,,,,,,
2006-06-12 12:00:00,2006-06-12 12:00,2006,6,12,12:00,19.0,,12.4,,66.0,,,M,,M,,,100.3,,,,,,
2006-06-12 13:00:00,2006-06-12 13:00,2006,6,12,13:00,19.7,,12.6,,64.0,,,M,,M,,,100.3,,,,,,
2006-06-12 14:00:00,2006-06-12 14:00,2006,6,12,14:00,19.8,,12.3,,62.0,,,M,,M,,,100.27,,,,,,
2006-06-12 15:00:00,2006-06-12 15:00,2006,6,12,15:00,19.2,,11.3,,60.0,,,M,,M,,,100.28,,,,,,
2006-06-12 16:00:00,2006-06-12 16:00,2006,6,12,16:00,18.8,,11.4,,62.0,,,M,,M,,,100.3,,,,,,
2006-06-12 17:00:00,2006-06-12 17:00,2006,6,12,17:00,18.3,,11.2,,63.0,,,M,,M,,,100.32,,,,,,
2006-06-12 18:00:00,2006-06-12 18:00,2006,6,12,18:00,17.3,,10.8,,66.0,,,M,,M,,,100.36,,,,,,
2006-06-12 19:00:00,2006-06-12 19:00,2006,6,12,19:00,16.2,,10.5,,69.0,,,M,,M,,,100.36,,,,,,
2006-06-12 20:00:00,2006-06-12 20:00,2006,6,12,20:00,15.5,,10.5,,72.0,,,M,,M,,,100.39,,,,,,
2006-06-12 21:00:00,2006-06-12 21:00,2006,6,12,21:00,15.1,,10.4,,73.0,,,M,,M,,,100.43,,,,,,
2006-06-12 22:00:00,2006-06-12 22:00,2006,6,12,22:00,14.8,,10.3,,74.0,,,M,,M,,,100.44,,,,,,
2006-06-12 23:00:00,2006-06-12 23:00,2006,6,12,23:00,14.3,,10.2,,76.0,,,M,,M,,,100.44,,,,,,
2006-06-13 00:00:00,2006-06-13 00:00,2006,6,13,00:00,14.0,,9.8,,76.0,,,M,,M,,,100.43,,,,,,
2006-06-13 01:00:00,2006-06-13 01:00,2006,6,13,01:00,14.1,,9.8,,75.0,,,M,,M,,,100.42,,,,,,
2006-06-13 02:00:00,2006-06-13 02:00,2006,6,13,02:00,14.2,,10.1,,76.0,,,M,,M,,,100.42,,,,,,
2006-06-13 03:00:00,2006-06-13 03:00,2006,6,13,03:00,13.8,,9.9,,77.0,,,M,,M,,,100.41,,,,,,
2006-06-13 04:00:00,2006-06-13 04:00,2006,6,13,04:00,13.7,,10.0,,78.0,,,M,,M,,,100.41,,,,,,
2006-06-13 05:00:00,2006-06-13 05:00,2006,6,13,05:00,12.9,,9.8,,81.0,,,M,,M,,,100.4,,,,,,
2006-06-13 06:00:00,2006-06-13 06:00,2006,6,13,06:00,13.6,,10.5,,82.0,,,M,,M,,,100.44,,,,,,
2006-06-13 07:00:00,2006-06-13 07:00,2006,6,13,07:00,15.5,,11.5,,77.0,,,M,,M,,,100.47,,,,,,
2006-06-13 08:00:00,2006-06-13 08:00,2006,6,13,08:00,17.4,,12.3,,72.0,,,M,,M,,,100.48,,,,,,
2006-06-13 09:00:00,2006-06-13 09:00,2006,6,13,09:00,18.5,,12.3,,67.0,,,M,,M,,,100.48,,,,,,
2006-06-13 10:00:00,2006-06-13 10:00,2006,6,13,10:00,19.9,,12.3,,62.0,,,M,,M,,,100.48,,,,,,
2006-06-13 11:00:00,2006-06-13 11:00,2006,6,13,11:00,20.9,,12.3,,58.0,,,M,,M,,,100.44,,,,,,
2006-06-13 12:00:00,2006-06-13 12:00,2006,6,13,12:00,18.8,,12.4,,66.0,,,M,,M,,,100.44,,,,,,
2006-06-13 13:00:00,2006-06-13 13:00,2006,6,13,13:00,20.7,,13.6,,64.0,,,M,,M,,,100.37,,,,,,
2006-06-13 14:00:00,2006-06-13 14:00,2006,6,13,14:00,,,,,,,,,,,,,,,,,,,
2006-06-13 15:00:00,2006-06-13 15:00,2006,6,13,15:00,,,,,,,,,,,,,,,,,,,
2006-06-13 16:00:00,2006-06-13 16:00,2006,6,13,16:00,,,,,,,,,,,,,,,,,,,
2006-06-13 17:00:00,2006-06-13 17:00,2006,6,13,17:00,20.8,,12.8,,60.0,,,M,,M,,,100.27,,,,,,
2006-06-13 18:00:00,2006-06-13 18:00,2006,6,13,18:00,20.4,,11.8,,58.0,,,M,,M,,,100.28,,,,,,
2006-06-13 19:00:00,2006-06-13 19:00,2006,6,13,19:00,20.9,,10.6,,52.0,,,M,,M,,,100.31,,,,,,
2006-06-13 20:00:00,2006-06-13 20:00,2006,6,13,20:00,20.1,,10.4,,54.0,,,M,,M,,,100.35,,,,,,
2006-06-13 21:00:00,2006-06-13 21:00,2006,6,13,21:00,19.5,,10.1,,55.0,,,M,,M,,,100.39,,,,,,
2006-06-13 22:00:00,2006-06-13 22:00,2006,6,13,22:00,19.0,,8.9,,52.0,,,M,,M,,,100.42,,,,,,
2006-06-13 23:00:00,2006-06-13 23:00,2006,6,13,23:00,18.8,,8.3,,50.0,,,M,,M,,,100.42,,,,,,
2006-06-14 00:00:00,2006-06-14 00:00,2006,6,14,00:00,18.3,,8.0,,51.0,,,M,,M,,,100.39,,,,,,
2006-06-14 01:00:00,2006-06-14 01:00,2006,6,14,01:00,18.0,,6.6,,47.0,,,M,,M,,,100.38,,,,,,
2006-06-14 02:00:00,2006-06-14 02:00,2006,6,14,02:00,17.3,,6.5,,49.0,,,M,,M,,,100.35,,,,,,
2006-06-14 03:00:00,2006-06-14 03:00,2006,6,14,03:00,16.6,,7.4,,55.0,,,M,,M,,,100.31,,,,,,
2006-06-14 04:00:00,2006-06-14 04:00,2006,6,14,04:00,15.6,,8.0,,61.0,,,M,,M,,,100.32,,,,,,
2006-06-14 05:00:00,2006-06-14 05:00,2006,6,14,05:00,14.8,,8.7,,67.0,,,M,,M,,,100.34,,,,,,
2006-06-14 06:00:00,2006-06-14 06:00,2006,6,14,06:00,15.2,,9.5,,69.0,,,M,,M,,,100.37,,,,,,
2006-06-14 07:00:00,2006-06-14 07:00,2006,6,14,07:00,16.0,,10.4,,69.0,,,M,,M,,,100.4,,,,,,
2006-06-14 08:00:00,2006-06-14 08:00,2006,6,14,08:00,18.0,,11.6,,66.0,,,M,,M,,,100.4,,,,,,
2006-06-14 09:00:00,2006-06-14 09:00,2006,6,14,09:00,19.2,,12.4,,65.0,,,M,,M,,,100.4,,,,,,
2006-06-14 10:00:00,2006-06-14 10:00,2006,6,14,10:00,21.5,,12.2,,55.0,,,M,,M,,,100.36,,,,,,
2006-06-14 11:00:00,2006-06-14 11:00,2006,6,14,11:00,20.2,,11.9,,59.0,,,M,,M,,,100.36,,,,,,
2006-06-14 12:00:00,2006-06-14 12:00,2006,6,14,12:00,21.3,,11.9,,55.0,,,M,,M,,,100.33,,,,,,
2006-06-14 13:00:00,2006-06-14 13:00,2006,6,14,13:00,20.1,,11.1,,56.0,,,M,,M,,,100.31,,,,,,
2006-06-14 14:00:00,2006-06-14 14:00,2006,6,14,14:00,20.1,,11.3,,57.0,,,M,,M,,,100.29,,,,,,
2006-06-14 15:00:00,2006-06-14 15:00,2006,6,14,15:00,20.8,,13.4,,63.0,,,M,,M,,,100.26,,,,,,
2006-06-14 16:00:00,2006-06-14 16:00,2006,6,14,16:00,21.8,,12.0,,54.0,,,M,,M,,,100.21,,,,,,
2006-06-14 17:00:00,2006-06-14 17:00,2006,6,14,17:00,22.6,,11.2,,48.0,,,M,,M,,,100.18,,,,,,
2006-06-14 18:00:00,2006-06-14 18:00,2006,6,14,18:00,21.8,,10.5,,49.0,,,M,,M,,,100.17,,,,,,
2006-06-14 19:00:00,2006-06-14 19:00,2006,6,14,19:00,20.6,,10.3,,52.0,,,M,,M,,,100.15,,,,,,
2006-06-14 20:00:00,2006-06-14 20:00,2006,6,14,20:00,19.6,,12.8,,65.0,,,M,,M,,,100.17,,,,,,
2006-06-14 21:00:00,2006-06-14 21:00,2006,6,14,21:00,19.6,,9.0,,50.0,,,M,,M,,,100.23,,,,,,
2006-06-14 22:00:00,2006-06-14 22:00,2006,6,14,22:00,18.8,,8.7,,52.0,,,M,,M,,,100.24,,,,,,
2006-06-14 23:00:00,2006-06-14 23:00,2006,6,14,23:00,17.6,,8.5,,55.0,,,M,,M,,,100.24,,,,,,
2006-06-15 00:00:00,2006-06-15 00:00,2006,6,15,00:00,17.2,,8.7,,57.0,,,M,,M,,,100.23,,,,,,
2006-06-15 01:00:00,2006-06-15 01:00,2006,6,15,01:00,16.6,,8.8,,60.0,,,M,,M,,,100.23,,,,,,
2006-06-15 02:00:00,2006-06-15 02:00,2006,6,15,02:00,16.2,,8.6,,61.0,,,M,,M,,,100.23,,,,,,
2006-06-15 03:00:00,2006-06-15 03:00,2006,6,15,03:00,15.8,,8.6,,62.0,,,M,,M,,,100.24,,,,,,
2006-06-15 04:00:00,2006-06-15 04:00,2006,6,15,04:00,15.3,,8.5,,64.0,,,M,,M,,,100.29,,,,,,
2006-06-15 05:00:00,2006-06-15 05:00,2006,6,15,05:00,14.8,,8.4,,65.0,,,M,,M,,,100.35,,,,,,
2006-06-15 06:00:00,2006-06-15 06:00,2006,6,15,06:00,15.6,,8.8,,64.0,,,M,,M,,,100.44,,,,,,
2006-06-15 07:00:00,2006-06-15 07:00,2006,6,15,07:00,17.9,,9.1,,56.0,,,M,,M,,,100.48,,,,,,
2006-06-15 08:00:00,2006-06-15 08:00,2006,6,15,08:00,20.3,,9.2,,49.0,,,M,,M,,,100.52,,,,,,
2006-06-15 09:00:00,2006-06-15 09:00,2006,6,15,09:00,22.2,,7.6,,39.0,,,M,,M,,,100.54,,,,,,
2006-06-15 10:00:00,2006-06-15 10:00,2006,6,15,10:00,23.5,,4.5,,29.0,,,M,,M,,,100.53,,,,,,
2006-06-15 11:00:00,2006-06-15 11:00,2006,6,15,11:00,24.6,,7.5,,34.0,,,M,,M,,,100.53,,25.0,,,,
2006-06-15 12:00:00,2006-06-15 12:00,2006,6,15,12:00,24.2,,5.1,,29.0,,,M,,M,,,100.53,,,,,,
2006-06-15 13:00:00,2006-06-15 13:00,2006,6,15,13:00,24.0,,5.6,,30.0,,,M,,M,,,100.51,,,,,,
2006-06-15 14:00:00,2006-06-15 14:00,2006,6,15,14:00,23.9,,7.4,,35.0,,,M,,M,,,100.5,,,,,,
2006-06-15 15:00:00,2006-06-15 15:00,2006,6,15,15:00,23.7,,6.6,,33.0,,,M,,M,,,100.49,,,,,,
2006-06-15 16:00:00,2006-06-15 16:00,2006,6,15,16:00,23.2,,5.2,,31.0,,,M,,M,,,100.45,,,,,,
2006-06-15 17:00:00,2006-06-15 17:00,2006,6,15,17:00,23.7,,6.7,,33.0,,,M,,M,,,100.43,,,,,,
2006-06-15 18:00:00,2006-06-15 18:00,2006,6,15,18:00,23.2,,6.4,,34.0,,,M,,M,,,100.42,,,,,,
2006-06-15 19:00:00,2006-06-15 19:00,2006,6,15,19:00,22.8,,7.2,,37.0,,,M,,M,,,100.45,,,,,,
2006-06-15 20:00:00,2006-06-15 20:00,2006,6,15,20:00,20.8,,6.7,,40.0,,,M,,M,,,100.46,,,,,,
2006-06-15 21:00:00,2006-06-15 21:00,2006,6,15,21:00,19.5,,7.1,,44.0,,,M,,M,,,100.52,,,,,,
2006-06-15 22:00:00,2006-06-15 22:00,2006,6,15,22:00,19.2,,7.2,,46.0,,,M,,M,,,100.55,,,,,,
2006-06-15 23:00:00,2006-06-15 23:00,2006,6,15,23:00,17.9,,6.8,,48.0,,,M,,M,,,100.53,,,,,,
2006-06-16 00:00:00,2006-06-16 00:00,2006,6,16,00:00,16.9,,6.9,,52.0,,,M,,M,,,100.55,,,,,,
2006-06-16 01:00:00,2006-06-16 01:00,2006,6,16,01:00,16.5,,8.1,,58.0,,,M,,M,,,100.55,,,,,,
2006-06-16 02:00:00,2006-06-16 02:00,2006,6,16,02:00,16.2,,8.4,,60.0,,,M,,M,,,100.57,,,,,,
2006-06-16 03:00:00,2006-06-16 03:00,2006,6,16,03:00,15.7,,8.4,,62.0,,,M,,M,,,100.55,,,,,,
2006-06-16 04:00:00,2006-06-16 04:00,2006,6,16,04:00,14.7,,8.1,,65.0,,,M,,M,,,100.62,,,,,,
2006-06-16 05:00:00,2006-06-16 05:00,2006,6,16,05:00,14.4,,8.5,,68.0,,,M,,M,,,100.69,,,,,,
2006-06-16 06:00:00,2006-06-16 06:00,2006,6,16,06:00,15.2,,10.0,,71.0,,,M,,M,,,100.75,,,,,,
2006-06-16 07:00:00,2006-06-16 07:00,2006,6,16,07:00,18.7,,9.7,,56.0,,,M,,M,,,100.81,,,,,,
2006-06-16 08:00:00,2006-06-16 08:00,2006,6,16,08:00,20.5,,11.4,,56.0,,,M,,M,,,100.82,,,,,,
2006-06-16 09:00:00,2006-06-16 09:00,2006,6,16,09:00,22.8,,11.1,,48.0,,,M,,M,,,100.8,,25.0,,,,
2006-06-16 10:00:00,2006-06-16 10:00,2006,6,16,10:00,22.3,,11.0,,49.0,,,M,,M,,,100.75,,,,,,
2006-06-16 11:00:00,2006-06-16 11:00,2006,6,16,11:00,23.9,,11.5,,46.0,,,M,,M,,,100.72,,26.0,,,,
2006-06-16 12:00:00,2006-06-16 12:00,2006,6,16,12:00,26.1,,12.5,,43.0,,,M,,M,,,100.67,,29.0,,,,
2006-06-16 13:00:00,2006-06-16 13:00,2006,6,16,13:00,26.0,,10.4,,38.0,,,M,,M,,,100.62,,27.0,,,,
2006-06-16 14:00:00,2006-06-16 14:00,2006,6,16,14:00,26.4,,10.2,,36.0,,,M,,M,,,100.58,,28.0,,,,
2006-06-16 15:00:00,2006-06-16 15:00,2006,6,16,15:00,26.4,,12.2,,41.0,,,M,,M,,,100.55,,29.0,,,,
2006-06-16 16:00:00,2006-06-16 16:00,2006,6,16,16:00,25.8,,11.6,,41.0,,,M,,M,,,100.51,,28.0,,,,
2006-06-16 17:00:00,2006-06-16 17:00,2006,6,16,17:00,24.7,,11.2,,43.0,,,M,,M,,,100.42,,27.0,,,,
2006-06-16 18:00:00,2006-06-16 18:00,2006,6,16,18:00,23.7,,11.8,,47.0,,,M,,M,,,100.33,,26.0,,,,
2006-06-16 19:00:00,2006-06-16 19:00,2006,6,16,19:00,22.6,,11.1,,48.0,,,M,,M,,,100.33,,,,,,
2006-06-16 20:00:00,2006-06-16 20:00,2006,6,16,20:00,22.2,,11.0,,49.0,,,M,,M,,,100.3,,,,,,
2006-06-16 21:00:00,2006-06-16 21:00,2006,6,16,21:00,22.2,,11.9,,52.0,,,M,,M,,,100.32,,,,,,
2006-06-16 22:00:00,2006-06-16 22:00,2006,6,16,22:00,21.7,,11.9,,54.0,,,M,,M,,,100.27,,,,,,
2006-06-16 23:00:00,2006-06-16 23:00,2006,6,16,23:00,21.1,,11.3,,54.0,,,M,,M,,,100.21,,,,,,
2006-06-17 00:00:00,2006-06-17 00:00,2006,6,17,00:00,19.9,,12.6,,63.0,,,M,,M,,,100.28,,,,,,
2006-06-17 01:00:00,2006-06-17 01:00,2006,6,17,01:00,20.0,,13.4,,66.0,,,M,,M,,,100.32,,,,,,
2006-06-17 02:00:00,2006-06-17 02:00,2006,6,17,02:00,21.1,,13.1,,60.0,,,M,,M,,,100.29,,,,,,
2006-06-17 03:00:00,2006-06-17 03:00,2006,6,17,03:00,20.0,,13.6,,67.0,,,M,,M,,,100.25,,,,,,
2006-06-17 04:00:00,2006-06-17 04:00,2006,6,17,04:00,19.9,,13.8,,68.0,,,M,,M,,,100.24,,,,,,
2006-06-17 05:00:00,2006-06-17 05:00,2006,6,17,05:00,19.5,,14.0,,71.0,,,M,,M,,,100.25,,,,,,
2006-06-17 06:00:00,2006-06-17 06:00,2006,6,17,06:00,20.5,,14.8,,70.0,,,M,,M,,,100.27,,,,,,
2006-06-17 07:00:00,2006-06-17 07:00,2006,6,17,07:00,21.4,,15.8,,70.0,,,M,,M,,,100.28,,26.0,,,,
2006-06-17 08:00:00,2006-06-17 08:00,2006,6,17,08:00,25.5,,17.7,,62.0,,,M,,M,,,100.27,,31.0,,,,
2006-06-17 09:00:00,2006-06-17 09:00,2006,6,17,09:00,28.4,,18.8,,56.0,,,M,,M,,,100.21,,35.0,,,,
2006-06-17 10:00:00,2006-06-17 10:00,2006,6,17,10:00,29.9,,18.9,,52.0,,,M,,M,,,100.2,,37.0,,,,
2006-06-17 11:00:00,2006-06-17 11:00,2006,6,17,11:00,31.1,,19.0,,49.0,,,M,,M,,,100.2,,38.0,,,,
2006-06-17 12:00:00,2006-06-17 12:00,2006,6,17,12:00,29.9,,18.6,,51.0,,,M,,M,,,100.18,,36.0,,,,
2006-06-17 13:00:00,2006-06-17 13:00,2006,6,17,13:00,30.5,,19.3,,51.0,,,M,,M,,,100.17,,38.0,,,,
2006-06-17 14:00:00,2006-06-17 14:00,2006,6,17,14:00,30.6,,20.1,,54.0,,,M,,M,,,100.14,,38.0,,,,
2006-06-17 15:00:00,2006-06-17 15:00,2006,6,17,15:00,31.7,,19.0,,47.0,,,M,,M,,,100.09,,38.0,,,,
2006-06-17 16:00:00,2006-06-17 16:00,2006,6,17,16:00,30.6,,17.9,,47.0,,,M,,M,,,100.07,,37.0,,,,
2006-06-17 17:00:00,2006-06-17 17:00,2006,6,17,17:00,28.5,,18.1,,53.0,,,M,,M,,,100.04,,35.0,,,,
2006-06-17 18:00:00,2006-06-17 18:00,2006,6,17,18:00,27.5,,16.5,,51.0,,,M,,M,,,100.04,,32.0,,,,
2006-06-17 19:00:00,2006-06-17 19:00,2006,6,17,19:00,27.1,,15.4,,49.0,,,M,,M,,,100.04,,31.0,,,,
2006-06-17 20:00:00,2006-06-17 20:00,2006,6,17,20:00,27.0,,13.6,,44.0,,,M,,M,,,100.04,,30.0,,,,
2006-06-17 21:00:00,2006-06-17 21:00,2006,6,17,21:00,26.4,,14.2,,47.0,,,M,,M,,,100.05,,30.0,,,,
2006-06-17 22:00:00,2006-06-17 22:00,2006,6,17,22:00,25.5,,15.1,,53.0,,,M,,M,,,100.11,,30.0,,,,
2006-06-17 23:00:00,2006-06-17 23:00,2006,6,17,23:00,23.1,,15.3,,61.0,,,M,,M,,,100.14,,27.0,,,,
2006-06-18 00:00:00,2006-06-18 00:00,2006,6,18,00:00,22.3,,15.7,,66.0,,,M,,M,,,100.12,,27.0,,,,
2006-06-18 01:00:00,2006-06-18 01:00,2006,6,18,01:00,21.1,,16.1,,73.0,,,M,,M,,,100.08,,26.0,,,,
2006-06-18 02:00:00,2006-06-18 02:00,2006,6,18,02:00,20.8,,15.8,,73.0,,,M,,M,,,100.06,,25.0,,,,
2006-06-18 03:00:00,2006-06-18 03:00,2006,6,18,03:00,20.4,,15.7,,74.0,,,M,,M,,,100.04,,25.0,,,,
2006-06-18 04:00:00,2006-06-18 04:00,2006,6,18,04:00,20.2,,15.9,,76.0,,,M,,M,,,100.03,,25.0,,,,
2006-06-18 05:00:00,2006-06-18 05:00,2006,6,18,05:00,19.5,,16.3,,82.0,,,M,,M,,,100.04,,,,,,
2006-06-18 06:00:00,2006-06-18 06:00,2006,6,18,06:00,20.4,,17.8,,85.0,,,M,,M,,,100.07,,26.0,,,,
2006-06-18 07:00:00,2006-06-18 07:00,2006,6,18,07:00,22.5,,18.2,,77.0,,,M,,M,,,100.05,,29.0,,,,
2006-06-18 08:00:00,2006-06-18 08:00,2006,6,18,08:00,24.2,,19.1,,73.0,,,M,,M,,,100.01,,31.0,,,,
2006-06-18 09:00:00,2006-06-18 09:00,2006,6,18,09:00,25.5,,20.2,,73.0,,,M,,M,,,99.96,,33.0,,,,
2006-06-18 10:00:00,2006-06-18 10:00,2006,6,18,10:00,27.3,,21.2,,69.0,,,M,,M,,,99.93,,36.0,,,,
2006-06-18 11:00:00,2006-06-18 11:00,2006,6,18,11:00,27.5,,21.6,,70.0,,,M,,M,,,99.91,,36.0,,,,
2006-06-18 12:00:00,2006-06-18 12:00,2006,6,18,12:00,28.9,,20.6,,61.0,,,M,,M,,,99.86,,37.0,,,,
2006-06-18 13:00:00,2006-06-18 13:00,2006,6,18,13:00,29.5,,20.7,,59.0,,,M,,M,,,99.82,,38.0,,,,
2006-06-18 14:00:00,2006-06-18 14:00,2006,6,18,14:00,29.3,,20.5,,59.0,,,M,,M,,,99.77,,37.0,,,,
2006-06-18 15:00:00,2006-06-18 15:00,2006,6,18,15:00,30.0,,20.9,,58.0,,,M,,M,,,99.72,,38.0,,,,
2006-06-18 16:00:00,2006-06-18 16:00,2006,6,18,16:00,29.1,,19.5,,56.0,,,M,,M,,,99.68,,36.0,,,,
2006-06-18 17:00:00,2006-06-18 17:00,2006,6,18,17:00,28.6,,19.2,,57.0,,,M,,M,,,99.63,,36.0,,,,
2006-06-18 18:00:00,2006-06-18 18:00,2006,6,18,18:00,28.1,,19.0,,58.0,,,M,,M,,,99.6,,35.0,,,,
2006-06-18 19:00:00,2006-06-18 19:00,2006,6,18,19:00,25.8,,18.3,,63.0,,,M,,M,,,99.59,,32.0,,,,
2006-06-18 20:00:00,2006-06-18 20:00,2006,6,18,20:00,25.9,,18.4,,63.0,,,M,,M,,,99.58,,32.0,,,,
2006-06-18 21:00:00,2006-06-18 21:00,2006,6,18,21:00,25.8,,18.3,,63.0,,,M,,M,,,99.56,,32.0,,,,
2006-06-18 22:00:00,2006-06-18 22:00,2006,6,18,22:00,24.0,,18.0,,69.0,,,M,,M,,,99.59,,30.0,,,,
2006-06-18 23:00:00,2006-06-18 23:00,2006,6,18,23:00,24.4,,17.8,,67.0,,,M,,M,,,99.55,,30.0,,,,
2006-06-19 00:00:00,2006-06-19 00:00,2006,6,19,00:00,25.9,,19.0,,66.0,,,M,,M,,,99.49,,33.0,,,,
2006-06-19 01:00:00,2006-06-19 01:00,2006,6,19,01:00,25.1,,18.9,,69.0,,,M,,M,,,99.5,,32.0,,,,
2006-06-19 02:00:00,2006-06-19 02:00,2006,6,19,02:00,23.4,,19.0,,76.0,,,M,,M,,,99.6,,30.0,,,,
2006-06-19 03:00:00,2006-06-19 03:00,2006,6,19,03:00,21.9,,19.6,,87.0,,,M,,M,,,99.57,,29.0,,,,
2006-06-19 04:00:00,2006-06-19 04:00,2006,6,19,04:00,21.6,,19.5,,88.0,,,M,,M,,,99.59,,29.0,,,,
2006-06-19 05:00:00,2006-06-19 05:00,2006,6,19,05:00,21.4,,19.3,,88.0,,,M,,M,,,99.61,,28.0,,,,
2006-06-19 06:00:00,2006-06-19 06:00,2006,6,19,06:00,20.4,,19.2,,93.0,,,M,,M,,,99.62,,27.0,,,,
2006-06-19 07:00:00,2006-06-19 07:00,2006,6,19,07:00,19.9,,19.3,,96.0,,,M,,M,,,99.65,,,,,,
2006-06-19 08:00:00,2006-06-19 08:00,2006,6,19,08:00,19.8,,19.5,,98.0,,,M,,M,,,99.63,,,,,,
2006-06-19 09:00:00,2006-06-19 09:00,2006,6,19,09:00,19.9,,19.4,,97.0,,,M,,M,,,99.61,,,,,,
2006-06-19 10:00:00,2006-06-19 10:00,2006,6,19,10:00,21.2,,20.4,,95.0,,,M,,M,,,99.61,,29.0,,,,
2006-06-19 11:00:00,2006-06-19 11:00,2006,6,19,11:00,23.2,,20.4,,84.0,,,M,,M,,,99.61,,31.0,,,,
2006-06-19 12:00:00,2006-06-19 12:00,2006,6,19,12:00,24.0,,20.0,,78.0,,,M,,M,,,99.57,,32.0,,,,
2006-06-19 13:00:00,2006-06-19 13:00,2006,6,19,13:00,25.2,,20.4,,75.0,,,M,,M,,,99.51,,33.0,,,,
2006-06-19 14:00:00,2006-06-19 14:00,2006,6,19,14:00,24.2,,19.8,,76.0,,,M,,M,,,99.44,,32.0,,,,
2006-06-19 15:00:00,2006-06-19 15:00,2006,6,19,15:00,23.4,,19.3,,78.0,,,M,,M,,,99.41,,30.0,,,,
2006-06-19 16:00:00,2006-06-19 16:00,2006,6,19,16:00,23.1,,19.0,,78.0,,,M,,M,,,99.48,,30.0,,,,
2006-06-19 17:00:00,2006-06-19 17:00,2006,6,19,17:00,24.2,,18.8,,72.0,,,M,,M,,,99.41,,31.0,,,,
2006-06-19 18:00:00,2006-06-19 18:00,2006,6,19,18:00,22.8,,15.7,,64.0,,,M,,M,,,99.45,,27.0,,,,
2006-06-19 19:00:00,2006-06-19 19:00,2006,6,19,19:00,21.7,,16.0,,70.0,,,M,,M,,,99.46,,26.0,,,,
2006-06-19 20:00:00,2006-06-19 20:00,2006,6,19,20:00,24.0,,16.4,,62.0,,,M,,M,,,99.4,,29.0,,,,
2006-06-19 21:00:00,2006-06-19 21:00,2006,6,19,21:00,23.2,,14.5,,58.0,,,M,,M,,,99.46,,27.0,,,,
2006-06-19 22:00:00,2006-06-19 22:00,2006,6,19,22:00,20.3,,13.6,,65.0,,,M,,M,,,99.5,,,,,,
2006-06-19 23:00:00,2006-06-19 23:00,2006,6,19,23:00,20.8,,14.5,,67.0,,,M,,M,,,99.5,,,,,,
2006-06-20 00:00:00,2006-06-20 00:00,2006,6,20,00:00,21.0,,15.0,,69.0,,,M,,M,,,99.5,,25.0,,,,
2006-06-20 01:00:00,2006-06-20 01:00,2006,6,20,01:00,20.5,,15.6,,73.0,,,M,,M,,,99.49,,25.0,,,,
2006-06-20 02:00:00,2006-06-20 02:00,2006,6,20,02:00,19.8,,15.4,,76.0,,,M,,M,,,99.53,,,,,,
2006-06-20 03:00:00,2006-06-20 03:00,2006,6,20,03:00,19.1,,15.3,,79.0,,,M,,M,,,99.56,,,,,,
2006-06-20 04:00:00,2006-06-20 04:00,2006,6,20,04:00,18.5,,15.3,,82.0,,,M,,M,,,99.62,,,,,,
2006-06-20 05:00:00,2006-06-20 05:00,2006,6,20,05:00,17.9,,14.8,,82.0,,,M,,M,,,99.67,,,,,,
2006-06-20 06:00:00,2006-06-20 06:00,2006,6,20,06:00,17.8,,14.4,,80.0,,,M,,M,,,99.75,,,,,,
2006-06-20 07:00:00,2006-06-20 07:00,2006,6,20,07:00,17.8,,14.6,,82.0,,,M,,M,,,99.82,,,,,,
2006-06-20 08:00:00,2006-06-20 08:00,2006,6,20,08:00,18.6,,15.0,,80.0,,,M,,M,,,99.86,,,,,,
2006-06-20 09:00:00,2006-06-20 09:00,2006,6,20,09:00,19.9,,15.6,,76.0,,,M,,M,,,99.91,,,,,,
2006-06-20 10:00:00,2006-06-20 10:00,2006,6,20,10:00,20.5,,14.3,,68.0,,,M,,M,,,99.94,,,,,,
2006-06-20 11:00:00,2006-06-20 11:00,2006,6,20,11:00,22.0,,12.3,,54.0,,,M,,M,,,99.92,,,,,,
2006-06-20 12:00:00,2006-06-20 12:00,2006,6,20,12:00,21.9,,13.3,,58.0,,,M,,M,,,99.93,,25.0,,,,
2006-06-20 13:00:00,2006-06-20 13:00,2006,6,20,13:00,21.9,,11.0,,50.0,,,M,,M,,,99.99,,,,,,
2006-06-20 14:00:00,2006-06-20 14:00,2006,6,20,14:00,22.1,,11.7,,52.0,,,M,,M,,,100.02,,,,,,
2006-06-20 15:00:00,2006-06-20 15:00,2006,6,20,15:00,22.6,,12.2,,52.0,,,M,,M,,,100.04,,25.0,,,,
2006-06-20 16:00:00,2006-06-20 16:00,2006,6,20,16:00,22.1,,11.0,,49.0,,,M,,M,,,100.05,,,,,,
2006-06-20 17:00:00,2006-06-20 17:00,2006,6,20,17:00,21.9,,10.5,,48.0,,,M,,M,,,100.1,,,,,,
2006-06-20 18:00:00,2006-06-20 18:00,2006,6,20,18:00,21.1,,10.2,,50.0,,,M,,M,,,100.12,,,,,,
2006-06-20 19:00:00,2006-06-20 19:00,2006,6,20,19:00,20.1,,9.3,,50.0,,,M,,M,,,100.13,,,,,,
2006-06-20 20:00:00,2006-06-20 20:00,2006,6,20,20:00,19.0,,6.6,,44.0,,,M,,M,,,100.2,,,,,,
2006-06-20 21:00:00,2006-06-20 21:00,2006,6,20,21:00,17.8,,7.3,,50.0,,,M,,M,,,100.26,,,,,,
2006-06-20 22:00:00,2006-06-20 22:00,2006,6,20,22:00,17.1,,7.6,,54.0,,,M,,M,,,100.23,,,,,,
2006-06-20 23:00:00,2006-06-20 23:00,2006,6,20,23:00,16.9,,8.3,,57.0,,,M,,M,,,100.23,,,,,,
2006-06-21 00:00:00,2006-06-21 00:00,2006,6,21,00:00,16.4,,8.9,,61.0,,,M,,M,,,100.26,,,,,,
2006-06-21 01:00:00,2006-06-21 01:00,2006,6,21,01:00,15.1,,9.4,,69.0,,,M,,M,,,100.33,,,,,,
2006-06-21 02:00:00,2006-06-21 02:00,2006,6,21,02:00,13.9,,9.5,,75.0,,,M,,M,,,100.39,,,,,,
2006-06-21 03:00:00,2006-06-21 03:00,2006,6,21,03:00,13.5,,9.6,,77.0,,,M,,M,,,100.4,,,,,,
2006-06-21 04:00:00,2006-06-21 04:00,2006,6,21,04:00,12.8,,9.6,,81.0,,,M,,M,,,100.39,,,,,,
2006-06-21 05:00:00,2006-06-21 05:00,2006,6,21,05:00,13.2,,9.9,,80.0,,,M,,M,,,100.44,,,,,,
2006-06-21 06:00:00,2006-06-21 06:00,2006,6,21,06:00,14.8,,10.5,,75.0,,,M,,M,,,100.43,,,,,,
2006-06-21 07:00:00,2006-06-21 07:00,2006,6,21,07:00,17.3,,11.8,,70.0,,,M,,M,,,100.47,,,,,,
2006-06-21 08:00:00,2006-06-21 08:00,2006,6,21,08:00,18.1,,10.7,,62.0,,,M,,M,,,100.39,,,,,,
2006-06-21 09:00:00,2006-06-21 09:00,2006,6,21,09:00,19.0,,10.5,,58.0,,,M,,M,,,100.31,,,,,,
2006-06-21 10:00:00,2006-06-21 10:00,2006,6,21,10:00,19.6,,10.2,,55.0,,,M,,M,,,100.35,,,,,,
2006-06-21 11:00:00,2006-06-21 11:00,2006,6,21,11:00,20.4,,11.7,,57.0,,,M,,M,,,100.42,,,,,,
2006-06-21 12:00:00,2006-06-21 12:00,2006,6,21,12:00,22.0,,12.1,,53.0,,,M,,M,,,100.39,,,,,,
2006-06-21 13:00:00,2006-06-21 13:00,2006,6,21,13:00,21.3,,12.9,,59.0,,,M,,M,,,100.39,,,,,,
2006-06-21 14:00:00,2006-06-21 14:00,2006,6,21,14:00,20.7,,12.7,,60.0,,,M,,M,,,100.32,,,,,,
2006-06-21 15:00:00,2006-06-21 15:00,2006,6,21,15:00,20.4,,14.3,,68.0,,,M,,M,,,100.14,,,,,,
2006-06-21 16:00:00,2006-06-21 16:00,2006,6,21,16:00,21.6,,15.2,,67.0,,,M,,M,,,100.14,,26.0,,,,
2006-06-21 17:00:00,2006-06-21 17:00,2006,6,21,17:00,21.6,,16.1,,71.0,,,M,,M,,,100.09,,26.0,,,,
2006-06-21 18:00:00,2006-06-21 18:00,2006,6,21,18:00,20.8,,16.3,,75.0,,,M,,M,,,99.99,,26.0,,,,
2006-06-21 19:00:00,2006-06-21 19:00,2006,6,21,19:00,20.6,,17.0,,80.0,,,M,,M,,,100.0,,26.0,,,,
2006-06-21 20:00:00,2006-06-21 20:00,2006,6,21,20:00,20.2,,17.1,,82.0,,,M,,M,,,99.97,,26.0,,,,
2006-06-21 21:00:00,2006-06-21 21:00,2006,6,21,21:00,20.8,,17.4,,81.0,,,M,,M,,,99.95,,26.0,,,,
2006-06-21 22:00:00,2006-06-21 22:00,2006,6,21,22:00,21.0,,17.5,,80.0,,,M,,M,,,99.88,,27.0,,,,
2006-06-21 23:00:00,2006-06-21 23:00,2006,6,21,23:00,21.0,,17.5,,80.0,,,M,,M,,,99.86,,27.0,,,,
2006-06-22 00:00:00,2006-06-22 00:00,2006,6,22,00:00,20.6,,17.6,,83.0,,,M,,M,,,99.78,,26.0,,,,
2006-06-22 01:00:00,2006-06-22 01:00,2006,6,22,01:00,20.3,,17.8,,86.0,,,M,,M,,,99.74,,26.0,,,,
2006-06-22 02:00:00,2006-06-22 02:00,2006,6,22,02:00,20.3,,18.6,,90.0,,,M,,M,,,99.72,,27.0,,,,
2006-06-22 03:00:00,2006-06-22 03:00,2006,6,22,03:00,19.4,,18.0,,92.0,,,M,,M,,,99.74,,,,,,
2006-06-22 04:00:00,2006-06-22 04:00,2006,6,22,04:00,19.3,,17.8,,91.0,,,M,,M,,,99.8,,,,,,
2006-06-22 05:00:00,2006-06-22 05:00,2006,6,22,05:00,19.3,,17.9,,92.0,,,M,,M,,,99.82,,,,,,
2006-06-22 06:00:00,2006-06-22 06:00,2006,6,22,06:00,19.5,,18.1,,92.0,,,M,,M,,,99.9,,,,,,
2006-06-22 07:00:00,2006-06-22 07:00,2006,6,22,07:00,20.2,,18.6,,91.0,,,M,,M,,,99.94,,27.0,,,,
2006-06-22 08:00:00,2006-06-22 08:00,2006,6,22,08:00,21.2,,18.9,,87.0,,,M,,M,,,99.91,,28.0,,,,
2006-06-22 09:00:00,2006-06-22 09:00,2006,6,22,09:00,23.3,,20.1,,82.0,,,M,,M,,,99.97,,31.0,,,,
2006-06-22 10:00:00,2006-06-22 10:00,2006,6,22,10:00,24.4,,19.8,,76.0,,,M,,M,,,99.96,,32.0,,,,
2006-06-22 11:00:00,2006-06-22 11:00,2006,6,22,11:00,25.6,,20.5,,73.0,,,M,,M,,,100.03,,34.0,,,,
2006-06-22 12:00:00,2006-06-22 12:00,2006,6,22,12:00,25.7,,20.7,,74.0,,,M,,M,,,100.03,,34.0,,,,
2006-06-22 13:00:00,2006-06-22 13:00,2006,6,22,13:00,27.9,,21.1,,67.0,,,M,,M,,,99.98,,36.0,,,,
2006-06-22 14:00:00,2006-06-22 14:00,2006,6,22,14:00,28.7,,20.2,,60.0,,,M,,M,,,99.96,,36.0,,,,
2006-06-22 15:00:00,2006-06-22 15:00,2006,6,22,15:00,31.2,,16.4,,41.0,,,M,,M,,,99.96,,36.0,,,,
2006-06-22 16:00:00,2006-06-22 16:00,2006,6,22,16:00,30.2,,16.2,,43.0,,,M,,M,,,99.89,,35.0,,,,
2006-06-22 17:00:00,2006-06-22 17:00,2006,6,22,17:00,28.8,,15.2,,44.0,,,M,,M,,,99.99,,33.0,,,,
2006-06-22 18:00:00,2006-06-22 18:00,2006,6,22,18:00,27.7,,14.3,,44.0,,,M,,M,,,99.94,,31.0,,,,
2006-06-22 19:00:00,2006-06-22 19:00,2006,6,22,19:00,27.3,,14.9,,47.0,,,M,,M,,,100.05,,31.0,,,,
2006-06-22 20:00:00,2006-06-22 20:00,2006,6,22,20:00,26.7,,14.4,,47.0,,,M,,M,,,100.09,,30.0,,,,
2006-06-22 21:00:00,2006-06-22 21:00,2006,6,22,21:00,25.9,,15.1,,51.0,,,M,,M,,,100.16,,30.0,,,,
2006-06-22 22:00:00,2006-06-22 22:00,2006,6,22,22:00,25.3,,14.8,,52.0,,,M,,M,,,100.16,,29.0,,,,
2006-06-22 23:00:00,2006-06-22 23:00,2006,6,22,23:00,24.3,,15.1,,56.0,,,M,,M,,,100.2,,28.0,,,,
2006-06-23 00:00:00,2006-06-23 00:00,2006,6,23,00:00,22.8,,15.1,,62.0,,,M,,M,,,100.22,,27.0,,,,
2006-06-23 01:00:00,2006-06-23 01:00,2006,6,23,01:00,22.2,,15.1,,64.0,,,M,,M,,,100.23,,26.0,,,,
2006-06-23 02:00:00,2006-06-23 02:00,2006,6,23,02:00,21.0,,15.4,,70.0,,,M,,M,,,100.23,,25.0,,,,
2006-06-23 03:00:00,2006-06-23 03:00,2006,6,23,03:00,20.9,,15.5,,71.0,,,M,,M,,,100.29,,25.0,,,,
2006-06-23 04:00:00,2006-06-23 04:00,2006,6,23,04:00,19.8,,14.5,,71.0,,,M,,M,,,100.29,,,,,,
2006-06-23 05:00:00,2006-06-23 05:00,2006,6,23,05:00,19.0,,14.7,,76.0,,,M,,M,,,100.36,,,,,,
2006-06-23 06:00:00,2006-06-23 06:00,2006,6,23,06:00,19.0,,14.9,,77.0,,,M,,M,,,100.37,,,,,,
2006-06-23 07:00:00,2006-06-23 07:00,2006,6,23,07:00,19.3,,15.2,,77.0,,,M,,M,,,100.47,,,,,,
2006-06-23 08:00:00,2006-06-23 08:00,2006,6,23,08:00,20.0,,15.6,,76.0,,,M,,M,,,100.5,,,,,,
2006-06-23 09:00:00,2006-06-23 09:00,2006,6,23,09:00,20.6,,16.1,,75.0,,,M,,M,,,100.5,,25.0,,,,
2006-06-23 10:00:00,2006-06-23 10:00,2006,6,23,10:00,22.8,,16.9,,69.0,,,M,,M,,,100.54,,28.0,,,,
2006-06-23 11:00:00,2006-06-23 11:00,2006,6,23,11:00,22.9,,16.4,,67.0,,,M,,M,,,100.54,,28.0,,,,
2006-06-23 12:00:00,2006-06-23 12:00,2006,6,23,12:00,22.4,,16.5,,69.0,,,M,,M,,,100.54,,27.0,,,,
2006-06-23 13:00:00,2006-06-23 13:00,2006,6,23,13:00,22.1,,16.4,,70.0,,,M,,M,,,100.52,,27.0,,,,
2006-06-23 14:00:00,2006-06-23 14:00,2006,6,23,14:00,22.1,,16.5,,71.0,,,M,,M,,,100.49,,27.0,,,,
2006-06-23 15:00:00,2006-06-23 15:00,2006,6,23,15:00,22.4,,16.2,,68.0,,,M,,M,,,100.43,,27.0,,,,
2006-06-23 16:00:00,2006-06-23 16:00,2006,6,23,16:00,21.8,,16.0,,70.0,,,M,,M,,,100.38,,26.0,,,,
2006-06-23 17:00:00,2006-06-23 17:00,2006,6,23,17:00,21.6,,16.3,,72.0,,,M,,M,,,100.37,,26.0,,,,
2006-06-23 18:00:00,2006-06-23 18:00,2006,6,23,18:00,20.3,,16.1,,77.0,,,M,,M,,,100.38,,25.0,,,,
2006-06-23 19:00:00,2006-06-23 19:00,2006,6,23,19:00,19.9,,16.1,,79.0,,,M,,M,,,100.41,,,,,,
2006-06-23 20:00:00,2006-06-23 20:00,2006,6,23,20:00,20.4,,15.6,,74.0,,,M,,M,,,100.43,,25.0,,,,
2006-06-23 21:00:00,2006-06-23 21:00,2006,6,23,21:00,20.3,,15.5,,74.0,,,M,,M,,,100.47,,25.0,,,,
2006-06-23 22:00:00,2006-06-23 22:00,2006,6,23,22:00,19.8,,15.3,,75.0,,,M,,M,,,100.47,,,,,,
2006-06-23 23:00:00,2006-06-23 23:00,2006,6,23,23:00,19.1,,12.6,,66.0,,,M,,M,,,100.49,,,,,,
2006-06-24 00:00:00,2006-06-24 00:00,2006,6,24,00:00,18.6,,11.8,,65.0,,,M,,M,,,100.48,,,,,,
2006-06-24 01:00:00,2006-06-24 01:00,2006,6,24,01:00,18.2,,11.0,,63.0,,,M,,M,,,100.48,,,,,,
2006-06-24 02:00:00,2006-06-24 02:00,2006,6,24,02:00,17.5,,10.7,,64.0,,,M,,M,,,100.45,,,,,,
2006-06-24 03:00:00,2006-06-24 03:00,2006,6,24,03:00,17.3,,10.1,,63.0,,,M,,M,,,100.43,,,,,,
2006-06-24 04:00:00,2006-06-24 04:00,2006,6,24,04:00,16.4,,9.7,,65.0,,,M,,M,,,100.44,,,,,,
2006-06-24 05:00:00,2006-06-24 05:00,2006,6,24,05:00,16.8,,10.1,,65.0,,,M,,M,,,100.49,,,,,,
2006-06-24 06:00:00,2006-06-24 06:00,2006,6,24,06:00,17.0,,10.8,,67.0,,,M,,M,,,100.57,,,,,,
2006-06-24 07:00:00,2006-06-24 07:00,2006,6,24,07:00,17.6,,12.1,,70.0,,,M,,M,,,100.61,,,,,,
2006-06-24 08:00:00,2006-06-24 08:00,2006,6,24,08:00,19.1,,13.6,,70.0,,,M,,M,,,100.63,,,,,,
2006-06-24 09:00:00,2006-06-24 09:00,2006,6,24,09:00,20.5,,14.3,,68.0,,,M,,M,,,100.65,,,,,,
2006-06-24 10:00:00,2006-06-24 10:00,2006,6,24,10:00,21.1,,14.8,,67.0,,,M,,M,,,100.65,,25.0,,,,
2006-06-24 11:00:00,2006-06-24 11:00,2006,6,24,11:00,22.4,,15.7,,66.0,,,M,,M,,,100.65,,27.0,,,,
2006-06-24 12:00:00,2006-06-24 12:00,2006,6,24,12:00,23.7,,15.7,,61.0,,,M,,M,,,100.65,,28.0,,,,
2006-06-24 13:00:00,2006-06-24 13:00,2006,6,24,13:00,23.1,,15.6,,63.0,,,M,,M,,,100.6,,27.0,,,,
2006-06-24 14:00:00,2006-06-24 14:00,2006,6,24,14:00,23.9,,15.9,,61.0,,,M,,M,,,100.58,,28.0,,,,
2006-06-24 15:00:00,2006-06-24 15:00,2006,6,24,15:00,23.8,,15.7,,60.0,,,M,,M,,,100.55,,28.0,,,,
2006-06-24 16:00:00,2006-06-24 16:00,2006,6,24,16:00,23.8,,15.3,,59.0,,,M,,M,,,100.52,,28.0,,,,
2006-06-24 17:00:00,2006-06-24 17:00,2006,6,24,17:00,22.9,,15.4,,63.0,,,M,,M,,,100.48,,27.0,,,,
2006-06-24 18:00:00,2006-06-24 18:00,2006,6,24,18:00,22.7,,15.7,,65.0,,,M,,M,,,100.45,,27.0,,,,
2006-06-24 19:00:00,2006-06-24 19:00,2006,6,24,19:00,21.9,,15.5,,67.0,,,M,,M,,,100.48,,26.0,,,,
2006-06-24 20:00:00,2006-06-24 20:00,2006,6,24,20:00,20.9,,15.6,,72.0,,,M,,M,,,100.49,,25.0,,,,
2006-06-24 21:00:00,2006-06-24 21:00,2006,6,24,21:00,20.3,,14.0,,67.0,,,M,,M,,,100.59,,,,,,
2006-06-24 22:00:00,2006-06-24 22:00,2006,6,24,22:00,20.4,,13.6,,65.0,,,M,,M,,,100.61,,,,,,
2006-06-24 23:00:00,2006-06-24 23:00,2006,6,24,23:00,20.1,,13.3,,65.0,,,M,,M,,,100.63,,,,,,
2006-06-25 00:00:00,2006-06-25 00:00,2006,6,25,00:00,19.5,,13.9,,70.0,,,M,,M,,,100.62,,,,,,
2006-06-25 01:00:00,2006-06-25 01:00,2006,6,25,01:00,19.3,,12.0,,63.0,,,M,,M,,,100.58,,,,,,
2006-06-25 02:00:00,2006-06-25 02:00,2006,6,25,02:00,19.2,,11.9,,63.0,,,M,,M,,,100.58,,,,,,
2006-06-25 03:00:00,2006-06-25 03:00,2006,6,25,03:00,18.2,,11.9,,67.0,,,M,,M,,,100.54,,,,,,
2006-06-25 04:00:00,2006-06-25 04:00,2006,6,25,04:00,18.1,,12.1,,68.0,,,M,,M,,,100.54,,,,,,
2006-06-25 05:00:00,2006-06-25 05:00,2006,6,25,05:00,17.6,,12.3,,71.0,,,M,,M,,,100.54,,,,,,
2006-06-25 06:00:00,2006-06-25 06:00,2006,6,25,06:00,17.8,,12.6,,72.0,,,M,,M,,,100.55,,,,,,
2006-06-25 07:00:00,2006-06-25 07:00,2006,6,25,07:00,19.0,,13.4,,70.0,,,M,,M,,,100.56,,,,,,
2006-06-25 08:00:00,2006-06-25 08:00,2006,6,25,08:00,21.0,,14.5,,66.0,,,M,,M,,,100.56,,25.0,,,,
2006-06-25 09:00:00,2006-06-25 09:00,2006,6,25,09:00,23.0,,14.8,,60.0,,,M,,M,,,100.54,,27.0,,,,
2006-06-25 10:00:00,2006-06-25 10:00,2006,6,25,10:00,24.0,,15.3,,58.0,,,M,,M,,,100.51,,28.0,,,,
2006-06-25 11:00:00,2006-06-25 11:00,2006,6,25,11:00,24.8,,14.1,,51.0,,,M,,M,,,100.51,,28.0,,,,
2006-06-25 12:00:00,2006-06-25 12:00,2006,6,25,12:00,25.6,,15.6,,54.0,,,M,,M,,,100.48,,30.0,,,,
2006-06-25 13:00:00,2006-06-25 13:00,2006,6,25,13:00,24.8,,14.6,,53.0,,,M,,M,,,100.46,,29.0,,,,
2006-06-25 14:00:00,2006-06-25 14:00,2006,6,25,14:00,25.0,,16.2,,58.0,,,M,,M,,,100.4,,30.0,,,,
2006-06-25 15:00:00,2006-06-25 15:00,2006,6,25,15:00,25.1,,14.6,,52.0,,,M,,M,,,100.37,,29.0,,,,
2006-06-25 16:00:00,2006-06-25 16:00,2006,6,25,16:00,24.2,,14.7,,55.0,,,M,,M,,,100.38,,28.0,,,,
2006-06-25 17:00:00,2006-06-25 17:00,2006,6,25,17:00,22.7,,17.0,,70.0,,,M,,M,,,100.38,,28.0,,,,
2006-06-25 18:00:00,2006-06-25 18:00,2006,6,25,18:00,23.0,,15.7,,63.0,,,M,,M,,,100.33,,27.0,,,,
2006-06-25 19:00:00,2006-06-25 19:00,2006,6,25,19:00,23.6,,15.4,,60.0,,,M,,M,,,100.34,,28.0,,,,
2006-06-25 20:00:00,2006-06-25 20:00,2006,6,25,20:00,22.6,,15.4,,64.0,,,M,,M,,,100.33,,27.0,,,,
2006-06-25 21:00:00,2006-06-25 21:00,2006,6,25,21:00,22.7,,14.5,,60.0,,,M,,M,,,100.34,,26.0,,,,
2006-06-25 22:00:00,2006-06-25 22:00,2006,6,25,22:00,23.1,,13.7,,55.0,,,M,,M,,,100.33,,26.0,,,,
2006-06-25 23:00:00,2006-06-25 23:00,2006,6,25,23:00,23.3,,14.4,,57.0,,,M,,M,,,100.34,,27.0,,,,
2006-06-26 00:00:00,2006-06-26 00:00,2006,6,26,00:00,22.3,,15.0,,63.0,,,M,,M,,,100.29,,26.0,,,,
2006-06-26 01:00:00,2006-06-26 01:00,2006,6,26,01:00,21.2,,16.0,,72.0,,,M,,M,,,100.23,,26.0,,,,
2006-06-26 02:00:00,2006-06-26 02:00,2006,6,26,02:00,20.4,,17.6,,84.0,,,M,,M,,,100.21,,26.0,,,,
2006-06-26 03:00:00,2006-06-26 03:00,2006,6,26,03:00,20.4,,17.7,,84.0,,,M,,M,,,100.19,,26.0,,,,
2006-06-26 04:00:00,2006-06-26 04:00,2006,6,26,04:00,20.2,,18.3,,89.0,,,M,,M,,,100.2,,26.0,,,,
2006-06-26 05:00:00,2006-06-26 05:00,2006,6,26,05:00,20.1,,18.3,,89.0,,,M,,M,,,100.22,,26.0,,,,
2006-06-26 06:00:00,2006-06-26 06:00,2006,6,26,06:00,20.2,,17.4,,84.0,,,M,,M,,,100.21,,26.0,,,,
2006-06-26 07:00:00,2006-06-26 07:00,2006,6,26,07:00,20.5,,16.4,,77.0,,,M,,M,,,100.24,,25.0,,,,
2006-06-26 08:00:00,2006-06-26 08:00,2006,6,26,08:00,19.8,,16.7,,82.0,,,M,,M,,,100.27,,,,,,
2006-06-26 09:00:00,2006-06-26 09:00,2006,6,26,09:00,21.3,,17.5,,79.0,,,M,,M,,,100.27,,27.0,,,,
2006-06-26 10:00:00,2006-06-26 10:00,2006,6,26,10:00,21.7,,18.1,,80.0,,,M,,M,,,100.27,,28.0,,,,
2006-06-26 11:00:00,2006-06-26 11:00,2006,6,26,11:00,22.7,,17.6,,73.0,,,M,,M,,,100.26,,28.0,,,,
2006-06-26 12:00:00,2006-06-26 12:00,2006,6,26,12:00,22.5,,18.0,,76.0,,,M,,M,,,100.26,,29.0,,,,
2006-06-26 13:00:00,2006-06-26 13:00,2006,6,26,13:00,22.9,,18.5,,76.0,,,M,,M,,,100.21,,29.0,,,,
2006-06-26 14:00:00,2006-06-26 14:00,2006,6,26,14:00,22.4,,18.1,,77.0,,,M,,M,,,100.18,,28.0,,,,
2006-06-26 15:00:00,2006-06-26 15:00,2006,6,26,15:00,23.1,,18.2,,74.0,,,M,,M,,,100.13,,29.0,,,,
2006-06-26 16:00:00,2006-06-26 16:00,2006,6,26,16:00,23.6,,18.5,,73.0,,,M,,M,,,100.12,,30.0,,,,
2006-06-26 17:00:00,2006-06-26 17:00,2006,6,26,17:00,22.3,,18.2,,78.0,,,M,,M,,,100.11,,28.0,,,,
2006-06-26 18:00:00,2006-06-26 18:00,2006,6,26,18:00,22.0,,18.1,,79.0,,,M,,M,,,100.1,,28.0,,,,
2006-06-26 19:00:00,2006-06-26 19:00,2006,6,26,19:00,21.3,,18.3,,83.0,,,M,,M,,,100.06,,28.0,,,,
2006-06-26 20:00:00,2006-06-26 20:00,2006,6,26,20:00,20.4,,18.6,,89.0,,,M,,M,,,100.06,,27.0,,,,
2006-06-26 21:00:00,2006-06-26 21:00,2006,6,26,21:00,20.5,,19.0,,91.0,,,M,,M,,,100.09,,27.0,,,,
2006-06-26 22:00:00,2006-06-26 22:00,2006,6,26,22:00,20.4,,19.0,,92.0,,,M,,M,,,100.05,,27.0,,,,
2006-06-26 23:00:00,2006-06-26 23:00,2006,6,26,23:00,20.5,,19.4,,93.0,,,M,,M,,,100.02,,28.0,,,,
2006-06-27 00:00:00,2006-06-27 00:00,2006,6,27,00:00,20.4,,19.6,,95.0,,,M,,M,,,99.98,,28.0,,,,
2006-06-27 01:00:00,2006-06-27 01:00,2006,6,27,01:00,19.7,,19.4,,98.0,,,M,,M,,,99.95,,,,,,
2006-06-27 02:00:00,2006-06-27 02:00,2006,6,27,02:00,19.3,,19.1,,99.0,,,M,,M,,,99.91,,,,,,
2006-06-27 03:00:00,2006-06-27 03:00,2006,6,27,03:00,19.4,,19.3,,99.0,,,M,,M,,,99.9,,,,,,
2006-06-27 04:00:00,2006-06-27 04:00,2006,6,27,04:00,19.6,,19.5,,99.0,,,M,,M,,,99.89,,,,,,
2006-06-27 05:00:00,2006-06-27 05:00,2006,6,27,05:00,19.6,,19.5,,99.0,,,M,,M,,,99.9,,,,,,
2006-06-27 06:00:00,2006-06-27 06:00,2006,6,27,06:00,19.6,,19.5,,99.0,,,M,,M,,,99.95,,,,,,
2006-06-27 07:00:00,2006-06-27 07:00,2006,6,27,07:00,19.6,,19.5,,99.0,,,M,,M,,,99.96,,,,,,
2006-06-27 08:00:00,2006-06-27 08:00,2006,6,27,08:00,19.7,,19.6,,99.0,,,M,,M,,,99.96,,,,,,
2006-06-27 09:00:00,2006-06-27 09:00,2006,6,27,09:00,20.3,,20.1,,99.0,,,M,,M,,,99.98,,28.0,,,,
2006-06-27 10:00:00,2006-06-27 10:00,2006,6,27,10:00,21.0,,20.5,,97.0,,,M,,M,,,99.99,,29.0,,,,
2006-06-27 11:00:00,2006-06-27 11:00,2006,6,27,11:00,21.6,,20.8,,95.0,,,M,,M,,,100.0,,30.0,,,,
2006-06-27 12:00:00,2006-06-27 12:00,2006,6,27,12:00,21.9,,20.8,,93.0,,,M,,M,,,99.98,,30.0,,,,
2006-06-27 13:00:00,2006-06-27 13:00,2006,6,27,13:00,21.9,,20.7,,93.0,,,M,,M,,,99.94,,30.0,,,,
2006-06-27 14:00:00,2006-06-27 14:00,2006,6,27,14:00,22.6,,21.0,,91.0,,,M,,M,,,99.93,,31.0,,,,
2006-06-27 15:00:00,2006-06-27 15:00,2006,6,27,15:00,23.2,,21.1,,88.0,,,M,,M,,,99.92,,32.0,,,,
2006-06-27 16:00:00,2006-06-27 16:00,2006,6,27,16:00,23.8,,21.2,,85.0,,,M,,M,,,99.92,,32.0,,,,
2006-06-27 17:00:00,2006-06-27 17:00,2006,6,27,17:00,23.6,,20.9,,85.0,,,M,,M,,,99.88,,32.0,,,,
2006-06-27 18:00:00,2006-06-27 18:00,2006,6,27,18:00,23.5,,20.8,,85.0,,,M,,M,,,99.93,,32.0,,,,
2006-06-27 19:00:00,2006-06-27 19:00,2006,6,27,19:00,22.0,,19.9,,88.0,,,M,,M,,,99.98,,29.0,,,,
2006-06-27 20:00:00,2006-06-27 20:00,2006,6,27,20:00,21.7,,19.1,,85.0,,,M,,M,,,99.99,,29.0,,,,
2006-06-27 21:00:00,2006-06-27 21:00,2006,6,27,21:00,21.3,,19.9,,92.0,,,M,,M,,,100.02,,29.0,,,,
2006-06-27 22:00:00,2006-06-27 22:00,2006,6,27,22:00,21.2,,20.1,,93.0,,,M,,M,,,100.04,,29.0,,,,
2006-06-27 23:00:00,2006-06-27 23:00,2006,6,27,23:00,20.9,,19.9,,94.0,,,M,,M,,,100.02,,28.0,,,,
2006-06-28 00:00:00,2006-06-28 00:00,2006,6,28,00:00,20.7,,19.9,,95.0,,,M,,M,,,100.06,,28.0,,,,
2006-06-28 01:00:00,2006-06-28 01:00,2006,6,28,01:00,20.2,,19.6,,96.0,,,M,,M,,,100.04,,27.0,,,,
2006-06-28 02:00:00,2006-06-28 02:00,2006,6,28,02:00,19.9,,19.5,,98.0,,,M,,M,,,100.02,,,,,,
2006-06-28 03:00:00,2006-06-28 03:00,2006,6,28,03:00,19.8,,19.5,,98.0,,,M,,M,,,100.02,,,,,,
2006-06-28 04:00:00,2006-06-28 04:00,2006,6,28,04:00,19.0,,18.7,,98.0,,,M,,M,,,100.02,,,,,,
2006-06-28 05:00:00,2006-06-28 05:00,2006,6,28,05:00,18.7,,18.5,,99.0,,,M,,M,,,100.06,,,,,,
2006-06-28 06:00:00,2006-06-28 06:00,2006,6,28,06:00,19.5,,19.4,,99.0,,,M,,M,,,100.07,,,,,,
2006-06-28 07:00:00,2006-06-28 07:00,2006,6,28,07:00,21.2,,19.5,,90.0,,,M,,M,,,100.1,,28.0,,,,
2006-06-28 08:00:00,2006-06-28 08:00,2006,6,28,08:00,22.7,,17.6,,73.0,,,M,,M,,,100.12,,28.0,,,,
2006-06-28 09:00:00,2006-06-28 09:00,2006,6,28,09:00,22.9,,19.0,,79.0,,,M,,M,,,100.16,,30.0,,,,
2006-06-28 10:00:00,2006-06-28 10:00,2006,6,28,10:00,23.0,,18.7,,77.0,,,M,,M,,,100.17,,30.0,,,,
2006-06-28 11:00:00,2006-06-28 11:00,2006,6,28,11:00,24.4,,19.3,,73.0,,,M,,M,,,100.17,,31.0,,,,
2006-06-28 12:00:00,2006-06-28 12:00,2006,6,28,12:00,25.4,,19.6,,70.0,,,M,,M,,,100.16,,33.0,,,,
2006-06-28 13:00:00,2006-06-28 13:00,2006,6,28,13:00,26.7,,19.2,,63.0,,,M,,M,,,100.05,,34.0,,,,
2006-06-28 14:00:00,2006-06-28 14:00,2006,6,28,14:00,25.8,,18.5,,64.0,,,M,,M,,,100.07,,32.0,,,,
2006-06-28 15:00:00,2006-06-28 15:00,2006,6,28,15:00,25.6,,18.7,,66.0,,,M,,M,,,100.04,,32.0,,,,
2006-06-28 16:00:00,2006-06-28 16:00,2006,6,28,16:00,26.0,,17.3,,59.0,,,M,,M,,,99.98,,31.0,,,,
2006-06-28 17:00:00,2006-06-28 17:00,2006,6,28,17:00,25.7,,17.7,,61.0,,,M,,M,,,100.0,,31.0,,,,
2006-06-28 18:00:00,2006-06-28 18:00,2006,6,28,18:00,25.1,,17.2,,62.0,,,M,,M,,,100.01,,31.0,,,,
2006-06-28 19:00:00,2006-06-28 19:00,2006,6,28,19:00,23.3,,17.2,,69.0,,,M,,M,,,100.06,,29.0,,,,
2006-06-28 20:00:00,2006-06-28 20:00,2006,6,28,20:00,20.4,,17.3,,82.0,,,M,,M,,,100.13,,26.0,,,,
2006-06-28 21:00:00,2006-06-28 21:00,2006,6,28,21:00,19.0,,18.1,,95.0,,,M,,M,,,100.17,,,,,,
2006-06-28 22:00:00,2006-06-28 22:00,2006,6,28,22:00,18.4,,17.9,,97.0,,,M,,M,,,100.11,,,,,,
2006-06-28 23:00:00,2006-06-28 23:00,2006,6,28,23:00,19.2,,18.7,,97.0,,,M,,M,,,100.15,,,,,,
2006-06-29 00:00:00,2006-06-29 00:00,2006,6,29,00:00,18.7,,18.4,,98.0,,,M,,M,,,100.14,,,,,,
2006-06-29 01:00:00,2006-06-29 01:00,2006,6,29,01:00,19.3,,18.7,,96.0,,,M,,M,,,100.1,,,,,,
2006-06-29 02:00:00,2006-06-29 02:00,2006,6,29,02:00,18.8,,18.3,,97.0,,,M,,M,,,100.06,,,,,,
2006-06-29 03:00:00,2006-06-29 03:00,2006,6,29,03:00,18.5,,17.8,,96.0,,,M,,M,,,100.07,,,,,,
2006-06-29 04:00:00,2006-06-29 04:00,2006,6,29,04:00,17.5,,17.0,,97.0,,,M,,M,,,100.04,,,,,,
2006-06-29 05:00:00,2006-06-29 05:00,2006,6,29,05:00,17.7,,17.4,,98.0,,,M,,M,,,100.1,,,,,,
2006-06-29 06:00:00,2006-06-29 06:00,2006,6,29,06:00,18.0,,16.9,,93.0,,,M,,M,,,100.1,,,,,,
2006-06-29 07:00:00,2006-06-29 07:00,2006,6,29,07:00,18.6,,16.5,,88.0,,,M,,M,,,100.14,,,,,,
2006-06-29 08:00:00,2006-06-29 08:00,2006,6,29,08:00,19.3,,16.3,,83.0,,,M,,M,,,100.16,,,,,,
2006-06-29 09:00:00,2006-06-29 09:00,2006,6,29,09:00,20.4,,17.2,,82.0,,,M,,M,,,100.14,,26.0,,,,
2006-06-29 10:00:00,2006-06-29 10:00,2006,6,29,10:00,21.5,,18.1,,81.0,,,M,,M,,,100.13,,28.0,,,,
2006-06-29 11:00:00,2006-06-29 11:00,2006,6,29,11:00,23.0,,17.8,,73.0,,,M,,M,,,100.08,,29.0,,,,
2006-06-29 12:00:00,2006-06-29 12:00,2006,6,29,12:00,23.5,,17.7,,70.0,,,M,,M,,,100.05,,29.0,,,,
2006-06-29 13:00:00,2006-06-29 13:00,2006,6,29,13:00,18.1,,16.7,,92.0,,,M,,M,,,100.04,,,,,,
2006-06-29 14:00:00,2006-06-29 14:00,2006,6,29,14:00,16.7,,14.6,,87.0,,,M,,M,,,100.01,,,,,,
2006-06-29 15:00:00,2006-06-29 15:00,2006,6,29,15:00,18.5,,16.2,,86.0,,,M,,M,,,100.05,,,,,,
2006-06-29 16:00:00,2006-06-29 16:00,2006,6,29,16:00,18.7,,17.0,,90.0,,,M,,M,,,100.02,,,,,,
2006-06-29 17:00:00,2006-06-29 17:00,2006,6,29,17:00,20.1,,16.0,,77.0,,,M,,M,,,100.0,,25.0,,,,
2006-06-29 18:00:00,2006-06-29 18:00,2006,6,29,18:00,20.2,,14.8,,71.0,,,M,,M,,,100.06,,,,,,
2006-06-29 19:00:00,2006-06-29 19:00,2006,6,29,19:00,18.8,,15.8,,83.0,,,M,,M,,,100.09,,,,,,
2006-06-29 20:00:00,2006-06-29 20:00,2006,6,29,20:00,18.2,,15.4,,84.0,,,M,,M,,,100.11,,,,,,
2006-06-29 21:00:00,2006-06-29 21:00,2006,6,29,21:00,17.4,,15.2,,87.0,,,M,,M,,,100.17,,,,,,
2006-06-29 22:00:00,2006-06-29 22:00,2006,6,29,22:00,17.1,,15.3,,89.0,,,M,,M,,,100.21,,,,,,
2006-06-29 23:00:00,2006-06-29 23:00,2006,6,29,23:00,16.8,,15.2,,90.0,,,M,,M,,,100.17,,,,,,
2006-06-30 00:00:00,2006-06-30 00:00,2006,6,30,00:00,16.1,,15.1,,94.0,,,M,,M,,,100.14,,,,,,
2006-06-30 01:00:00,2006-06-30 01:00,2006,6,30,01:00,16.0,,14.9,,93.0,,,M,,M,,,100.14,,,,,,
2006-06-30 02:00:00,2006-06-30 02:00,2006,6,30,02:00,16.3,,14.2,,87.0,,,M,,M,,,100.1,,,,,,
2006-06-30 03:00:00,2006-06-30 03:00,2006,6,30,03:00,16.3,,14.1,,87.0,,,M,,M,,,100.09,,,,,,
2006-06-30 04:00:00,2006-06-30 04:00,2006,6,30,04:00,16.1,,13.9,,87.0,,,M,,M,,,100.1,,,,,,
2006-06-30 05:00:00,2006-06-30 05:00,2006,6,30,05:00,15.3,,13.9,,91.0,,,M,,M,,,100.13,,,,,,
2006-06-30 06:00:00,2006-06-30 06:00,2006,6,30,06:00,16.1,,13.6,,85.0,,,M,,M,,,100.14,,,,,,
2006-06-30 07:00:00,2006-06-30 07:00,2006,6,30,07:00,17.7,,14.2,,80.0,,,M,,M,,,100.13,,,,,,
2006-06-30 08:00:00,2006-06-30 08:00,2006,6,30,08:00,20.4,,15.0,,71.0,,,M,,M,,,100.14,,,,,,
2006-06-30 09:00:00,2006-06-30 09:00,2006,6,30,09:00,21.6,,13.9,,62.0,,,M,,M,,,100.15,,25.0,,,,
2006-06-30 10:00:00,2006-06-30 10:00,2006,6,30,10:00,22.8,,12.5,,52.0,,,M,,M,,,100.11,,25.0,,,,
2006-06-30 11:00:00,2006-06-30 11:00,2006,6,30,11:00,23.8,,13.7,,53.0,,,M,,M,,,100.11,,27.0,,,,
2006-06-30 12:00:00,2006-06-30 12:00,2006,6,30,12:00,23.4,,13.4,,53.0,,,M,,M,,,100.14,,26.0,,,,
2006-06-30 13:00:00,2006-06-30 13:00,2006,6,30,13:00,22.6,,12.3,,52.0,,,M,,M,,,100.14,,25.0,,,,
2006-06-30 14:00:00,2006-06-30 14:00,2006,6,30,14:00,24.2,,13.5,,51.0,,,M,,M,,,100.08,,27.0,,,,
2006-06-30 15:00:00,2006-06-30 15:00,2006,6,30,15:00,25.7,,13.0,,45.0,,,M,,M,,,100.04,,28.0,,,,
2006-06-30 16:00:00,2006-06-30 16:00,2006,6,30,16:00,25.6,,13.2,,46.0,,,M,,M,,,100.06,,29.0,,,,
2006-06-30 17:00:00,2006-06-30 17:00,2006,6,30,17:00,25.9,,13.2,,45.0,,,M,,M,,,100.05,,29.0,,,,
2006-06-30 18:00:00,2006-06-30 18:00,2006,6,30,18:00,25.7,,12.9,,45.0,,,M,,M,,,100.04,,28.0,,,,
2006-06-30 19:00:00,2006-06-30 19:00,2006,6,30,19:00,25.2,,11.6,,43.0,,,M,,M,,,100.07,,27.0,,,,
2006-06-30 20:00:00,2006-06-30 20:00,2006,6,30,20:00,23.8,,12.9,,50.0,,,M,,M,,,100.11,,27.0,,,,
2006-06-30 21:00:00,2006-06-30 21:00,2006,6,30,21:00,21.6,,13.0,,58.0,,,M,,M,,,100.18,,,,,,
2006-06-30 22:00:00,2006-06-30 22:00,2006,6,30,22:00,20.5,,14.1,,67.0,,,M,,M,,,100.21,,,,,,
2006-06-30 23:00:00,2006-06-30 23:00,2006,6,30,23:00,20.2,,15.3,,73.0,,,M,,M,,,100.23,,,,,,
