DateTime,Date/Time,Year,Month,Day,Time,Temp (°C),Temp Flag,Dew Point Temp (°C),Dew Point Temp Flag,Rel Hum (%),Rel Hum Flag,Wind Dir (10s deg),Wind Dir Flag,Wind Spd (km/h),Wind Spd Flag,Visibility (km),Visibility Flag,Stn Press (kPa),Stn Press Flag,Hmdx,Hmdx Flag,Wind Chill,Wind Chill Flag,Weather
2017-07-01 00:00:00,2017-07-01 00:00,2017,7,1,00:00,12.5,,12.3,,99,,5.0,,3,,,,98.65,,,,,,
2017-07-01 01:00:00,2017-07-01 01:00,2017,7,1,01:00,12.3,,12.1,,99,,3.0,,3,,,,98.63,,,,,,
2017-07-01 02:00:00,2017-07-01 02:00,2017,7,1,02:00,12.2,,11.4,,95,,30.0,,4,,,,98.61,,,,,,
2017-07-01 03:00:00,2017-07-01 03:00,2017,7,1,03:00,11.6,,11.3,,99,,30.0,,3,,,,98.6,,,,,,
2017-07-01 04:00:00,2017-07-01 04:00,2017,7,1,04:00,11.6,,11.5,,99,,17.0,,4,,,,98.61,,,,,,
2017-07-01 05:00:00,2017-07-01 05:00,2017,7,1,05:00,12.3,,12.1,,99,,27.0,,3,,,,98.65,,,,,,
2017-07-01 06:00:00,2017-07-01 06:00,2017,7,1,06:00,12.4,,12.2,,99,,28.0,,5,,,,98.66,,,,,,
2017-07-01 07:00:00,2017-07-01 07:00,2017,7,1,07:00,13.2,,13.0,,99,,16.0,,3,,,,98.69,,,,,,
2017-07-01 08:00:00,2017-07-01 08:00,2017,7,1,08:00,14.2,,13.5,,96,,7.0,,2,,,,98.7,,,,,,
2017-07-01 09:00:00,2017-07-01 09:00,2017,7,1,09:00,15.4,,13.9,,91,,13.0,,1,,,,98.72,,,,,,
2017-07-01 10:00:00,2017-07-01 10:00,2017,7,1,10:00,16.1,,14.3,,89,,9.0,,7,,,,98.7,,,,,,
2017-07-01 11:00:00,2017-07-01 11:00,2017,7,1,11:00,18.3,,15.0,,81,,7.0,,7,,,,98.67,,,,,,
2017-07-01 12:00:00,2017-07-01 12:00,2017,7,1,12:00,15.9,,14.5,,92,,7.0,,7,,,,98.72,,,,,,
2017-07-01 13:00:00,2017-07-01 13:00,2017,7,1,13:00,16.8,,15.2,,90,,16.0,,10,,,,98.65,,,,,,
2017-07-01 14:00:00,2017-07-01 14:00,2017,7,1,14:00,18.6,,15.2,,81,,17.0,,6,,,,98.6,,,,,,
2017-07-01 15:00:00,2017-07-01 15:00,2017,7,1,15:00,16.3,,15.0,,92,,25.0,,12,,,,98.69,,,,,,
2017-07-01 16:00:00,2017-07-01 16:00,2017,7,1,16:00,18.9,,16.0,,83,,27.0,,10,,,,98.59,,,,,,
2017-07-01 17:00:00,2017-07-01 17:00,2017,7,1,17:00,19.1,,15.0,,77,,25.0,,8,,,,98.59,,,,,,
2017-07-01 18:00:00,2017-07-01 18:00,2017,7,1,18:00,17.6,,15.9,,89,,22.0,,11,,,,98.62,,,,,,
2017-07-01 19:00:00,2017-07-01 19:00,2017,7,1,19:00,16.7,,15.3,,91,,22.0,,7,,,,98.62,,,,,,
2017-07-01 20:00:00,2017-07-01 20:00,2017,7,1,20:00,18.2,,15.9,,87,,26.0,,9,,,,98.63,,,,,,
2017-07-01 21:00:00,2017-07-01 21:00,2017,7,1,21:00,16.1,,14.8,,92,,25.0,,7,,,,98.68,,,,,,
2017-07-01 22:00:00,2017-07-01 22:00,2017,7,1,22:00,15.4,,14.8,,96,,22.0,,7,,,,98.72,,,,,,
2017-07-01 23:00:00,2017-07-01 23:00,2017,7,1,23:00,13.4,,13.2,,98,,1.0,,4,,,,98.7,,,,,,
2017-07-02 00:00:00,2017-07-02 00:00,2017,7,2,00:00,14.1,,13.7,,98,,26.0,,3,,,,98.73,,,,,,
2017-07-02 01:00:00,2017-07-02 01:00,2017,7,2,01:00,14.0,,13.1,,94,,25.0,,6,,,,98.72,,,,,,
2017-07-02 02:00:00,2017-07-02 02:00,2017,7,2,02:00,13.9,,13.1,,95,,25.0,,8,,,,98.72,,,,,,
2017-07-02 03:00:00,2017-07-02 03:00,2017,7,2,03:00,13.7,,13.2,,97,,23.0,,8,,,,98.72,,,,,,
2017-07-02 04:00:00,2017-07-02 04:00,2017,7,2,04:00,13.2,,12.4,,95,,27.0,,9,,,,98.75,,,,,,
2017-07-02 05:00:00,2017-07-02 05:00,2017,7,2,05:00,12.1,,11.7,,97,,24.0,,9,,,,98.8,,,,,,
2017-07-02 06:00:00,2017-07-02 06:00,2017,7,2,06:00,11.6,,11.4,,98,,25.0,,10,,,,98.84,,,,,,
2017-07-02 07:00:00,2017-07-02 07:00,2017,7,2,07:00,13.9,,12.3,,90,,26.0,,11,,,,98.9,,,,,,
2017-07-02 08:00:00,2017-07-02 08:00,2017,7,2,08:00,15.5,,12.4,,81,,29.0,,13,,,,98.92,,,,,,
2017-07-02 09:00:00,2017-07-02 09:00,2017,7,2,09:00,17.4,,13.0,,75,,30.0,,14,,,,98.96,,,,,,
2017-07-02 10:00:00,2017-07-02 10:00,2017,7,2,10:00,19.0,,13.3,,70,,29.0,,11,,,,98.97,,,,,,
2017-07-02 11:00:00,2017-07-02 11:00,2017,7,2,11:00,20.5,,12.0,,58,,35.0,,17,,,,99.01,,,,,,
2017-07-02 12:00:00,2017-07-02 12:00,2017,7,2,12:00,19.7,,12.3,,63,,32.0,,16,,,,99.05,,,,,,
2017-07-02 13:00:00,2017-07-02 13:00,2017,7,2,13:00,21.4,,12.0,,55,,31.0,,19,,,,99.07,,,,,,
2017-07-02 14:00:00,2017-07-02 14:00,2017,7,2,14:00,19.5,,13.2,,67,,35.0,,19,,,,99.12,,,,,,
2017-07-02 15:00:00,2017-07-02 15:00,2017,7,2,15:00,20.8,,14.2,,66,,31.0,,15,,,,99.16,,,,,,
2017-07-02 16:00:00,2017-07-02 16:00,2017,7,2,16:00,22.9,,12.5,,52,,33.0,,16,,,,99.18,,25.0,,,,
2017-07-02 17:00:00,2017-07-02 17:00,2017,7,2,17:00,21.6,,12.1,,55,,36.0,,12,,,,99.23,,,,,,
2017-07-02 18:00:00,2017-07-02 18:00,2017,7,2,18:00,21.0,,12.7,,59,,34.0,,9,,,,99.25,,,,,,
2017-07-02 19:00:00,2017-07-02 19:00,2017,7,2,19:00,20.7,,14.1,,66,,31.0,,6,,,,99.25,,,,,,
2017-07-02 20:00:00,2017-07-02 20:00,2017,7,2,20:00,19.9,,14.4,,71,,31.0,,6,,,,99.3,,,,,,
2017-07-02 21:00:00,2017-07-02 21:00,2017,7,2,21:00,18.5,,13.3,,71,,32.0,,5,,,,99.33,,,,,,
2017-07-02 22:00:00,2017-07-02 22:00,2017,7,2,22:00,17.0,,14.2,,83,,31.0,,7,,,,99.38,,,,,,
2017-07-02 23:00:00,2017-07-02 23:00,2017,7,2,23:00,16.5,,13.0,,80,,24.0,,5,,,,99.36,,,,,,
2017-07-03 00:00:00,2017-07-03 00:00,2017,7,3,00:00,15.2,,12.8,,86,,24.0,,9,,,,99.36,,,,,,
2017-07-03 01:00:00,2017-07-03 01:00,2017,7,3,01:00,14.6,,12.4,,87,,23.0,,8,,,,99.4,,,,,,
2017-07-03 02:00:00,2017-07-03 02:00,2017,7,3,02:00,14.0,,12.2,,89,,22.0,,9,,,,99.45,,,,,,
2017-07-03 03:00:00,2017-07-03 03:00,2017,7,3,03:00,12.5,,11.4,,93,,22.0,,8,,,,99.48,,,,,,
2017-07-03 04:00:00,2017-07-03 04:00,2017,7,3,04:00,10.8,,10.3,,97,,26.0,,8,,,,99.53,,,,,,
2017-07-03 05:00:00,2017-07-03 05:00,2017,7,3,05:00,11.5,,11.2,,98,,28.0,,7,,,,99.56,,,,,,
2017-07-03 06:00:00,2017-07-03 06:00,2017,7,3,06:00,11.2,,10.5,,95,,26.0,,7,,,,99.58,,,,,,
2017-07-03 07:00:00,2017-07-03 07:00,2017,7,3,07:00,13.7,,12.6,,93,,28.0,,3,,,,99.62,,,,,,
2017-07-03 08:00:00,2017-07-03 08:00,2017,7,3,08:00,15.8,,12.7,,82,,25.0,,3,,,,99.64,,,,,,
2017-07-03 09:00:00,2017-07-03 09:00,2017,7,3,09:00,17.6,,12.2,,71,,18.0,,3,,,,99.67,,,,,,
2017-07-03 10:00:00,2017-07-03 10:00,2017,7,3,10:00,19.7,,12.1,,61,,9.0,,8,,,,99.65,,,,,,
2017-07-03 11:00:00,2017-07-03 11:00,2017,7,3,11:00,20.9,,11.4,,55,,9.0,,13,,,,99.67,,,,,,
2017-07-03 12:00:00,2017-07-03 12:00,2017,7,3,12:00,21.3,,11.9,,55,,11.0,,15,,,,99.66,,,,,,
2017-07-03 13:00:00,2017-07-03 13:00,2017,7,3,13:00,22.0,,9.7,,46,,12.0,,12,,,,99.64,,,,,,
2017-07-03 14:00:00,2017-07-03 14:00,2017,7,3,14:00,23.2,,11.3,,47,,13.0,,12,,,,99.6,,25.0,,,,
2017-07-03 15:00:00,2017-07-03 15:00,2017,7,3,15:00,23.0,,9.5,,42,,13.0,,17,,,,99.58,,,,,,
2017-07-03 16:00:00,2017-07-03 16:00,2017,7,3,16:00,23.1,,7.3,,36,,15.0,,15,,,,99.57,,,,,,
2017-07-03 17:00:00,2017-07-03 17:00,2017,7,3,17:00,23.1,,9.8,,43,,17.0,,10,,,,99.54,,,,,,
2017-07-03 18:00:00,2017-07-03 18:00,2017,7,3,18:00,22.2,,9.9,,46,,16.0,,13,,,,99.54,,,,,,
2017-07-03 19:00:00,2017-07-03 19:00,2017,7,3,19:00,21.2,,10.3,,50,,16.0,,11,,,,99.54,,,,,,
2017-07-03 20:00:00,2017-07-03 20:00,2017,7,3,20:00,20.1,,10.8,,55,,14.0,,6,,,,99.54,,,,,,
2017-07-03 21:00:00,2017-07-03 21:00,2017,7,3,21:00,18.8,,10.5,,59,,21.0,,2,,,,99.54,,,,,,
2017-07-03 22:00:00,2017-07-03 22:00,2017,7,3,22:00,15.2,,11.8,,80,,3.0,,6,,,,99.58,,,,,,
2017-07-03 23:00:00,2017-07-03 23:00,2017,7,3,23:00,14.0,,11.6,,86,,4.0,,5,,,,99.59,,,,,,
2017-07-04 00:00:00,2017-07-04 00:00,2017,7,4,00:00,12.2,,11.2,,94,,36.0,,4,,,,99.6,,,,,,
2017-07-04 01:00:00,2017-07-04 01:00,2017,7,4,01:00,10.8,,10.2,,96,,31.0,,4,,,,99.62,,,,,,
2017-07-04 02:00:00,2017-07-04 02:00,2017,7,4,02:00,10.2,,9.9,,98,,27.0,,4,,,,99.62,,,,,,
2017-07-04 03:00:00,2017-07-04 03:00,2017,7,4,03:00,8.8,,8.5,,98,,27.0,,7,,,,99.62,,,,,,
2017-07-04 04:00:00,2017-07-04 04:00,2017,7,4,04:00,8.2,,7.7,,96,,25.0,,1,,,,99.63,,,,,,
2017-07-04 05:00:00,2017-07-04 05:00,2017,7,4,05:00,7.3,,6.8,,97,,30.0,,5,,,,99.65,,,,,,
2017-07-04 06:00:00,2017-07-04 06:00,2017,7,4,06:00,9.0,,8.6,,97,,25.0,,5,,,,99.66,,,,,,
2017-07-04 07:00:00,2017-07-04 07:00,2017,7,4,07:00,11.9,,11.0,,94,,21.0,,1,,,,99.7,,,,,,
2017-07-04 08:00:00,2017-07-04 08:00,2017,7,4,08:00,14.8,,12.2,,84,,5.0,,2,,,,99.71,,,,,,
2017-07-04 09:00:00,2017-07-04 09:00,2017,7,4,09:00,17.9,,12.7,,72,,9.0,,12,,,,99.7,,,,,,
2017-07-04 10:00:00,2017-07-04 10:00,2017,7,4,10:00,18.9,,10.5,,58,,8.0,,15,,,,99.66,,,,,,
2017-07-04 11:00:00,2017-07-04 11:00,2017,7,4,11:00,19.5,,10.8,,57,,8.0,,18,,,,99.63,,,,,,
2017-07-04 12:00:00,2017-07-04 12:00,2017,7,4,12:00,20.7,,11.8,,57,,11.0,,15,,,,99.61,,,,,,
2017-07-04 13:00:00,2017-07-04 13:00,2017,7,4,13:00,21.2,,11.8,,55,,10.0,,19,,,,99.58,,,,,,
2017-07-04 14:00:00,2017-07-04 14:00,2017,7,4,14:00,21.6,,12.3,,55,,10.0,,21,,,,99.55,,,,,,
2017-07-04 15:00:00,2017-07-04 15:00,2017,7,4,15:00,20.0,,10.5,,54,,10.0,,20,,,,99.52,,,,,,
2017-07-04 16:00:00,2017-07-04 16:00,2017,7,4,16:00,20.3,,10.6,,54,,10.0,,21,,,,99.49,,,,,,
2017-07-04 17:00:00,2017-07-04 17:00,2017,7,4,17:00,20.4,,11.1,,55,,9.0,,20,,,,99.42,,,,,,
2017-07-04 18:00:00,2017-07-04 18:00,2017,7,4,18:00,18.6,,10.2,,58,,10.0,,19,,,,99.39,,,,,,
2017-07-04 19:00:00,2017-07-04 19:00,2017,7,4,19:00,18.3,,10.7,,61,,8.0,,15,,,,99.34,,,,,,
2017-07-04 20:00:00,2017-07-04 20:00,2017,7,4,20:00,16.4,,10.7,,69,,9.0,,16,,,,99.26,,,,,,
2017-07-04 21:00:00,2017-07-04 21:00,2017,7,4,21:00,15.3,,11.1,,76,,9.0,,11,,,,99.24,,,,,,
2017-07-04 22:00:00,2017-07-04 22:00,2017,7,4,22:00,14.5,,11.6,,83,,10.0,,4,,,,99.27,,,,,,
2017-07-04 23:00:00,2017-07-04 23:00,2017,7,4,23:00,14.6,,12.0,,85,,2.0,,8,,,,99.27,,,,,,
2017-07-05 00:00:00,2017-07-05 00:00,2017,7,5,00:00,14.2,,11.9,,86,,3.0,,7,,,,99.18,,,,,,
2017-07-05 01:00:00,2017-07-05 01:00,2017,7,5,01:00,15.0,,12.7,,86,,1.0,,5,,,,99.18,,,,,,
2017-07-05 02:00:00,2017-07-05 02:00,2017,7,5,02:00,15.8,,13.5,,86,,20.0,,11,,,,99.2,,,,,,
2017-07-05 03:00:00,2017-07-05 03:00,2017,7,5,03:00,17.4,,15.6,,90,,24.0,,13,,,,99.15,,,,,,
2017-07-05 04:00:00,2017-07-05 04:00,2017,7,5,04:00,18.3,,16.4,,89,,25.0,,15,,,,99.04,,,,,,
2017-07-05 05:00:00,2017-07-05 05:00,2017,7,5,05:00,18.0,,16.1,,89,,21.0,,8,,,,98.94,,,,,,
2017-07-05 06:00:00,2017-07-05 06:00,2017,7,5,06:00,17.7,,16.3,,92,,1.0,,3,,,,98.89,,,,,,
2017-07-05 07:00:00,2017-07-05 07:00,2017,7,5,07:00,18.0,,16.6,,92,,28.0,,5,,,,98.98,,,,,,
2017-07-05 08:00:00,2017-07-05 08:00,2017,7,5,08:00,19.2,,16.5,,84,,31.0,,2,,,,99.04,,,,,,
2017-07-05 09:00:00,2017-07-05 09:00,2017,7,5,09:00,20.9,,17.0,,78,,29.0,,6,,,,99.03,,26.0,,,,
2017-07-05 10:00:00,2017-07-05 10:00,2017,7,5,10:00,22.8,,18.0,,74,,29.0,,11,,,,99.04,,29.0,,,,
2017-07-05 11:00:00,2017-07-05 11:00,2017,7,5,11:00,25.0,,18.2,,66,,27.0,,20,,,,99.01,,31.0,,,,
2017-07-05 12:00:00,2017-07-05 12:00,2017,7,5,12:00,27.2,,19.7,,64,,28.0,,21,,,,98.98,,35.0,,,,
2017-07-05 13:00:00,2017-07-05 13:00,2017,7,5,13:00,27.8,,19.6,,61,,28.0,,21,,,,98.94,,35.0,,,,
2017-07-05 14:00:00,2017-07-05 14:00,2017,7,5,14:00,28.2,,19.5,,59,,30.0,,19,,,,98.9,,35.0,,,,
2017-07-05 15:00:00,2017-07-05 15:00,2017,7,5,15:00,29.1,,18.0,,51,,30.0,,16,,,,98.87,,35.0,,,,
2017-07-05 16:00:00,2017-07-05 16:00,2017,7,5,16:00,29.5,,18.6,,52,,28.0,,21,,,,98.85,,36.0,,,,
2017-07-05 17:00:00,2017-07-05 17:00,2017,7,5,17:00,29.4,,17.5,,49,,30.0,,19,,,,98.81,,35.0,,,,
2017-07-05 18:00:00,2017-07-05 18:00,2017,7,5,18:00,29.6,,15.8,,43,,30.0,,22,,,,98.79,,34.0,,,,
2017-07-05 19:00:00,2017-07-05 19:00,2017,7,5,19:00,29.0,,17.0,,48,,29.0,,12,,,,98.75,,34.0,,,,
2017-07-05 20:00:00,2017-07-05 20:00,2017,7,5,20:00,27.4,,17.4,,55,,27.0,,9,,,,98.77,,33.0,,,,
2017-07-05 21:00:00,2017-07-05 21:00,2017,7,5,21:00,24.6,,17.3,,64,,23.0,,7,,,,98.77,,30.0,,,,
2017-07-05 22:00:00,2017-07-05 22:00,2017,7,5,22:00,20.7,,17.1,,80,,32.0,,6,,,,98.79,,26.0,,,,
2017-07-05 23:00:00,2017-07-05 23:00,2017,7,5,23:00,17.7,,15.6,,88,,29.0,,5,,,,98.8,,,,,,
2017-07-06 00:00:00,2017-07-06 00:00,2017,7,6,00:00,16.7,,15.7,,94,,31.0,,5,,,,98.79,,,,,,
2017-07-06 01:00:00,2017-07-06 01:00,2017,7,6,01:00,17.5,,16.5,,94,,23.0,,8,,,,98.76,,,,,,
2017-07-06 02:00:00,2017-07-06 02:00,2017,7,6,02:00,13.7,,12.9,,95,,24.0,,6,,,,98.77,,,,,,
2017-07-06 03:00:00,2017-07-06 03:00,2017,7,6,03:00,14.9,,14.4,,97,,24.0,,9,,,,98.73,,,,,,
2017-07-06 04:00:00,2017-07-06 04:00,2017,7,6,04:00,15.1,,14.8,,98,,21.0,,8,,,,98.7,,,,,,
2017-07-06 05:00:00,2017-07-06 05:00,2017,7,6,05:00,14.5,,13.9,,97,,22.0,,7,,,,98.75,,,,,,
2017-07-06 06:00:00,2017-07-06 06:00,2017,7,6,06:00,12.4,,11.9,,97,,26.0,,8,,,,98.71,,,,,,
2017-07-06 07:00:00,2017-07-06 07:00,2017,7,6,07:00,16.0,,14.5,,91,,26.0,,8,,,,98.78,,,,,,
2017-07-06 08:00:00,2017-07-06 08:00,2017,7,6,08:00,17.5,,15.1,,86,,26.0,,3,,,,98.73,,,,,,
2017-07-06 09:00:00,2017-07-06 09:00,2017,7,6,09:00,18.1,,15.7,,86,,26.0,,7,,,,98.81,,,,,,
2017-07-06 10:00:00,2017-07-06 10:00,2017,7,6,10:00,21.0,,16.7,,76,,23.0,,9,,,,98.69,,26.0,,,,
2017-07-06 11:00:00,2017-07-06 11:00,2017,7,6,11:00,24.4,,16.6,,62,,23.0,,14,,,,98.61,,29.0,,,,
2017-07-06 12:00:00,2017-07-06 12:00,2017,7,6,12:00,26.6,,17.2,,56,,26.0,,11,,,,98.55,,32.0,,,,
2017-07-06 13:00:00,2017-07-06 13:00,2017,7,6,13:00,27.5,,17.5,,55,,28.0,,7,,,,98.45,,33.0,,,,
2017-07-06 14:00:00,2017-07-06 14:00,2017,7,6,14:00,27.0,,18.4,,59,,24.0,,8,,,,98.39,,33.0,,,,
2017-07-06 15:00:00,2017-07-06 15:00,2017,7,6,15:00,25.4,,18.5,,66,,25.0,,8,,,,98.46,,32.0,,,,
2017-07-06 16:00:00,2017-07-06 16:00,2017,7,6,16:00,24.9,,19.0,,70,,29.0,,11,,,,98.41,,32.0,,,,
2017-07-06 17:00:00,2017-07-06 17:00,2017,7,6,17:00,27.8,,19.5,,61,,30.0,,5,,,,98.35,,35.0,,,,
2017-07-06 18:00:00,2017-07-06 18:00,2017,7,6,18:00,28.0,,19.3,,59,,27.0,,15,,,,98.41,,35.0,,,,
2017-07-06 19:00:00,2017-07-06 19:00,2017,7,6,19:00,22.9,,18.1,,74,,10.0,,13,,,,98.51,,29.0,,,,
2017-07-06 20:00:00,2017-07-06 20:00,2017,7,6,20:00,21.0,,16.5,,75,,6.0,,7,,,,98.55,,26.0,,,,
2017-07-06 21:00:00,2017-07-06 21:00,2017,7,6,21:00,19.5,,15.8,,79,,36.0,,6,,,,98.59,,,,,,
2017-07-06 22:00:00,2017-07-06 22:00,2017,7,6,22:00,18.5,,16.6,,89,,21.0,,10,,,,98.68,,,,,,
2017-07-06 23:00:00,2017-07-06 23:00,2017,7,6,23:00,19.9,,15.4,,75,,36.0,,8,,,,98.78,,,,,,
2017-07-07 00:00:00,2017-07-07 00:00,2017,7,7,00:00,19.6,,12.4,,63,,2.0,,13,,,,98.86,,,,,,
2017-07-07 01:00:00,2017-07-07 01:00,2017,7,7,01:00,19.5,,12.4,,64,,8.0,,7,,,,98.9,,,,,,
2017-07-07 02:00:00,2017-07-07 02:00,2017,7,7,02:00,16.9,,12.1,,73,,32.0,,4,,,,98.95,,,,,,
2017-07-07 03:00:00,2017-07-07 03:00,2017,7,7,03:00,16.8,,12.6,,76,,33.0,,8,,,,98.99,,,,,,
2017-07-07 04:00:00,2017-07-07 04:00,2017,7,7,04:00,14.5,,11.1,,80,,33.0,,6,,,,99.02,,,,,,
2017-07-07 05:00:00,2017-07-07 05:00,2017,7,7,05:00,13.6,,11.6,,88,,31.0,,7,,,,99.07,,,,,,
2017-07-07 06:00:00,2017-07-07 06:00,2017,7,7,06:00,14.7,,12.0,,84,,22.0,,2,,,,99.12,,,,,,
2017-07-07 07:00:00,2017-07-07 07:00,2017,7,7,07:00,16.6,,12.0,,74,,7.0,,10,,,,99.16,,,,,,
2017-07-07 08:00:00,2017-07-07 08:00,2017,7,7,08:00,16.9,,11.8,,72,,3.0,,9,,,,99.18,,,,,,
2017-07-07 09:00:00,2017-07-07 09:00,2017,7,7,09:00,18.3,,12.4,,68,,7.0,,7,,,,99.24,,,,,,
2017-07-07 10:00:00,2017-07-07 10:00,2017,7,7,10:00,18.7,,12.1,,66,,11.0,,16,,,,99.27,,,,,,
2017-07-07 11:00:00,2017-07-07 11:00,2017,7,7,11:00,19.4,,11.6,,61,,10.0,,11,,,,99.26,,,,,,
2017-07-07 12:00:00,2017-07-07 12:00,2017,7,7,12:00,19.9,,10.0,,53,,9.0,,6,,,,99.25,,,,,,
2017-07-07 13:00:00,2017-07-07 13:00,2017,7,7,13:00,20.2,,9.6,,51,,15.0,,7,,,,99.22,,,,,,
2017-07-07 14:00:00,2017-07-07 14:00,2017,7,7,14:00,22.6,,11.0,,48,,23.0,,6,,,,99.17,,,,,,
2017-07-07 15:00:00,2017-07-07 15:00,2017,7,7,15:00,22.2,,6.0,,35,,3.0,,16,,,,99.14,,,,,,
2017-07-07 16:00:00,2017-07-07 16:00,2017,7,7,16:00,22.9,,7.4,,37,,32.0,,11,,,,99.11,,,,,,
2017-07-07 17:00:00,2017-07-07 17:00,2017,7,7,17:00,22.1,,7.8,,40,,11.0,,6,,,,99.1,,,,,,
2017-07-07 18:00:00,2017-07-07 18:00,2017,7,7,18:00,21.4,,7.8,,41,,12.0,,5,,,,99.06,,,,,,
2017-07-07 19:00:00,2017-07-07 19:00,2017,7,7,19:00,22.1,,9.7,,45,,25.0,,8,,,,99.05,,,,,,
2017-07-07 20:00:00,2017-07-07 20:00,2017,7,7,20:00,20.1,,11.4,,57,,21.0,,8,,,,99.04,,,,,,
2017-07-07 21:00:00,2017-07-07 21:00,2017,7,7,21:00,17.8,,11.8,,68,,23.0,,11,,,,99.04,,,,,,
2017-07-07 22:00:00,2017-07-07 22:00,2017,7,7,22:00,16.1,,11.8,,76,,25.0,,8,,,,99.05,,,,,,
2017-07-07 23:00:00,2017-07-07 23:00,2017,7,7,23:00,15.1,,12.0,,82,,25.0,,6,,,,99.03,,,,,,
2017-07-08 00:00:00,2017-07-08 00:00,2017,7,8,00:00,13.3,,11.7,,90,,24.0,,4,,,,99.02,,,,,,
2017-07-08 01:00:00,2017-07-08 01:00,2017,7,8,01:00,13.3,,11.8,,91,,24.0,,8,,,,99.02,,,,,,
2017-07-08 02:00:00,2017-07-08 02:00,2017,7,8,02:00,12.3,,11.4,,94,,24.0,,8,,,,98.99,,,,,,
2017-07-08 03:00:00,2017-07-08 03:00,2017,7,8,03:00,11.8,,10.5,,92,,26.0,,7,,,,98.96,,,,,,
2017-07-08 04:00:00,2017-07-08 04:00,2017,7,8,04:00,10.8,,10.2,,96,,25.0,,7,,,,98.95,,,,,,
2017-07-08 05:00:00,2017-07-08 05:00,2017,7,8,05:00,10.7,,9.8,,94,,24.0,,6,,,,98.94,,,,,,
2017-07-08 06:00:00,2017-07-08 06:00,2017,7,8,06:00,10.8,,10.1,,95,,28.0,,6,,,,98.92,,,,,,
2017-07-08 07:00:00,2017-07-08 07:00,2017,7,8,07:00,15.1,,11.9,,81,,22.0,,7,,,,98.93,,,,,,
2017-07-08 08:00:00,2017-07-08 08:00,2017,7,8,08:00,18.5,,12.9,,70,,27.0,,13,,,,98.92,,,,,,
2017-07-08 09:00:00,2017-07-08 09:00,2017,7,8,09:00,21.0,,14.1,,64,,29.0,,14,,,,98.9,,,,,,
2017-07-08 10:00:00,2017-07-08 10:00,2017,7,8,10:00,22.9,,13.7,,56,,29.0,,19,,,,98.87,,26.0,,,,
2017-07-08 11:00:00,2017-07-08 11:00,2017,7,8,11:00,23.9,,12.6,,49,,30.0,,24,,,,98.82,,26.0,,,,
2017-07-08 12:00:00,2017-07-08 12:00,2017,7,8,12:00,24.4,,12.5,,47,,28.0,,25,,,,98.77,,27.0,,,,
2017-07-08 13:00:00,2017-07-08 13:00,2017,7,8,13:00,24.6,,10.3,,40,,30.0,,31,,,,98.74,,26.0,,,,
2017-07-08 14:00:00,2017-07-08 14:00,2017,7,8,14:00,24.1,,9.1,,39,,30.0,,30,,,,98.7,,25.0,,,,
2017-07-08 15:00:00,2017-07-08 15:00,2017,7,8,15:00,19.6,,14.1,,71,,34.0,,22,,,,98.8,,,,,,
2017-07-08 16:00:00,2017-07-08 16:00,2017,7,8,16:00,17.9,,15.4,,85,,29.0,,11,,,,98.85,,,,,,
2017-07-08 17:00:00,2017-07-08 17:00,2017,7,8,17:00,18.9,,16.7,,87,,24.0,,10,,,,98.8,,,,,,
2017-07-08 18:00:00,2017-07-08 18:00,2017,7,8,18:00,18.7,,16.4,,86,,24.0,,12,,,,98.8,,,,,,
2017-07-08 19:00:00,2017-07-08 19:00,2017,7,8,19:00,19.4,,16.0,,81,,29.0,,10,,,,98.8,,,,,,
2017-07-08 20:00:00,2017-07-08 20:00,2017,7,8,20:00,18.3,,14.5,,79,,30.0,,12,,,,98.82,,,,,,
2017-07-08 21:00:00,2017-07-08 21:00,2017,7,8,21:00,16.3,,14.4,,89,,33.0,,8,,,,98.87,,,,,,
2017-07-08 22:00:00,2017-07-08 22:00,2017,7,8,22:00,14.1,,12.4,,89,,25.0,,5,,,,98.94,,,,,,
2017-07-08 23:00:00,2017-07-08 23:00,2017,7,8,23:00,13.2,,12.9,,98,,15.0,,1,,,,98.94,,,,,,
2017-07-09 00:00:00,2017-07-09 00:00,2017,7,9,00:00,10.7,,10.4,,98,,30.0,,5,,,,98.96,,,,,,
2017-07-09 01:00:00,2017-07-09 01:00,2017,7,9,01:00,12.5,,12.5,,100,,20.0,,3,,,,98.96,,,,,,
2017-07-09 02:00:00,2017-07-09 02:00,2017,7,9,02:00,10.3,,10.2,,99,,26.0,,5,,,,98.94,,,,,,
2017-07-09 03:00:00,2017-07-09 03:00,2017,7,9,03:00,10.5,,10.5,,100,,27.0,,4,,,,98.96,,,,,,
2017-07-09 04:00:00,2017-07-09 04:00,2017,7,9,04:00,10.3,,10.3,,100,,34.0,,2,,,,98.95,,,,,,
2017-07-09 05:00:00,2017-07-09 05:00,2017,7,9,05:00,8.6,,8.6,,100,,25.0,,3,,,,98.96,,,,,,
2017-07-09 06:00:00,2017-07-09 06:00,2017,7,9,06:00,9.9,,9.9,,100,,28.0,,7,,,,98.98,,,,,,
2017-07-09 07:00:00,2017-07-09 07:00,2017,7,9,07:00,11.8,,11.8,,100,,29.0,,4,,,,98.97,,,,,,
2017-07-09 08:00:00,2017-07-09 08:00,2017,7,9,08:00,12.9,,12.8,,100,,23.0,,3,,,,98.96,,,,,,
2017-07-09 09:00:00,2017-07-09 09:00,2017,7,9,09:00,15.1,,14.2,,94,,36.0,,2,,,,98.93,,,,,,
2017-07-09 10:00:00,2017-07-09 10:00,2017,7,9,10:00,18.1,,14.9,,81,,7.0,,6,,,,98.84,,,,,,
2017-07-09 11:00:00,2017-07-09 11:00,2017,7,9,11:00,20.2,,12.7,,62,,20.0,,7,,,,98.78,,,,,,
2017-07-09 12:00:00,2017-07-09 12:00,2017,7,9,12:00,20.2,,11.7,,58,,19.0,,10,,,,98.72,,,,,,
2017-07-09 13:00:00,2017-07-09 13:00,2017,7,9,13:00,21.2,,13.9,,63,,18.0,,14,,,,98.66,,25.0,,,,
2017-07-09 14:00:00,2017-07-09 14:00,2017,7,9,14:00,20.0,,15.1,,73,,20.0,,13,,,,98.59,,,,,,
2017-07-09 15:00:00,2017-07-09 15:00,2017,7,9,15:00,21.8,,15.9,,69,,24.0,,17,,,,98.45,,26.0,,,,
2017-07-09 16:00:00,2017-07-09 16:00,2017,7,9,16:00,22.9,,16.2,,66,,23.0,,16,,,,98.43,,28.0,,,,
2017-07-09 17:00:00,2017-07-09 17:00,2017,7,9,17:00,15.9,,15.3,,96,,6.0,,22,,,,98.54,,,,,,
2017-07-09 18:00:00,2017-07-09 18:00,2017,7,9,18:00,16.2,,15.4,,95,,6.0,,11,,,,98.56,,,,,,
2017-07-09 19:00:00,2017-07-09 19:00,2017,7,9,19:00,16.7,,15.0,,90,,4.0,,9,,,,98.58,,,,,,
2017-07-09 20:00:00,2017-07-09 20:00,2017,7,9,20:00,16.0,,14.5,,91,,6.0,,9,,,,98.62,,,,,,
2017-07-09 21:00:00,2017-07-09 21:00,2017,7,9,21:00,14.7,,13.6,,93,,8.0,,10,,,,98.67,,,,,,
2017-07-09 22:00:00,2017-07-09 22:00,2017,7,9,22:00,13.5,,12.9,,97,,3.0,,8,,,,98.7,,,,,,
2017-07-09 23:00:00,2017-07-09 23:00,2017,7,9,23:00,13.0,,12.8,,99,,9.0,,8,,,,98.71,,,,,,
2017-07-10 00:00:00,2017-07-10 00:00,2017,7,10,00:00,12.7,,12.7,,100,,4.0,,7,,,,98.66,,,,,,
2017-07-10 01:00:00,2017-07-10 01:00,2017,7,10,01:00,12.9,,12.9,,100,,31.0,,3,,,,98.64,,,,,,
2017-07-10 02:00:00,2017-07-10 02:00,2017,7,10,02:00,12.9,,12.9,,100,,27.0,,6,,,,98.67,,,,,,
2017-07-10 03:00:00,2017-07-10 03:00,2017,7,10,03:00,12.9,,12.9,,100,,28.0,,6,,,,98.68,,,,,,
2017-07-10 04:00:00,2017-07-10 04:00,2017,7,10,04:00,12.8,,12.8,,100,,27.0,,5,,,,98.65,,,,,,
2017-07-10 05:00:00,2017-07-10 05:00,2017,7,10,05:00,12.7,,12.7,,100,,29.0,,6,,,,98.65,,,,,,
2017-07-10 06:00:00,2017-07-10 06:00,2017,7,10,06:00,12.8,,12.8,,100,,0.0,,1,,,,98.65,,,,,,
2017-07-10 07:00:00,2017-07-10 07:00,2017,7,10,07:00,13.0,,13.0,,100,,26.0,,4,,,,98.65,,,,,,
2017-07-10 08:00:00,2017-07-10 08:00,2017,7,10,08:00,13.8,,13.8,,100,,21.0,,4,,,,98.67,,,,,,
2017-07-10 09:00:00,2017-07-10 09:00,2017,7,10,09:00,14.8,,14.8,,100,,28.0,,7,,,,98.67,,,,,,
2017-07-10 10:00:00,2017-07-10 10:00,2017,7,10,10:00,19.0,,17.7,,92,,21.0,,5,,,,98.63,,,,,,
2017-07-10 11:00:00,2017-07-10 11:00,2017,7,10,11:00,22.6,,17.0,,71,,20.0,,4,,,,98.62,,28.0,,,,
2017-07-10 12:00:00,2017-07-10 12:00,2017,7,10,12:00,24.8,,14.9,,54,,24.0,,8,,,,98.58,,29.0,,,,
2017-07-10 13:00:00,2017-07-10 13:00,2017,7,10,13:00,23.9,,14.8,,57,,13.0,,8,,,,98.55,,28.0,,,,
2017-07-10 14:00:00,2017-07-10 14:00,2017,7,10,14:00,25.2,,13.4,,48,,20.0,,16,,,,98.5,,28.0,,,,
2017-07-10 15:00:00,2017-07-10 15:00,2017,7,10,15:00,24.3,,13.1,,50,,21.0,,16,,,,98.47,,27.0,,,,
2017-07-10 16:00:00,2017-07-10 16:00,2017,7,10,16:00,24.7,,11.9,,45,,21.0,,17,,,,98.46,,27.0,,,,
2017-07-10 17:00:00,2017-07-10 17:00,2017,7,10,17:00,25.1,,12.5,,46,,19.0,,13,,,,98.45,,28.0,,,,
2017-07-10 18:00:00,2017-07-10 18:00,2017,7,10,18:00,26.6,,10.5,,37,,29.0,,18,,,,98.42,,28.0,,,,
2017-07-10 19:00:00,2017-07-10 19:00,2017,7,10,19:00,26.1,,11.6,,41,,27.0,,14,,,,98.43,,28.0,,,,
2017-07-10 20:00:00,2017-07-10 20:00,2017,7,10,20:00,24.2,,12.4,,48,,28.0,,11,,,,98.47,,27.0,,,,
2017-07-10 21:00:00,2017-07-10 21:00,2017,7,10,21:00,20.4,,13.1,,63,,30.0,,9,,,,98.53,,,,,,
2017-07-10 22:00:00,2017-07-10 22:00,2017,7,10,22:00,19.8,,13.6,,67,,7.0,,2,,,,98.6,,,,,,
2017-07-10 23:00:00,2017-07-10 23:00,2017,7,10,23:00,16.5,,13.0,,80,,6.0,,8,,,,98.64,,,,,,
2017-07-11 00:00:00,2017-07-11 00:00,2017,7,11,00:00,14.2,,12.2,,88,,1.0,,4,,,,98.63,,,,,,
2017-07-11 01:00:00,2017-07-11 01:00,2017,7,11,01:00,12.7,,11.9,,95,,15.0,,5,,,,98.64,,,,,,
2017-07-11 02:00:00,2017-07-11 02:00,2017,7,11,02:00,12.0,,11.7,,98,,0.0,,1,,,,98.63,,,,,,
2017-07-11 03:00:00,2017-07-11 03:00,2017,7,11,03:00,10.1,,9.7,,98,,27.0,,6,,,,98.67,,,,,,
2017-07-11 04:00:00,2017-07-11 04:00,2017,7,11,04:00,9.8,,9.5,,98,,30.0,,6,,,,98.65,,,,,,
2017-07-11 05:00:00,2017-07-11 05:00,2017,7,11,05:00,9.1,,8.9,,99,,23.0,,5,,,,98.64,,,,,,
2017-07-11 06:00:00,2017-07-11 06:00,2017,7,11,06:00,11.8,,11.7,,99,,21.0,,6,,,,98.69,,,,,,
2017-07-11 07:00:00,2017-07-11 07:00,2017,7,11,07:00,13.2,,12.3,,95,,24.0,,6,,,,98.75,,,,,,
2017-07-11 08:00:00,2017-07-11 08:00,2017,7,11,08:00,15.4,,13.5,,88,,27.0,,9,,,,98.8,,,,,,
2017-07-11 09:00:00,2017-07-11 09:00,2017,7,11,09:00,18.6,,13.1,,70,,25.0,,3,,,,98.79,,,,,,
2017-07-11 10:00:00,2017-07-11 10:00,2017,7,11,10:00,19.8,,13.3,,66,,9.0,,2,,,,98.75,,,,,,
2017-07-11 11:00:00,2017-07-11 11:00,2017,7,11,11:00,20.2,,14.1,,68,,8.0,,6,,,,98.82,,,,,,
2017-07-11 12:00:00,2017-07-11 12:00,2017,7,11,12:00,20.2,,14.2,,69,,6.0,,6,,,,98.82,,,,,,
2017-07-11 13:00:00,2017-07-11 13:00,2017,7,11,13:00,21.7,,13.2,,59,,12.0,,6,,,,98.83,,25.0,,,,
2017-07-11 14:00:00,2017-07-11 14:00,2017,7,11,14:00,21.4,,12.3,,56,,12.0,,10,,,,98.85,,,,,,
2017-07-11 15:00:00,2017-07-11 15:00,2017,7,11,15:00,20.7,,12.2,,58,,20.0,,1,,,,98.98,,,,,,
2017-07-11 16:00:00,2017-07-11 16:00,2017,7,11,16:00,18.9,,16.1,,84,,3.0,,7,,,,98.96,,,,,,
2017-07-11 17:00:00,2017-07-11 17:00,2017,7,11,17:00,18.2,,15.0,,82,,5.0,,10,,,,98.97,,,,,,
2017-07-11 18:00:00,2017-07-11 18:00,2017,7,11,18:00,17.4,,15.3,,88,,8.0,,10,,,,99.03,,,,,,
2017-07-11 19:00:00,2017-07-11 19:00,2017,7,11,19:00,16.4,,15.4,,94,,7.0,,10,,,,99.08,,,,,,
2017-07-11 20:00:00,2017-07-11 20:00,2017,7,11,20:00,16.2,,15.4,,95,,7.0,,9,,,,99.09,,,,,,
2017-07-11 21:00:00,2017-07-11 21:00,2017,7,11,21:00,16.3,,15.0,,92,,9.0,,13,,,,99.1,,,,,,
2017-07-11 22:00:00,2017-07-11 22:00,2017,7,11,22:00,16.0,,15.0,,94,,7.0,,17,,,,99.05,,,,,,
2017-07-11 23:00:00,2017-07-11 23:00,2017,7,11,23:00,15.8,,14.9,,95,,9.0,,14,,,,99.01,,,,,,
2017-07-12 00:00:00,2017-07-12 00:00,2017,7,12,00:00,15.7,,15.2,,97,,7.0,,15,,,,99.04,,,,,,
2017-07-12 01:00:00,2017-07-12 01:00,2017,7,12,01:00,15.8,,15.1,,96,,10.0,,12,,,,99.06,,,,,,
2017-07-12 02:00:00,2017-07-12 02:00,2017,7,12,02:00,15.0,,13.5,,91,,10.0,,10,,,,99.07,,,,,,
2017-07-12 03:00:00,2017-07-12 03:00,2017,7,12,03:00,14.7,,12.6,,87,,9.0,,13,,,,99.1,,,,,,
2017-07-12 04:00:00,2017-07-12 04:00,2017,7,12,04:00,14.4,,12.1,,86,,9.0,,18,,,,99.01,,,,,,
2017-07-12 05:00:00,2017-07-12 05:00,2017,7,12,05:00,14.1,,11.3,,83,,8.0,,21,,,,98.99,,,,,,
2017-07-12 06:00:00,2017-07-12 06:00,2017,7,12,06:00,14.1,,10.8,,81,,9.0,,22,,,,99.09,,,,,,
2017-07-12 07:00:00,2017-07-12 07:00,2017,7,12,07:00,13.9,,9.3,,74,,9.0,,22,,,,99.08,,,,,,
2017-07-12 08:00:00,2017-07-12 08:00,2017,7,12,08:00,13.6,,8.9,,74,,8.0,,22,,,,99.07,,,,,,
2017-07-12 09:00:00,2017-07-12 09:00,2017,7,12,09:00,12.9,,9.7,,81,,8.0,,25,,,,99.11,,,,,,
2017-07-12 10:00:00,2017-07-12 10:00,2017,7,12,10:00,13.4,,9.7,,78,,9.0,,26,,,,99.07,,,,,,
2017-07-12 11:00:00,2017-07-12 11:00,2017,7,12,11:00,13.1,,10.5,,84,,7.0,,21,,,,99.11,,,,,,
2017-07-12 12:00:00,2017-07-12 12:00,2017,7,12,12:00,13.2,,10.7,,85,,8.0,,27,,,,99.12,,,,,,
2017-07-12 13:00:00,2017-07-12 13:00,2017,7,12,13:00,12.5,,11.3,,92,,7.0,,24,,,,99.17,,,,,,
2017-07-12 14:00:00,2017-07-12 14:00,2017,7,12,14:00,12.4,,11.3,,93,,8.0,,26,,,,99.19,,,,,,
2017-07-12 15:00:00,2017-07-12 15:00,2017,7,12,15:00,12.5,,11.1,,91,,8.0,,25,,,,99.21,,,,,,
2017-07-12 16:00:00,2017-07-12 16:00,2017,7,12,16:00,12.1,,11.4,,95,,7.0,,25,,,,99.22,,,,,,
2017-07-12 17:00:00,2017-07-12 17:00,2017,7,12,17:00,11.7,,10.9,,95,,8.0,,22,,,,99.27,,,,,,
2017-07-12 18:00:00,2017-07-12 18:00,2017,7,12,18:00,11.4,,11.1,,98,,7.0,,24,,,,99.28,,,,,,
2017-07-12 19:00:00,2017-07-12 19:00,2017,7,12,19:00,11.6,,11.2,,97,,7.0,,20,,,,99.35,,,,,,
2017-07-12 20:00:00,2017-07-12 20:00,2017,7,12,20:00,11.6,,11.2,,97,,4.0,,9,,,,99.38,,,,,,
2017-07-12 21:00:00,2017-07-12 21:00,2017,7,12,21:00,11.8,,11.1,,96,,6.0,,16,,,,99.42,,,,,,
2017-07-12 22:00:00,2017-07-12 22:00,2017,7,12,22:00,11.3,,11.0,,98,,6.0,,19,,,,99.45,,,,,,
2017-07-12 23:00:00,2017-07-12 23:00,2017,7,12,23:00,11.4,,11.1,,98,,7.0,,22,,,,99.43,,,,,,
2017-07-13 00:00:00,2017-07-13 00:00,2017,7,13,00:00,11.9,,11.2,,96,,8.0,,22,,,,99.45,,,,,,
2017-07-13 01:00:00,2017-07-13 01:00,2017,7,13,01:00,12.0,,10.7,,92,,8.0,,20,,,,99.44,,,,,,
2017-07-13 02:00:00,2017-07-13 02:00,2017,7,13,02:00,12.4,,10.5,,88,,8.0,,14,,,,99.42,,,,,,
2017-07-13 03:00:00,2017-07-13 03:00,2017,7,13,03:00,11.6,,11.0,,96,,34.0,,6,,,,99.4,,,,,,
2017-07-13 04:00:00,2017-07-13 04:00,2017,7,13,04:00,11.9,,10.7,,93,,2.0,,9,,,,99.37,,,,,,
2017-07-13 05:00:00,2017-07-13 05:00,2017,7,13,05:00,12.1,,10.5,,90,,36.0,,4,,,,99.43,,,,,,
2017-07-13 06:00:00,2017-07-13 06:00,2017,7,13,06:00,14.3,,10.2,,77,,8.0,,14,,,,99.47,,,,,,
2017-07-13 07:00:00,2017-07-13 07:00,2017,7,13,07:00,13.7,,10.6,,82,,9.0,,9,,,,99.53,,,,,,
2017-07-13 08:00:00,2017-07-13 08:00,2017,7,13,08:00,12.9,,10.9,,88,,2.0,,11,,,,99.6,,,,,,
2017-07-13 09:00:00,2017-07-13 09:00,2017,7,13,09:00,12.6,,11.5,,93,,10.0,,8,,,,99.63,,,,,,
2017-07-13 10:00:00,2017-07-13 10:00,2017,7,13,10:00,12.8,,11.7,,93,,7.0,,6,,,,99.64,,,,,,
2017-07-13 11:00:00,2017-07-13 11:00,2017,7,13,11:00,13.2,,12.4,,95,,32.0,,5,,,,99.66,,,,,,
2017-07-13 12:00:00,2017-07-13 12:00,2017,7,13,12:00,13.5,,13.0,,97,,23.0,,5,,,,99.68,,,,,,
2017-07-13 13:00:00,2017-07-13 13:00,2017,7,13,13:00,13.7,,12.9,,95,,15.0,,4,,,,99.7,,,,,,
2017-07-13 14:00:00,2017-07-13 14:00,2017,7,13,14:00,13.8,,11.3,,85,,5.0,,19,,,,99.68,,,,,,
2017-07-13 15:00:00,2017-07-13 15:00,2017,7,13,15:00,16.6,,12.5,,77,,6.0,,15,,,,99.66,,,,,,
2017-07-13 16:00:00,2017-07-13 16:00,2017,7,13,16:00,18.1,,12.0,,67,,6.0,,12,,,,99.64,,,,,,
2017-07-13 17:00:00,2017-07-13 17:00,2017,7,13,17:00,18.7,,10.9,,61,,5.0,,15,,,,99.64,,,,,,
2017-07-13 18:00:00,2017-07-13 18:00,2017,7,13,18:00,19.0,,9.9,,56,,4.0,,13,,,,99.62,,,,,,
2017-07-13 19:00:00,2017-07-13 19:00,2017,7,13,19:00,18.6,,10.9,,61,,36.0,,4,,,,99.63,,,,,,
2017-07-13 20:00:00,2017-07-13 20:00,2017,7,13,20:00,17.7,,11.4,,67,,12.0,,5,,,,99.64,,,,,,
2017-07-13 21:00:00,2017-07-13 21:00,2017,7,13,21:00,16.3,,13.0,,81,,16.0,,4,,,,99.65,,,,,,
2017-07-13 22:00:00,2017-07-13 22:00,2017,7,13,22:00,14.4,,13.2,,93,,27.0,,4,,,,99.64,,,,,,
2017-07-13 23:00:00,2017-07-13 23:00,2017,7,13,23:00,14.0,,13.1,,95,,24.0,,5,,,,99.64,,,,,,
2017-07-14 00:00:00,2017-07-14 00:00,2017,7,14,00:00,11.3,,11.0,,98,,23.0,,6,,,,99.65,,,,,,
2017-07-14 01:00:00,2017-07-14 01:00,2017,7,14,01:00,10.2,,10.1,,99,,24.0,,5,,,,99.66,,,,,,
2017-07-14 02:00:00,2017-07-14 02:00,2017,7,14,02:00,11.1,,11.0,,100,,21.0,,7,,,,99.67,,,,,,
2017-07-14 03:00:00,2017-07-14 03:00,2017,7,14,03:00,10.7,,10.4,,98,,23.0,,9,,,,99.67,,,,,,
2017-07-14 04:00:00,2017-07-14 04:00,2017,7,14,04:00,10.6,,10.3,,98,,21.0,,9,,,,99.68,,,,,,
2017-07-14 05:00:00,2017-07-14 05:00,2017,7,14,05:00,10.1,,9.5,,96,,23.0,,9,,,,99.67,,,,,,
2017-07-14 06:00:00,2017-07-14 06:00,2017,7,14,06:00,10.2,,9.4,,95,,23.0,,8,,,,99.69,,,,,,
2017-07-14 07:00:00,2017-07-14 07:00,2017,7,14,07:00,11.6,,10.0,,90,,22.0,,9,,,,99.68,,,,,,
2017-07-14 08:00:00,2017-07-14 08:00,2017,7,14,08:00,13.7,,11.3,,86,,23.0,,10,,,,99.71,,,,,,
2017-07-14 09:00:00,2017-07-14 09:00,2017,7,14,09:00,16.5,,13.0,,80,,24.0,,11,,,,99.68,,,,,,
2017-07-14 10:00:00,2017-07-14 10:00,2017,7,14,10:00,19.3,,14.1,,72,,23.0,,11,,,,99.65,,,,,,
2017-07-14 11:00:00,2017-07-14 11:00,2017,7,14,11:00,22.0,,12.8,,56,,27.0,,10,,,,99.61,,25.0,,,,
2017-07-14 12:00:00,2017-07-14 12:00,2017,7,14,12:00,23.4,,11.4,,47,,27.0,,11,,,,99.55,,25.0,,,,
2017-07-14 13:00:00,2017-07-14 13:00,2017,7,14,13:00,24.7,,10.5,,41,,29.0,,9,,,,99.53,,26.0,,,,
2017-07-14 14:00:00,2017-07-14 14:00,2017,7,14,14:00,25.1,,10.2,,39,,27.0,,16,,,,99.48,,26.0,,,,
2017-07-14 15:00:00,2017-07-14 15:00,2017,7,14,15:00,26.3,,11.9,,41,,27.0,,16,,,,99.42,,29.0,,,,
2017-07-14 16:00:00,2017-07-14 16:00,2017,7,14,16:00,26.8,,10.6,,36,,26.0,,14,,,,99.37,,28.0,,,,
2017-07-14 17:00:00,2017-07-14 17:00,2017,7,14,17:00,26.6,,11.0,,37,,26.0,,14,,,,99.28,,28.0,,,,
2017-07-14 18:00:00,2017-07-14 18:00,2017,7,14,18:00,26.2,,12.0,,41,,24.0,,14,,,,99.22,,28.0,,,,
2017-07-14 19:00:00,2017-07-14 19:00,2017,7,14,19:00,25.3,,12.1,,44,,24.0,,13,,,,99.22,,28.0,,,,
2017-07-14 20:00:00,2017-07-14 20:00,2017,7,14,20:00,23.4,,12.8,,51,,24.0,,10,,,,99.22,,26.0,,,,
2017-07-14 21:00:00,2017-07-14 21:00,2017,7,14,21:00,20.3,,13.6,,65,,22.0,,8,,,,99.21,,,,,,
2017-07-14 22:00:00,2017-07-14 22:00,2017,7,14,22:00,20.1,,12.9,,63,,23.0,,10,,,,99.11,,,,,,
2017-07-14 23:00:00,2017-07-14 23:00,2017,7,14,23:00,18.7,,13.1,,70,,27.0,,14,,,,99.23,,,,,,
2017-07-15 00:00:00,2017-07-15 00:00,2017,7,15,00:00,18.1,,13.1,,73,,26.0,,8,,,,99.18,,,,,,
2017-07-15 01:00:00,2017-07-15 01:00,2017,7,15,01:00,16.7,,13.1,,79,,30.0,,6,,,,99.2,,,,,,
2017-07-15 02:00:00,2017-07-15 02:00,2017,7,15,02:00,16.9,,13.4,,80,,29.0,,4,,,,99.12,,,,,,
2017-07-15 03:00:00,2017-07-15 03:00,2017,7,15,03:00,15.9,,13.4,,85,,36.0,,3,,,,99.1,,,,,,
2017-07-15 04:00:00,2017-07-15 04:00,2017,7,15,04:00,15.5,,13.5,,88,,27.0,,3,,,,99.08,,,,,,
2017-07-15 05:00:00,2017-07-15 05:00,2017,7,15,05:00,14.8,,13.5,,92,,32.0,,5,,,,99.01,,,,,,
2017-07-15 06:00:00,2017-07-15 06:00,2017,7,15,06:00,15.7,,14.3,,92,,32.0,,2,,,,99.0,,,,,,
2017-07-15 07:00:00,2017-07-15 07:00,2017,7,15,07:00,17.2,,14.4,,84,,28.0,,2,,,,98.97,,,,,,
2017-07-15 08:00:00,2017-07-15 08:00,2017,7,15,08:00,20.2,,15.5,,74,,,,0,,,,98.94,,,,,,
2017-07-15 09:00:00,2017-07-15 09:00,2017,7,15,09:00,22.6,,16.8,,70,,29.0,,11,,,,98.9,,28.0,,,,
2017-07-15 10:00:00,2017-07-15 10:00,2017,7,15,10:00,22.8,,17.3,,71,,30.0,,16,,,,98.9,,28.0,,,,
2017-07-15 11:00:00,2017-07-15 11:00,2017,7,15,11:00,24.0,,17.8,,68,,33.0,,12,,,,98.9,,30.0,,,,
2017-07-15 12:00:00,2017-07-15 12:00,2017,7,15,12:00,23.6,,17.6,,69,,35.0,,13,,,,98.96,,29.0,,,,
2017-07-15 13:00:00,2017-07-15 13:00,2017,7,15,13:00,24.3,,18.0,,68,,32.0,,16,,,,99.0,,30.0,,,,
2017-07-15 14:00:00,2017-07-15 14:00,2017,7,15,14:00,23.8,,17.6,,68,,35.0,,18,,,,99.06,,30.0,,,,
2017-07-15 15:00:00,2017-07-15 15:00,2017,7,15,15:00,24.3,,17.6,,66,,2.0,,12,,,,99.07,,30.0,,,,
2017-07-15 16:00:00,2017-07-15 16:00,2017,7,15,16:00,25.5,,16.9,,59,,36.0,,13,,,,99.09,,31.0,,,,
2017-07-15 17:00:00,2017-07-15 17:00,2017,7,15,17:00,25.6,,15.5,,54,,2.0,,15,,,,99.07,,30.0,,,,
2017-07-15 18:00:00,2017-07-15 18:00,2017,7,15,18:00,23.9,,16.2,,62,,3.0,,21,,,,99.13,,29.0,,,,
2017-07-15 19:00:00,2017-07-15 19:00,2017,7,15,19:00,21.8,,15.6,,68,,4.0,,18,,,,99.24,,26.0,,,,
2017-07-15 20:00:00,2017-07-15 20:00,2017,7,15,20:00,19.9,,14.4,,71,,4.0,,21,,,,99.35,,,,,,
2017-07-15 21:00:00,2017-07-15 21:00,2017,7,15,21:00,17.8,,13.1,,74,,3.0,,13,,,,99.42,,,,,,
2017-07-15 22:00:00,2017-07-15 22:00,2017,7,15,22:00,15.9,,12.3,,79,,36.0,,10,,,,99.49,,,,,,
2017-07-15 23:00:00,2017-07-15 23:00,2017,7,15,23:00,14.9,,11.7,,81,,4.0,,8,,,,99.54,,,,,,
2017-07-16 00:00:00,2017-07-16 00:00,2017,7,16,00:00,13.5,,10.9,,84,,2.0,,7,,,,99.6,,,,,,
2017-07-16 01:00:00,2017-07-16 01:00,2017,7,16,01:00,12.0,,9.9,,87,,1.0,,9,,,,99.63,,,,,,
2017-07-16 02:00:00,2017-07-16 02:00,2017,7,16,02:00,10.5,,9.7,,94,,32.0,,4,,,,99.64,,,,,,
2017-07-16 03:00:00,2017-07-16 03:00,2017,7,16,03:00,8.6,,7.4,,92,,26.0,,8,,,,99.7,,,,,,
2017-07-16 04:00:00,2017-07-16 04:00,2017,7,16,04:00,9.7,,9.6,,99,,22.0,,7,,,,99.73,,,,,,
2017-07-16 05:00:00,2017-07-16 05:00,2017,7,16,05:00,7.2,,7.1,,99,,24.0,,4,,,,99.78,,,,,,
2017-07-16 06:00:00,2017-07-16 06:00,2017,7,16,06:00,8.8,,8.6,,99,,24.0,,8,,,,99.82,,,,,,
2017-07-16 07:00:00,2017-07-16 07:00,2017,7,16,07:00,11.4,,10.3,,93,,25.0,,8,,,,99.84,,,,,,
2017-07-16 08:00:00,2017-07-16 08:00,2017,7,16,08:00,13.8,,10.2,,79,,20.0,,5,,,,99.9,,,,,,
2017-07-16 09:00:00,2017-07-16 09:00,2017,7,16,09:00,15.9,,10.6,,71,,29.0,,2,,,,99.89,,,,,,
2017-07-16 10:00:00,2017-07-16 10:00,2017,7,16,10:00,18.3,,10.6,,61,,7.0,,5,,,,99.86,,,,,,
2017-07-16 11:00:00,2017-07-16 11:00,2017,7,16,11:00,18.7,,8.7,,52,,11.0,,13,,,,99.85,,,,,,
2017-07-16 12:00:00,2017-07-16 12:00,2017,7,16,12:00,18.9,,7.7,,48,,12.0,,14,,,,99.8,,,,,,
2017-07-16 13:00:00,2017-07-16 13:00,2017,7,16,13:00,19.6,,8.4,,48,,14.0,,10,,,,99.77,,,,,,
2017-07-16 14:00:00,2017-07-16 14:00,2017,7,16,14:00,19.7,,9.4,,51,,12.0,,14,,,,99.7,,,,,,
2017-07-16 15:00:00,2017-07-16 15:00,2017,7,16,15:00,20.3,,9.3,,49,,12.0,,9,,,,99.7,,,,,,
2017-07-16 16:00:00,2017-07-16 16:00,2017,7,16,16:00,19.6,,7.5,,46,,16.0,,11,,,,99.67,,,,,,
2017-07-16 17:00:00,2017-07-16 17:00,2017,7,16,17:00,19.5,,6.5,,43,,15.0,,13,,,,99.63,,,,,,
2017-07-16 18:00:00,2017-07-16 18:00,2017,7,16,18:00,19.5,,7.4,,45,,18.0,,7,,,,99.63,,,,,,
2017-07-16 19:00:00,2017-07-16 19:00,2017,7,16,19:00,18.8,,7.9,,49,,17.0,,8,,,,99.58,,,,,,
2017-07-16 20:00:00,2017-07-16 20:00,2017,7,16,20:00,17.6,,8.8,,56,,15.0,,6,,,,99.54,,,,,,
2017-07-16 21:00:00,2017-07-16 21:00,2017,7,16,21:00,15.9,,8.7,,63,,15.0,,8,,,,99.49,,,,,,
2017-07-16 22:00:00,2017-07-16 22:00,2017,7,16,22:00,9.8,,8.0,,89,,31.0,,7,,,,99.51,,,,,,
2017-07-16 23:00:00,2017-07-16 23:00,2017,7,16,23:00,9.0,,7.5,,90,,25.0,,5,,,,99.48,,,,,,
2017-07-17 00:00:00,2017-07-17 00:00,2017,7,17,00:00,9.0,,8.2,,95,,0.0,,1,,,,99.42,,,,,,
2017-07-17 01:00:00,2017-07-17 01:00,2017,7,17,01:00,8.1,,7.7,,97,,0.0,,1,,,,99.35,,,,,,
2017-07-17 02:00:00,2017-07-17 02:00,2017,7,17,02:00,6.1,,5.4,,95,,32.0,,4,,,,99.36,,,,,,
2017-07-17 03:00:00,2017-07-17 03:00,2017,7,17,03:00,6.2,,6.0,,98,,33.0,,5,,,,99.34,,,,,,
2017-07-17 04:00:00,2017-07-17 04:00,2017,7,17,04:00,6.9,,6.4,,97,,25.0,,4,,,,99.37,,,,,,
2017-07-17 05:00:00,2017-07-17 05:00,2017,7,17,05:00,5.2,,4.8,,98,,29.0,,2,,,,99.37,,,,,,
2017-07-17 06:00:00,2017-07-17 06:00,2017,7,17,06:00,5.3,,4.8,,96,,33.0,,3,,,,99.31,,,,,,
2017-07-17 07:00:00,2017-07-17 07:00,2017,7,17,07:00,10.3,,8.5,,89,,,,0,,,,99.3,,,,,,
2017-07-17 08:00:00,2017-07-17 08:00,2017,7,17,08:00,13.5,,9.7,,77,,20.0,,1,,,,99.33,,,,,,
2017-07-17 09:00:00,2017-07-17 09:00,2017,7,17,09:00,16.2,,10.1,,67,,16.0,,5,,,,99.24,,,,,,
2017-07-17 10:00:00,2017-07-17 10:00,2017,7,17,10:00,17.9,,11.0,,64,,16.0,,8,,,,99.13,,,,,,
2017-07-17 11:00:00,2017-07-17 11:00,2017,7,17,11:00,18.9,,11.6,,62,,13.0,,11,,,,99.02,,,,,,
2017-07-17 12:00:00,2017-07-17 12:00,2017,7,17,12:00,19.1,,12.5,,66,,16.0,,15,,,,98.97,,,,,,
2017-07-17 13:00:00,2017-07-17 13:00,2017,7,17,13:00,20.4,,13.6,,65,,19.0,,13,,,,98.91,,,,,,
2017-07-17 14:00:00,2017-07-17 14:00,2017,7,17,14:00,21.1,,14.5,,66,,16.0,,10,,,,98.9,,25.0,,,,
2017-07-17 15:00:00,2017-07-17 15:00,2017,7,17,15:00,21.8,,14.5,,63,,21.0,,16,,,,99.0,,25.0,,,,
2017-07-17 16:00:00,2017-07-17 16:00,2017,7,17,16:00,21.0,,15.7,,72,,20.0,,13,,,,99.04,,25.0,,,,
2017-07-17 17:00:00,2017-07-17 17:00,2017,7,17,17:00,19.2,,17.2,,88,,13.0,,7,,,,98.86,,,,,,
2017-07-17 18:00:00,2017-07-17 18:00,2017,7,17,18:00,18.3,,16.5,,90,,3.0,,8,,,,98.92,,,,,,
2017-07-17 19:00:00,2017-07-17 19:00,2017,7,17,19:00,16.2,,14.5,,90,,7.0,,10,,,,98.79,,,,,,
2017-07-17 20:00:00,2017-07-17 20:00,2017,7,17,20:00,16.0,,14.4,,90,,7.0,,8,,,,98.75,,,,,,
2017-07-17 21:00:00,2017-07-17 21:00,2017,7,17,21:00,16.0,,13.8,,87,,8.0,,7,,,,98.77,,,,,,
2017-07-17 22:00:00,2017-07-17 22:00,2017,7,17,22:00,15.4,,14.5,,94,,7.0,,4,,,,98.77,,,,,,
2017-07-17 23:00:00,2017-07-17 23:00,2017,7,17,23:00,15.6,,14.1,,91,,9.0,,7,,,,98.77,,,,,,
2017-07-18 00:00:00,2017-07-18 00:00,2017,7,18,00:00,15.3,,13.8,,90,,7.0,,11,,,,98.71,,,,,,
2017-07-18 01:00:00,2017-07-18 01:00,2017,7,18,01:00,14.8,,13.4,,91,,3.0,,3,,,,98.75,,,,,,
2017-07-18 02:00:00,2017-07-18 02:00,2017,7,18,02:00,13.5,,12.4,,93,,4.0,,1,,,,98.75,,,,,,
2017-07-18 03:00:00,2017-07-18 03:00,2017,7,18,03:00,13.2,,12.9,,98,,23.0,,1,,,,98.7,,,,,,
2017-07-18 04:00:00,2017-07-18 04:00,2017,7,18,04:00,12.2,,11.9,,98,,34.0,,3,,,,98.68,,,,,,
2017-07-18 05:00:00,2017-07-18 05:00,2017,7,18,05:00,11.6,,11.3,,98,,27.0,,3,,,,98.75,,,,,,
2017-07-18 06:00:00,2017-07-18 06:00,2017,7,18,06:00,13.0,,12.8,,99,,36.0,,3,,,,98.76,,,,,,
2017-07-18 07:00:00,2017-07-18 07:00,2017,7,18,07:00,14.9,,13.7,,93,,33.0,,3,,,,98.85,,,,,,
2017-07-18 08:00:00,2017-07-18 08:00,2017,7,18,08:00,14.9,,14.5,,97,,11.0,,6,,,,98.77,,,,,,
2017-07-18 09:00:00,2017-07-18 09:00,2017,7,18,09:00,16.9,,16.1,,95,,26.0,,12,,,,98.86,,,,,,
2017-07-18 10:00:00,2017-07-18 10:00,2017,7,18,10:00,21.3,,17.7,,80,,25.0,,7,,,,98.86,,27.0,,,,
2017-07-18 11:00:00,2017-07-18 11:00,2017,7,18,11:00,23.7,,18.0,,70,,28.0,,11,,,,98.85,,30.0,,,,
2017-07-18 12:00:00,2017-07-18 12:00,2017,7,18,12:00,24.7,,16.8,,61,,29.0,,12,,,,98.81,,30.0,,,,
2017-07-18 13:00:00,2017-07-18 13:00,2017,7,18,13:00,25.8,,14.0,,48,,30.0,,13,,,,98.83,,29.0,,,,
2017-07-18 14:00:00,2017-07-18 14:00,2017,7,18,14:00,24.4,,13.8,,52,,29.0,,12,,,,98.92,,28.0,,,,
2017-07-18 15:00:00,2017-07-18 15:00,2017,7,18,15:00,25.0,,13.2,,48,,24.0,,10,,,,98.97,,28.0,,,,
2017-07-18 16:00:00,2017-07-18 16:00,2017,7,18,16:00,24.1,,14.7,,56,,25.0,,6,,,,98.87,,28.0,,,,
2017-07-18 17:00:00,2017-07-18 17:00,2017,7,18,17:00,24.2,,15.6,,59,,29.0,,14,,,,98.9,,29.0,,,,
2017-07-18 18:00:00,2017-07-18 18:00,2017,7,18,18:00,25.2,,12.3,,45,,30.0,,19,,,,98.96,,28.0,,,,
2017-07-18 19:00:00,2017-07-18 19:00,2017,7,18,19:00,24.4,,12.4,,47,,30.0,,16,,,,99.01,,27.0,,,,
2017-07-18 20:00:00,2017-07-18 20:00,2017,7,18,20:00,21.7,,11.6,,52,,29.0,,11,,,,99.05,,,,,,
2017-07-18 21:00:00,2017-07-18 21:00,2017,7,18,21:00,19.7,,11.8,,60,,24.0,,10,,,,99.1,,,,,,
2017-07-18 22:00:00,2017-07-18 22:00,2017,7,18,22:00,16.1,,11.2,,73,,25.0,,10,,,,99.17,,,,,,
2017-07-18 23:00:00,2017-07-18 23:00,2017,7,18,23:00,15.7,,12.4,,81,,26.0,,7,,,,99.2,,,,,,
2017-07-19 00:00:00,2017-07-19 00:00,2017,7,19,00:00,14.7,,12.6,,88,,22.0,,5,,,,99.22,,,,,,
2017-07-19 01:00:00,2017-07-19 01:00,2017,7,19,01:00,12.1,,11.0,,93,,24.0,,4,,,,99.23,,,,,,
2017-07-19 02:00:00,2017-07-19 02:00,2017,7,19,02:00,11.6,,11.0,,96,,26.0,,6,,,,99.23,,,,,,
2017-07-19 03:00:00,2017-07-19 03:00,2017,7,19,03:00,11.1,,9.7,,91,,24.0,,5,,,,99.26,,,,,,
2017-07-19 04:00:00,2017-07-19 04:00,2017,7,19,04:00,12.7,,12.4,,98,,24.0,,7,,,,99.27,,,,,,
2017-07-19 05:00:00,2017-07-19 05:00,2017,7,19,05:00,10.2,,8.7,,91,,24.0,,6,,,,99.32,,,,,,
2017-07-19 06:00:00,2017-07-19 06:00,2017,7,19,06:00,12.1,,10.8,,92,,25.0,,6,,,,99.36,,,,,,
2017-07-19 07:00:00,2017-07-19 07:00,2017,7,19,07:00,15.2,,13.0,,87,,28.0,,10,,,,99.39,,,,,,
2017-07-19 08:00:00,2017-07-19 08:00,2017,7,19,08:00,18.0,,14.1,,78,,29.0,,12,,,,99.4,,,,,,
2017-07-19 09:00:00,2017-07-19 09:00,2017,7,19,09:00,20.2,,14.7,,71,,26.0,,13,,,,99.4,,,,,,
2017-07-19 10:00:00,2017-07-19 10:00,2017,7,19,10:00,22.5,,14.7,,61,,28.0,,14,,,,99.36,,26.0,,,,
2017-07-19 11:00:00,2017-07-19 11:00,2017,7,19,11:00,23.4,,13.6,,54,,30.0,,17,,,,99.32,,27.0,,,,
2017-07-19 12:00:00,2017-07-19 12:00,2017,7,19,12:00,24.1,,11.6,,46,,26.0,,18,,,,99.34,,26.0,,,,
2017-07-19 13:00:00,2017-07-19 13:00,2017,7,19,13:00,24.7,,12.4,,46,,29.0,,17,,,,99.33,,27.0,,,,
2017-07-19 14:00:00,2017-07-19 14:00,2017,7,19,14:00,24.5,,11.7,,45,,26.0,,18,,,,99.32,,27.0,,,,
2017-07-19 15:00:00,2017-07-19 15:00,2017,7,19,15:00,24.2,,13.0,,49,,28.0,,14,,,,99.26,,27.0,,,,
2017-07-19 16:00:00,2017-07-19 16:00,2017,7,19,16:00,23.5,,15.1,,59,,25.0,,9,,,,99.26,,28.0,,,,
2017-07-19 17:00:00,2017-07-19 17:00,2017,7,19,17:00,22.9,,15.8,,64,,24.0,,6,,,,99.18,,27.0,,,,
2017-07-19 18:00:00,2017-07-19 18:00,2017,7,19,18:00,23.4,,15.8,,62,,22.0,,5,,,,99.07,,28.0,,,,
2017-07-19 19:00:00,2017-07-19 19:00,2017,7,19,19:00,22.9,,16.0,,65,,19.0,,3,,,,99.01,,28.0,,,,
2017-07-19 20:00:00,2017-07-19 20:00,2017,7,19,20:00,21.0,,16.6,,76,,15.0,,5,,,,98.98,,26.0,,,,
2017-07-19 21:00:00,2017-07-19 21:00,2017,7,19,21:00,20.7,,14.4,,68,,25.0,,9,,,,99.0,,,,,,
2017-07-19 22:00:00,2017-07-19 22:00,2017,7,19,22:00,19.4,,14.9,,75,,15.0,,7,,,,98.95,,,,,,
2017-07-19 23:00:00,2017-07-19 23:00,2017,7,19,23:00,18.1,,14.8,,81,,15.0,,8,,,,98.91,,,,,,
2017-07-20 00:00:00,2017-07-20 00:00,2017,7,20,00:00,16.6,,14.2,,86,,4.0,,9,,,,98.88,,,,,,
2017-07-20 01:00:00,2017-07-20 01:00,2017,7,20,01:00,15.5,,13.8,,89,,28.0,,3,,,,98.87,,,,,,
2017-07-20 02:00:00,2017-07-20 02:00,2017,7,20,02:00,13.7,,13.2,,97,,36.0,,3,,,,98.81,,,,,,
2017-07-20 03:00:00,2017-07-20 03:00,2017,7,20,03:00,14.8,,14.1,,96,,19.0,,4,,,,98.78,,,,,,
2017-07-20 04:00:00,2017-07-20 04:00,2017,7,20,04:00,13.9,,13.6,,98,,27.0,,4,,,,98.74,,,,,,
2017-07-20 05:00:00,2017-07-20 05:00,2017,7,20,05:00,13.7,,13.0,,95,,26.0,,5,,,,98.73,,,,,,
2017-07-20 06:00:00,2017-07-20 06:00,2017,7,20,06:00,12.9,,12.3,,97,,26.0,,6,,,,98.77,,,,,,
2017-07-20 07:00:00,2017-07-20 07:00,2017,7,20,07:00,16.0,,14.7,,92,,26.0,,4,,,,98.8,,,,,,
2017-07-20 08:00:00,2017-07-20 08:00,2017,7,20,08:00,18.6,,15.3,,81,,24.0,,8,,,,98.84,,,,,,
2017-07-20 09:00:00,2017-07-20 09:00,2017,7,20,09:00,22.0,,17.2,,74,,28.0,,12,,,,98.82,,27.0,,,,
2017-07-20 10:00:00,2017-07-20 10:00,2017,7,20,10:00,24.1,,18.1,,69,,29.0,,13,,,,98.82,,30.0,,,,
2017-07-20 11:00:00,2017-07-20 11:00,2017,7,20,11:00,25.1,,16.5,,59,,30.0,,23,,,,98.87,,30.0,,,,
2017-07-20 12:00:00,2017-07-20 12:00,2017,7,20,12:00,25.8,,13.9,,48,,31.0,,22,,,,98.89,,29.0,,,,
2017-07-20 13:00:00,2017-07-20 13:00,2017,7,20,13:00,26.2,,13.7,,46,,32.0,,25,,,,98.9,,29.0,,,,
2017-07-20 14:00:00,2017-07-20 14:00,2017,7,20,14:00,26.5,,13.3,,44,,30.0,,22,,,,98.91,,29.0,,,,
2017-07-20 15:00:00,2017-07-20 15:00,2017,7,20,15:00,26.7,,13.4,,44,,30.0,,18,,,,98.91,,30.0,,,,
2017-07-20 16:00:00,2017-07-20 16:00,2017,7,20,16:00,26.7,,13.5,,44,,29.0,,19,,,,98.9,,30.0,,,,
2017-07-20 17:00:00,2017-07-20 17:00,2017,7,20,17:00,26.3,,12.9,,43,,30.0,,19,,,,98.86,,29.0,,,,
2017-07-20 18:00:00,2017-07-20 18:00,2017,7,20,18:00,25.7,,11.8,,42,,30.0,,14,,,,98.87,,28.0,,,,
2017-07-20 19:00:00,2017-07-20 19:00,2017,7,20,19:00,24.5,,12.2,,46,,30.0,,9,,,,98.86,,27.0,,,,
2017-07-20 20:00:00,2017-07-20 20:00,2017,7,20,20:00,22.0,,13.3,,58,,28.0,,9,,,,98.89,,25.0,,,,
2017-07-20 21:00:00,2017-07-20 21:00,2017,7,20,21:00,19.2,,13.8,,71,,22.0,,5,,,,98.92,,,,,,
2017-07-20 22:00:00,2017-07-20 22:00,2017,7,20,22:00,16.1,,13.7,,86,,23.0,,7,,,,98.96,,,,,,
2017-07-20 23:00:00,2017-07-20 23:00,2017,7,20,23:00,14.5,,12.0,,85,,27.0,,3,,,,98.96,,,,,,
2017-07-21 00:00:00,2017-07-21 00:00,2017,7,21,00:00,12.8,,11.9,,94,,23.0,,8,,,,99.0,,,,,,
2017-07-21 01:00:00,2017-07-21 01:00,2017,7,21,01:00,13.7,,13.1,,96,,24.0,,7,,,,98.96,,,,,,
2017-07-21 02:00:00,2017-07-21 02:00,2017,7,21,02:00,11.9,,10.8,,93,,27.0,,5,,,,98.97,,,,,,
2017-07-21 03:00:00,2017-07-21 03:00,2017,7,21,03:00,13.2,,12.1,,93,,23.0,,8,,,,99.01,,,,,,
2017-07-21 04:00:00,2017-07-21 04:00,2017,7,21,04:00,13.1,,11.9,,93,,22.0,,10,,,,99.02,,,,,,
2017-07-21 05:00:00,2017-07-21 05:00,2017,7,21,05:00,12.9,,12.1,,95,,22.0,,7,,,,99.04,,,,,,
2017-07-21 06:00:00,2017-07-21 06:00,2017,7,21,06:00,12.6,,11.5,,93,,22.0,,7,,,,99.03,,,,,,
2017-07-21 07:00:00,2017-07-21 07:00,2017,7,21,07:00,14.5,,12.5,,88,,22.0,,8,,,,99.03,,,,,,
2017-07-21 08:00:00,2017-07-21 08:00,2017,7,21,08:00,16.7,,13.2,,80,,23.0,,10,,,,99.04,,,,,,
2017-07-21 09:00:00,2017-07-21 09:00,2017,7,21,09:00,18.9,,13.4,,70,,23.0,,7,,,,99.01,,,,,,
2017-07-21 10:00:00,2017-07-21 10:00,2017,7,21,10:00,20.8,,13.9,,65,,23.0,,4,,,,99.02,,,,,,
2017-07-21 11:00:00,2017-07-21 11:00,2017,7,21,11:00,21.8,,14.3,,63,,27.0,,9,,,,99.07,,25.0,,,,
2017-07-21 12:00:00,2017-07-21 12:00,2017,7,21,12:00,22.7,,14.2,,59,,29.0,,3,,,,99.1,,26.0,,,,
2017-07-21 13:00:00,2017-07-21 13:00,2017,7,21,13:00,22.8,,15.3,,63,,23.0,,3,,,,99.12,,27.0,,,,
2017-07-21 14:00:00,2017-07-21 14:00,2017,7,21,14:00,22.3,,17.1,,73,,23.0,,7,,,,99.05,,28.0,,,,
2017-07-21 15:00:00,2017-07-21 15:00,2017,7,21,15:00,20.8,,16.9,,79,,34.0,,8,,,,99.02,,26.0,,,,
2017-07-21 16:00:00,2017-07-21 16:00,2017,7,21,16:00,21.0,,16.7,,77,,32.0,,3,,,,98.93,,26.0,,,,
2017-07-21 17:00:00,2017-07-21 17:00,2017,7,21,17:00,22.9,,12.9,,53,,3.0,,7,,,,98.88,,26.0,,,,
2017-07-21 18:00:00,2017-07-21 18:00,2017,7,21,18:00,23.9,,14.5,,56,,26.0,,1,,,,98.85,,28.0,,,,
2017-07-21 19:00:00,2017-07-21 19:00,2017,7,21,19:00,22.6,,15.1,,63,,0.0,,1,,,,98.81,,27.0,,,,
2017-07-21 20:00:00,2017-07-21 20:00,2017,7,21,20:00,20.8,,16.3,,75,,0.0,,1,,,,98.8,,26.0,,,,
2017-07-21 21:00:00,2017-07-21 21:00,2017,7,21,21:00,19.2,,15.2,,78,,6.0,,9,,,,98.77,,,,,,
2017-07-21 22:00:00,2017-07-21 22:00,2017,7,21,22:00,17.4,,15.1,,86,,33.0,,3,,,,98.82,,,,,,
2017-07-21 23:00:00,2017-07-21 23:00,2017,7,21,23:00,18.1,,15.7,,86,,8.0,,8,,,,98.76,,,,,,
2017-07-22 00:00:00,2017-07-22 00:00,2017,7,22,00:00,17.7,,14.7,,83,,10.0,,12,,,,98.73,,,,,,
2017-07-22 01:00:00,2017-07-22 01:00,2017,7,22,01:00,17.4,,13.3,,77,,5.0,,11,,,,98.71,,,,,,
2017-07-22 02:00:00,2017-07-22 02:00,2017,7,22,02:00,17.2,,14.3,,83,,5.0,,12,,,,98.73,,,,,,
2017-07-22 03:00:00,2017-07-22 03:00,2017,7,22,03:00,16.9,,12.8,,77,,9.0,,10,,,,98.66,,,,,,
2017-07-22 04:00:00,2017-07-22 04:00,2017,7,22,04:00,17.1,,12.3,,73,,8.0,,12,,,,98.76,,,,,,
2017-07-22 05:00:00,2017-07-22 05:00,2017,7,22,05:00,15.9,,12.8,,82,,8.0,,11,,,,98.75,,,,,,
2017-07-22 06:00:00,2017-07-22 06:00,2017,7,22,06:00,16.2,,13.1,,82,,9.0,,13,,,,98.74,,,,,,
2017-07-22 07:00:00,2017-07-22 07:00,2017,7,22,07:00,16.3,,13.2,,82,,9.0,,22,,,,98.71,,,,,,
2017-07-22 08:00:00,2017-07-22 08:00,2017,7,22,08:00,16.4,,12.9,,80,,8.0,,18,,,,98.78,,,,,,
2017-07-22 09:00:00,2017-07-22 09:00,2017,7,22,09:00,16.6,,13.2,,81,,8.0,,23,,,,98.79,,,,,,
2017-07-22 10:00:00,2017-07-22 10:00,2017,7,22,10:00,16.6,,12.7,,78,,8.0,,22,,,,98.8,,,,,,
2017-07-22 11:00:00,2017-07-22 11:00,2017,7,22,11:00,17.4,,13.0,,75,,7.0,,23,,,,98.79,,,,,,
2017-07-22 12:00:00,2017-07-22 12:00,2017,7,22,12:00,17.4,,12.7,,74,,7.0,,23,,,,98.8,,,,,,
2017-07-22 13:00:00,2017-07-22 13:00,2017,7,22,13:00,18.7,,12.9,,69,,8.0,,25,,,,98.74,,,,,,
2017-07-22 14:00:00,2017-07-22 14:00,2017,7,22,14:00,19.3,,12.8,,66,,10.0,,24,,,,98.74,,,,,,
2017-07-22 15:00:00,2017-07-22 15:00,2017,7,22,15:00,18.3,,13.2,,72,,12.0,,16,,,,98.77,,,,,,
2017-07-22 16:00:00,2017-07-22 16:00,2017,7,22,16:00,16.8,,13.1,,78,,12.0,,19,,,,98.73,,,,,,
2017-07-22 17:00:00,2017-07-22 17:00,2017,7,22,17:00,16.6,,13.3,,81,,12.0,,14,,,,98.73,,,,,,
2017-07-22 18:00:00,2017-07-22 18:00,2017,7,22,18:00,15.5,,12.4,,82,,11.0,,12,,,,98.69,,,,,,
2017-07-22 19:00:00,2017-07-22 19:00,2017,7,22,19:00,14.7,,13.5,,93,,1.0,,11,,,,98.78,,,,,,
2017-07-22 20:00:00,2017-07-22 20:00,2017,7,22,20:00,15.1,,14.5,,96,,8.0,,14,,,,98.76,,,,,,
2017-07-22 21:00:00,2017-07-22 21:00,2017,7,22,21:00,14.9,,14.2,,96,,8.0,,18,,,,98.73,,,,,,
2017-07-22 22:00:00,2017-07-22 22:00,2017,7,22,22:00,14.8,,14.2,,96,,8.0,,17,,,,98.65,,,,,,
2017-07-22 23:00:00,2017-07-22 23:00,2017,7,22,23:00,15.2,,14.3,,94,,7.0,,7,,,,98.69,,,,,,
2017-07-23 00:00:00,2017-07-23 00:00,2017,7,23,00:00,15.3,,14.3,,94,,7.0,,12,,,,98.71,,,,,,
2017-07-23 01:00:00,2017-07-23 01:00,2017,7,23,01:00,15.5,,14.4,,94,,7.0,,8,,,,98.7,,,,,,
2017-07-23 02:00:00,2017-07-23 02:00,2017,7,23,02:00,15.6,,14.6,,94,,7.0,,10,,,,98.66,,,,,,
2017-07-23 03:00:00,2017-07-23 03:00,2017,7,23,03:00,15.7,,14.7,,94,,8.0,,10,,,,98.65,,,,,,
2017-07-23 04:00:00,2017-07-23 04:00,2017,7,23,04:00,15.7,,14.8,,94,,2.0,,6,,,,98.68,,,,,,
2017-07-23 05:00:00,2017-07-23 05:00,2017,7,23,05:00,15.5,,14.7,,95,,36.0,,8,,,,98.73,,,,,,
2017-07-23 06:00:00,2017-07-23 06:00,2017,7,23,06:00,15.9,,14.9,,94,,5.0,,9,,,,98.75,,,,,,
2017-07-23 07:00:00,2017-07-23 07:00,2017,7,23,07:00,15.9,,15.2,,96,,31.0,,2,,,,98.78,,,,,,
2017-07-23 08:00:00,2017-07-23 08:00,2017,7,23,08:00,17.0,,15.8,,93,,5.0,,9,,,,98.83,,,,,,
2017-07-23 09:00:00,2017-07-23 09:00,2017,7,23,09:00,18.5,,15.9,,85,,5.0,,13,,,,98.88,,,,,,
2017-07-23 10:00:00,2017-07-23 10:00,2017,7,23,10:00,19.8,,14.3,,71,,9.0,,18,,,,98.94,,,,,,
2017-07-23 11:00:00,2017-07-23 11:00,2017,7,23,11:00,20.1,,13.6,,66,,8.0,,24,,,,99.03,,,,,,
2017-07-23 12:00:00,2017-07-23 12:00,2017,7,23,12:00,20.6,,12.5,,60,,7.0,,25,,,,99.07,,,,,,
2017-07-23 13:00:00,2017-07-23 13:00,2017,7,23,13:00,21.3,,13.3,,60,,10.0,,20,,,,99.1,,,,,,
2017-07-23 14:00:00,2017-07-23 14:00,2017,7,23,14:00,20.8,,12.4,,59,,13.0,,16,,,,99.12,,,,,,
2017-07-23 15:00:00,2017-07-23 15:00,2017,7,23,15:00,21.7,,12.2,,55,,13.0,,16,,,,99.13,,,,,,
2017-07-23 16:00:00,2017-07-23 16:00,2017,7,23,16:00,22.0,,10.5,,48,,12.0,,17,,,,99.15,,,,,,
2017-07-23 17:00:00,2017-07-23 17:00,2017,7,23,17:00,22.0,,8.8,,43,,12.0,,9,,,,99.15,,,,,,
2017-07-23 18:00:00,2017-07-23 18:00,2017,7,23,18:00,22.4,,10.0,,45,,18.0,,7,,,,99.12,,,,,,
2017-07-23 19:00:00,2017-07-23 19:00,2017,7,23,19:00,21.7,,10.5,,49,,20.0,,8,,,,99.14,,,,,,
2017-07-23 20:00:00,2017-07-23 20:00,2017,7,23,20:00,20.4,,11.0,,55,,21.0,,6,,,,99.16,,,,,,
2017-07-23 21:00:00,2017-07-23 21:00,2017,7,23,21:00,18.0,,12.1,,68,,23.0,,4,,,,99.18,,,,,,
2017-07-23 22:00:00,2017-07-23 22:00,2017,7,23,22:00,14.5,,12.3,,87,,28.0,,4,,,,99.22,,,,,,
2017-07-23 23:00:00,2017-07-23 23:00,2017,7,23,23:00,13.6,,11.8,,89,,25.0,,3,,,,99.24,,,,,,
2017-07-24 00:00:00,2017-07-24 00:00,2017,7,24,00:00,11.6,,10.4,,92,,29.0,,7,,,,99.28,,,,,,
2017-07-24 01:00:00,2017-07-24 01:00,2017,7,24,01:00,10.9,,9.8,,93,,31.0,,4,,,,99.3,,,,,,
2017-07-24 02:00:00,2017-07-24 02:00,2017,7,24,02:00,10.5,,10.2,,98,,23.0,,4,,,,99.32,,,,,,
2017-07-24 03:00:00,2017-07-24 03:00,2017,7,24,03:00,9.1,,8.7,,97,,25.0,,4,,,,99.32,,,,,,
2017-07-24 04:00:00,2017-07-24 04:00,2017,7,24,04:00,10.2,,10.2,,100,,25.0,,7,,,,99.33,,,,,,
2017-07-24 05:00:00,2017-07-24 05:00,2017,7,24,05:00,8.4,,8.1,,98,,25.0,,5,,,,99.36,,,,,,
2017-07-24 06:00:00,2017-07-24 06:00,2017,7,24,06:00,8.8,,8.6,,98,,27.0,,5,,,,99.41,,,,,,
2017-07-24 07:00:00,2017-07-24 07:00,2017,7,24,07:00,12.3,,11.3,,94,,25.0,,6,,,,99.44,,,,,,
2017-07-24 08:00:00,2017-07-24 08:00,2017,7,24,08:00,15.3,,12.4,,83,,24.0,,5,,,,99.46,,,,,,
2017-07-24 09:00:00,2017-07-24 09:00,2017,7,24,09:00,18.6,,13.3,,71,,25.0,,7,,,,99.46,,,,,,
2017-07-24 10:00:00,2017-07-24 10:00,2017,7,24,10:00,21.0,,13.9,,64,,27.0,,8,,,,99.41,,,,,,
2017-07-24 11:00:00,2017-07-24 11:00,2017,7,24,11:00,23.0,,14.8,,60,,23.0,,10,,,,99.41,,27.0,,,,
2017-07-24 12:00:00,2017-07-24 12:00,2017,7,24,12:00,24.6,,15.3,,56,,23.0,,7,,,,99.35,,29.0,,,,
2017-07-24 13:00:00,2017-07-24 13:00,2017,7,24,13:00,25.7,,13.7,,47,,19.0,,10,,,,99.32,,29.0,,,,
2017-07-24 14:00:00,2017-07-24 14:00,2017,7,24,14:00,26.5,,13.6,,45,,26.0,,9,,,,99.3,,30.0,,,,
2017-07-24 15:00:00,2017-07-24 15:00,2017,7,24,15:00,26.0,,15.4,,52,,17.0,,13,,,,99.28,,30.0,,,,
2017-07-24 16:00:00,2017-07-24 16:00,2017,7,24,16:00,26.1,,14.8,,50,,19.0,,14,,,,99.27,,30.0,,,,
2017-07-24 17:00:00,2017-07-24 17:00,2017,7,24,17:00,24.8,,12.2,,45,,19.0,,16,,,,99.28,,27.0,,,,
2017-07-24 18:00:00,2017-07-24 18:00,2017,7,24,18:00,24.3,,11.7,,45,,21.0,,15,,,,99.3,,26.0,,,,
2017-07-24 19:00:00,2017-07-24 19:00,2017,7,24,19:00,23.3,,12.1,,49,,20.0,,11,,,,99.28,,26.0,,,,
2017-07-24 20:00:00,2017-07-24 20:00,2017,7,24,20:00,21.8,,12.1,,54,,21.0,,10,,,,99.32,,,,,,
2017-07-24 21:00:00,2017-07-24 21:00,2017,7,24,21:00,19.0,,12.2,,65,,22.0,,4,,,,99.32,,,,,,
2017-07-24 22:00:00,2017-07-24 22:00,2017,7,24,22:00,14.6,,12.2,,86,,33.0,,4,,,,99.38,,,,,,
2017-07-24 23:00:00,2017-07-24 23:00,2017,7,24,23:00,13.0,,11.3,,90,,30.0,,4,,,,99.37,,,,,,
2017-07-25 00:00:00,2017-07-25 00:00,2017,7,25,00:00,13.0,,12.1,,94,,1.0,,1,,,,99.39,,,,,,
2017-07-25 01:00:00,2017-07-25 01:00,2017,7,25,01:00,11.3,,10.5,,95,,31.0,,6,,,,99.41,,,,,,
2017-07-25 02:00:00,2017-07-25 02:00,2017,7,25,02:00,11.5,,10.6,,95,,34.0,,6,,,,99.38,,,,,,
2017-07-25 03:00:00,2017-07-25 03:00,2017,7,25,03:00,10.5,,9.7,,95,,29.0,,4,,,,99.4,,,,,,
2017-07-25 04:00:00,2017-07-25 04:00,2017,7,25,04:00,10.4,,9.5,,95,,24.0,,3,,,,99.41,,,,,,
2017-07-25 05:00:00,2017-07-25 05:00,2017,7,25,05:00,9.6,,9.4,,98,,28.0,,3,,,,99.46,,,,,,
2017-07-25 06:00:00,2017-07-25 06:00,2017,7,25,06:00,10.0,,9.7,,98,,28.0,,4,,,,99.5,,,,,,
2017-07-25 07:00:00,2017-07-25 07:00,2017,7,25,07:00,12.6,,11.7,,94,,,,0,,,,99.48,,,,,,
2017-07-25 08:00:00,2017-07-25 08:00,2017,7,25,08:00,15.2,,12.3,,83,,10.0,,3,,,,99.45,,,,,,
2017-07-25 09:00:00,2017-07-25 09:00,2017,7,25,09:00,19.1,,14.4,,74,,7.0,,4,,,,99.43,,,,,,
2017-07-25 10:00:00,2017-07-25 10:00,2017,7,25,10:00,21.4,,15.5,,69,,19.0,,14,,,,99.41,,26.0,,,,
2017-07-25 11:00:00,2017-07-25 11:00,2017,7,25,11:00,21.6,,15.4,,68,,19.0,,14,,,,99.36,,26.0,,,,
2017-07-25 12:00:00,2017-07-25 12:00,2017,7,25,12:00,22.3,,16.2,,69,,18.0,,13,,,,99.26,,27.0,,,,
2017-07-25 13:00:00,2017-07-25 13:00,2017,7,25,13:00,22.6,,16.1,,67,,19.0,,16,,,,99.31,,27.0,,,,
2017-07-25 14:00:00,2017-07-25 14:00,2017,7,25,14:00,23.0,,16.2,,66,,18.0,,22,,,,99.26,,28.0,,,,
2017-07-25 15:00:00,2017-07-25 15:00,2017,7,25,15:00,22.9,,16.1,,65,,19.0,,20,,,,99.2,,28.0,,,,
2017-07-25 16:00:00,2017-07-25 16:00,2017,7,25,16:00,22.4,,15.9,,66,,20.0,,10,,,,99.12,,27.0,,,,
2017-07-25 17:00:00,2017-07-25 17:00,2017,7,25,17:00,22.0,,15.5,,67,,21.0,,10,,,,99.08,,26.0,,,,
2017-07-25 18:00:00,2017-07-25 18:00,2017,7,25,18:00,21.7,,14.8,,65,,16.0,,8,,,,98.99,,26.0,,,,
2017-07-25 19:00:00,2017-07-25 19:00,2017,7,25,19:00,22.0,,14.4,,62,,18.0,,9,,,,98.87,,26.0,,,,
2017-07-25 20:00:00,2017-07-25 20:00,2017,7,25,20:00,21.5,,12.9,,58,,21.0,,12,,,,98.79,,,,,,
2017-07-25 21:00:00,2017-07-25 21:00,2017,7,25,21:00,20.8,,14.1,,65,,25.0,,4,,,,98.87,,,,,,
2017-07-25 22:00:00,2017-07-25 22:00,2017,7,25,22:00,21.6,,16.4,,72,,22.0,,17,,,,98.83,,26.0,,,,
2017-07-25 23:00:00,2017-07-25 23:00,2017,7,25,23:00,21.3,,17.8,,80,,24.0,,16,,,,98.75,,27.0,,,,
2017-07-26 00:00:00,2017-07-26 00:00,2017,7,26,00:00,21.1,,18.3,,84,,25.0,,14,,,,98.72,,27.0,,,,
2017-07-26 01:00:00,2017-07-26 01:00,2017,7,26,01:00,20.6,,18.5,,88,,25.0,,9,,,,98.68,,27.0,,,,
2017-07-26 02:00:00,2017-07-26 02:00,2017,7,26,02:00,20.9,,18.8,,88,,24.0,,10,,,,98.69,,28.0,,,,
2017-07-26 03:00:00,2017-07-26 03:00,2017,7,26,03:00,19.2,,17.9,,92,,27.0,,8,,,,98.65,,,,,,
2017-07-26 04:00:00,2017-07-26 04:00,2017,7,26,04:00,20.1,,18.3,,89,,27.0,,13,,,,98.64,,26.0,,,,
2017-07-26 05:00:00,2017-07-26 05:00,2017,7,26,05:00,18.6,,17.1,,91,,28.0,,9,,,,98.68,,,,,,
2017-07-26 06:00:00,2017-07-26 06:00,2017,7,26,06:00,18.9,,17.0,,89,,26.0,,12,,,,98.71,,,,,,
2017-07-26 07:00:00,2017-07-26 07:00,2017,7,26,07:00,19.7,,16.4,,81,,25.0,,12,,,,98.75,,,,,,
2017-07-26 08:00:00,2017-07-26 08:00,2017,7,26,08:00,21.0,,16.1,,74,,24.0,,12,,,,98.82,,26.0,,,,
2017-07-26 09:00:00,2017-07-26 09:00,2017,7,26,09:00,22.3,,15.6,,66,,27.0,,15,,,,98.86,,27.0,,,,
2017-07-26 10:00:00,2017-07-26 10:00,2017,7,26,10:00,23.5,,15.0,,59,,27.0,,15,,,,98.85,,27.0,,,,
2017-07-26 11:00:00,2017-07-26 11:00,2017,7,26,11:00,24.5,,15.3,,56,,28.0,,18,,,,98.84,,29.0,,,,
2017-07-26 12:00:00,2017-07-26 12:00,2017,7,26,12:00,25.5,,14.1,,49,,29.0,,23,,,,98.81,,29.0,,,,
2017-07-26 13:00:00,2017-07-26 13:00,2017,7,26,13:00,26.3,,14.2,,47,,30.0,,25,,,,98.79,,30.0,,,,
2017-07-26 14:00:00,2017-07-26 14:00,2017,7,26,14:00,26.8,,13.6,,44,,30.0,,26,,,,98.8,,30.0,,,,
2017-07-26 15:00:00,2017-07-26 15:00,2017,7,26,15:00,27.4,,14.3,,45,,31.0,,28,,,,98.8,,31.0,,,,
2017-07-26 16:00:00,2017-07-26 16:00,2017,7,26,16:00,27.0,,14.6,,46,,32.0,,25,,,,98.82,,31.0,,,,
2017-07-26 17:00:00,2017-07-26 17:00,2017,7,26,17:00,27.2,,14.3,,45,,33.0,,21,,,,98.84,,31.0,,,,
2017-07-26 18:00:00,2017-07-26 18:00,2017,7,26,18:00,26.6,,13.7,,45,,32.0,,22,,,,98.88,,30.0,,,,
2017-07-26 19:00:00,2017-07-26 19:00,2017,7,26,19:00,26.0,,13.9,,47,,34.0,,15,,,,98.92,,29.0,,,,
2017-07-26 20:00:00,2017-07-26 20:00,2017,7,26,20:00,24.7,,14.1,,52,,33.0,,9,,,,98.96,,28.0,,,,
2017-07-26 21:00:00,2017-07-26 21:00,2017,7,26,21:00,22.9,,14.4,,59,,35.0,,7,,,,99.03,,27.0,,,,
2017-07-26 22:00:00,2017-07-26 22:00,2017,7,26,22:00,19.6,,14.6,,73,,27.0,,5,,,,99.08,,,,,,
2017-07-26 23:00:00,2017-07-26 23:00,2017,7,26,23:00,17.6,,13.9,,79,,24.0,,7,,,,99.12,,,,,,
2017-07-27 00:00:00,2017-07-27 00:00,2017,7,27,00:00,18.1,,14.8,,81,,21.0,,9,,,,99.16,,,,,,
2017-07-27 01:00:00,2017-07-27 01:00,2017,7,27,01:00,17.4,,14.7,,85,,22.0,,9,,,,99.19,,,,,,
2017-07-27 02:00:00,2017-07-27 02:00,2017,7,27,02:00,14.2,,12.9,,92,,23.0,,6,,,,99.24,,,,,,
2017-07-27 03:00:00,2017-07-27 03:00,2017,7,27,03:00,13.2,,12.1,,93,,27.0,,7,,,,99.27,,,,,,
2017-07-27 04:00:00,2017-07-27 04:00,2017,7,27,04:00,15.1,,14.6,,97,,21.0,,7,,,,99.32,,,,,,
2017-07-27 05:00:00,2017-07-27 05:00,2017,7,27,05:00,13.0,,12.1,,94,,26.0,,2,,,,99.38,,,,,,
2017-07-27 06:00:00,2017-07-27 06:00,2017,7,27,06:00,12.7,,12.2,,97,,32.0,,5,,,,99.43,,,,,,
2017-07-27 07:00:00,2017-07-27 07:00,2017,7,27,07:00,15.6,,14.6,,94,,30.0,,4,,,,99.48,,,,,,
2017-07-27 08:00:00,2017-07-27 08:00,2017,7,27,08:00,18.6,,15.3,,81,,28.0,,2,,,,99.5,,,,,,
2017-07-27 09:00:00,2017-07-27 09:00,2017,7,27,09:00,20.9,,15.0,,69,,14.0,,1,,,,99.51,,25.0,,,,
2017-07-27 10:00:00,2017-07-27 10:00,2017,7,27,10:00,21.9,,14.5,,63,,28.0,,4,,,,99.51,,26.0,,,,
2017-07-27 11:00:00,2017-07-27 11:00,2017,7,27,11:00,22.8,,13.5,,56,,19.0,,7,,,,99.56,,26.0,,,,
2017-07-27 12:00:00,2017-07-27 12:00,2017,7,27,12:00,23.7,,14.1,,55,,18.0,,6,,,,99.52,,27.0,,,,
2017-07-27 13:00:00,2017-07-27 13:00,2017,7,27,13:00,24.3,,14.6,,55,,19.0,,11,,,,99.49,,28.0,,,,
2017-07-27 14:00:00,2017-07-27 14:00,2017,7,27,14:00,24.3,,14.5,,54,,16.0,,17,,,,99.45,,28.0,,,,
2017-07-27 15:00:00,2017-07-27 15:00,2017,7,27,15:00,24.5,,14.5,,54,,16.0,,12,,,,99.44,,28.0,,,,
2017-07-27 16:00:00,2017-07-27 16:00,2017,7,27,16:00,24.9,,14.4,,52,,19.0,,14,,,,99.44,,29.0,,,,
2017-07-27 17:00:00,2017-07-27 17:00,2017,7,27,17:00,24.6,,14.2,,53,,22.0,,14,,,,99.39,,28.0,,,,
2017-07-27 18:00:00,2017-07-27 18:00,2017,7,27,18:00,21.5,,13.0,,58,,21.0,,9,,,,99.4,,,,,,
2017-07-27 19:00:00,2017-07-27 19:00,2017,7,27,19:00,20.8,,13.2,,62,,20.0,,7,,,,99.41,,,,,,
2017-07-27 20:00:00,2017-07-27 20:00,2017,7,27,20:00,20.5,,13.8,,66,,22.0,,4,,,,99.43,,,,,,
2017-07-27 21:00:00,2017-07-27 21:00,2017,7,27,21:00,18.2,,14.2,,77,,,,0,,,,99.43,,,,,,
2017-07-27 22:00:00,2017-07-27 22:00,2017,7,27,22:00,15.4,,13.7,,90,,31.0,,5,,,,99.44,,,,,,
2017-07-27 23:00:00,2017-07-27 23:00,2017,7,27,23:00,15.0,,12.8,,87,,23.0,,5,,,,99.43,,,,,,
2017-07-28 00:00:00,2017-07-28 00:00,2017,7,28,00:00,14.5,,13.6,,94,,27.0,,8,,,,99.44,,,,,,
2017-07-28 01:00:00,2017-07-28 01:00,2017,7,28,01:00,14.8,,13.9,,94,,22.0,,8,,,,99.47,,,,,,
2017-07-28 02:00:00,2017-07-28 02:00,2017,7,28,02:00,14.7,,13.7,,94,,20.0,,7,,,,99.49,,,,,,
2017-07-28 03:00:00,2017-07-28 03:00,2017,7,28,03:00,12.8,,12.5,,98,,24.0,,7,,,,99.51,,,,,,
2017-07-28 04:00:00,2017-07-28 04:00,2017,7,28,04:00,12.4,,12.0,,98,,24.0,,6,,,,99.54,,,,,,
2017-07-28 05:00:00,2017-07-28 05:00,2017,7,28,05:00,12.9,,12.7,,98,,26.0,,6,,,,99.58,,,,,,
2017-07-28 06:00:00,2017-07-28 06:00,2017,7,28,06:00,13.8,,13.3,,97,,25.0,,7,,,,99.59,,,,,,
2017-07-28 07:00:00,2017-07-28 07:00,2017,7,28,07:00,15.3,,14.1,,93,,30.0,,2,,,,99.6,,,,,,
2017-07-28 08:00:00,2017-07-28 08:00,2017,7,28,08:00,17.6,,15.0,,85,,27.0,,7,,,,99.63,,,,,,
2017-07-28 09:00:00,2017-07-28 09:00,2017,7,28,09:00,19.7,,15.7,,77,,26.0,,4,,,,99.64,,,,,,
2017-07-28 10:00:00,2017-07-28 10:00,2017,7,28,10:00,22.6,,15.4,,64,,22.0,,3,,,,99.64,,27.0,,,,
2017-07-28 11:00:00,2017-07-28 11:00,2017,7,28,11:00,23.5,,16.5,,65,,11.0,,7,,,,99.61,,28.0,,,,
2017-07-28 12:00:00,2017-07-28 12:00,2017,7,28,12:00,23.7,,15.9,,62,,10.0,,14,,,,99.6,,28.0,,,,
2017-07-28 13:00:00,2017-07-28 13:00,2017,7,28,13:00,24.9,,16.1,,58,,9.0,,11,,,,99.55,,30.0,,,,
2017-07-28 14:00:00,2017-07-28 14:00,2017,7,28,14:00,26.2,,16.0,,53,,14.0,,8,,,,99.5,,31.0,,,,
2017-07-28 15:00:00,2017-07-28 15:00,2017,7,28,15:00,26.1,,14.9,,50,,16.0,,14,,,,99.48,,30.0,,,,
2017-07-28 16:00:00,2017-07-28 16:00,2017,7,28,16:00,25.5,,14.0,,49,,16.0,,14,,,,99.47,,29.0,,,,
2017-07-28 17:00:00,2017-07-28 17:00,2017,7,28,17:00,25.2,,13.8,,49,,17.0,,10,,,,99.47,,28.0,,,,
2017-07-28 18:00:00,2017-07-28 18:00,2017,7,28,18:00,24.4,,14.4,,54,,19.0,,12,,,,99.47,,28.0,,,,
2017-07-28 19:00:00,2017-07-28 19:00,2017,7,28,19:00,23.6,,14.6,,57,,20.0,,10,,,,99.46,,27.0,,,,
2017-07-28 20:00:00,2017-07-28 20:00,2017,7,28,20:00,21.8,,14.4,,63,,20.0,,8,,,,99.47,,25.0,,,,
2017-07-28 21:00:00,2017-07-28 21:00,2017,7,28,21:00,20.2,,13.2,,64,,20.0,,9,,,,99.47,,,,,,
2017-07-28 22:00:00,2017-07-28 22:00,2017,7,28,22:00,18.5,,13.0,,70,,34.0,,4,,,,99.48,,,,,,
2017-07-28 23:00:00,2017-07-28 23:00,2017,7,28,23:00,16.3,,14.1,,87,,,,0,,,,99.48,,,,,,
2017-07-29 00:00:00,2017-07-29 00:00,2017,7,29,00:00,15.3,,14.0,,92,,0.0,,1,,,,99.51,,,,,,
2017-07-29 01:00:00,2017-07-29 01:00,2017,7,29,01:00,13.7,,12.8,,94,,29.0,,5,,,,99.52,,,,,,
2017-07-29 02:00:00,2017-07-29 02:00,2017,7,29,02:00,13.7,,13.0,,96,,36.0,,2,,,,99.53,,,,,,
2017-07-29 03:00:00,2017-07-29 03:00,2017,7,29,03:00,12.9,,12.4,,97,,0.0,,1,,,,99.57,,,,,,
2017-07-29 04:00:00,2017-07-29 04:00,2017,7,29,04:00,11.5,,11.0,,96,,30.0,,5,,,,99.59,,,,,,
2017-07-29 05:00:00,2017-07-29 05:00,2017,7,29,05:00,12.3,,12.1,,98,,24.0,,4,,,,99.59,,,,,,
2017-07-29 06:00:00,2017-07-29 06:00,2017,7,29,06:00,11.5,,11.3,,99,,26.0,,6,,,,99.62,,,,,,
2017-07-29 07:00:00,2017-07-29 07:00,2017,7,29,07:00,14.2,,13.2,,94,,26.0,,4,,,,99.61,,,,,,
2017-07-29 08:00:00,2017-07-29 08:00,2017,7,29,08:00,16.9,,14.4,,85,,28.0,,4,,,,99.62,,,,,,
2017-07-29 09:00:00,2017-07-29 09:00,2017,7,29,09:00,19.8,,13.3,,66,,28.0,,6,,,,99.65,,,,,,
2017-07-29 10:00:00,2017-07-29 10:00,2017,7,29,10:00,22.4,,13.8,,58,,24.0,,4,,,,99.58,,26.0,,,,
2017-07-29 11:00:00,2017-07-29 11:00,2017,7,29,11:00,24.3,,15.3,,57,,27.0,,4,,,,99.54,,28.0,,,,
2017-07-29 12:00:00,2017-07-29 12:00,2017,7,29,12:00,26.6,,16.8,,55,,25.0,,3,,,,99.52,,32.0,,,,
2017-07-29 13:00:00,2017-07-29 13:00,2017,7,29,13:00,28.1,,18.0,,54,,14.0,,4,,,,99.46,,34.0,,,,
2017-07-29 14:00:00,2017-07-29 14:00,2017,7,29,14:00,27.9,,16.6,,50,,28.0,,5,,,,99.43,,33.0,,,,
2017-07-29 15:00:00,2017-07-29 15:00,2017,7,29,15:00,26.0,,17.9,,61,,18.0,,11,,,,99.44,,32.0,,,,
2017-07-29 16:00:00,2017-07-29 16:00,2017,7,29,16:00,27.8,,17.1,,52,,21.0,,16,,,,99.42,,33.0,,,,
2017-07-29 17:00:00,2017-07-29 17:00,2017,7,29,17:00,27.7,,16.9,,52,,19.0,,18,,,,99.4,,33.0,,,,
2017-07-29 18:00:00,2017-07-29 18:00,2017,7,29,18:00,27.0,,16.8,,54,,20.0,,14,,,,99.35,,32.0,,,,
2017-07-29 19:00:00,2017-07-29 19:00,2017,7,29,19:00,26.4,,17.7,,59,,20.0,,12,,,,99.31,,32.0,,,,
2017-07-29 20:00:00,2017-07-29 20:00,2017,7,29,20:00,25.5,,17.3,,61,,22.0,,9,,,,99.3,,31.0,,,,
2017-07-29 21:00:00,2017-07-29 21:00,2017,7,29,21:00,21.6,,17.0,,75,,5.0,,5,,,,99.35,,27.0,,,,
2017-07-29 22:00:00,2017-07-29 22:00,2017,7,29,22:00,19.4,,16.5,,84,,32.0,,3,,,,99.41,,,,,,
2017-07-29 23:00:00,2017-07-29 23:00,2017,7,29,23:00,18.3,,16.4,,89,,27.0,,3,,,,99.37,,,,,,
2017-07-30 00:00:00,2017-07-30 00:00,2017,7,30,00:00,17.4,,15.9,,91,,30.0,,4,,,,99.39,,,,,,
2017-07-30 01:00:00,2017-07-30 01:00,2017,7,30,01:00,16.7,,15.5,,93,,28.0,,2,,,,99.44,,,,,,
2017-07-30 02:00:00,2017-07-30 02:00,2017,7,30,02:00,18.5,,17.2,,92,,25.0,,6,,,,99.39,,,,,,
2017-07-30 03:00:00,2017-07-30 03:00,2017,7,30,03:00,17.7,,16.7,,94,,24.0,,8,,,,99.39,,,,,,
2017-07-30 04:00:00,2017-07-30 04:00,2017,7,30,04:00,17.6,,16.5,,93,,24.0,,9,,,,99.44,,,,,,
2017-07-30 05:00:00,2017-07-30 05:00,2017,7,30,05:00,16.2,,15.0,,92,,25.0,,5,,,,99.47,,,,,,
2017-07-30 06:00:00,2017-07-30 06:00,2017,7,30,06:00,17.6,,16.3,,92,,24.0,,6,,,,99.49,,,,,,
2017-07-30 07:00:00,2017-07-30 07:00,2017,7,30,07:00,19.7,,17.7,,88,,23.0,,6,,,,99.51,,,,,,
2017-07-30 08:00:00,2017-07-30 08:00,2017,7,30,08:00,22.4,,18.6,,79,,26.0,,10,,,,99.52,,29.0,,,,
2017-07-30 09:00:00,2017-07-30 09:00,2017,7,30,09:00,25.1,,19.1,,69,,27.0,,15,,,,99.54,,32.0,,,,
2017-07-30 10:00:00,2017-07-30 10:00,2017,7,30,10:00,26.1,,19.8,,68,,27.0,,12,,,,99.54,,34.0,,,,
2017-07-30 11:00:00,2017-07-30 11:00,2017,7,30,11:00,27.4,,20.3,,65,,28.0,,16,,,,99.53,,35.0,,,,
2017-07-30 12:00:00,2017-07-30 12:00,2017,7,30,12:00,28.8,,20.5,,61,,26.0,,13,,,,99.51,,37.0,,,,
2017-07-30 13:00:00,2017-07-30 13:00,2017,7,30,13:00,29.6,,17.9,,50,,33.0,,18,,,,99.48,,36.0,,,,
2017-07-30 14:00:00,2017-07-30 14:00,2017,7,30,14:00,31.1,,16.5,,42,,31.0,,20,,,,99.45,,36.0,,,,
2017-07-30 15:00:00,2017-07-30 15:00,2017,7,30,15:00,29.9,,19.2,,53,,26.0,,24,,,,99.43,,37.0,,,,
2017-07-30 16:00:00,2017-07-30 16:00,2017,7,30,16:00,29.3,,20.3,,58,,26.0,,21,,,,99.46,,37.0,,,,
2017-07-30 17:00:00,2017-07-30 17:00,2017,7,30,17:00,29.6,,19.3,,54,,27.0,,22,,,,99.43,,37.0,,,,
2017-07-30 18:00:00,2017-07-30 18:00,2017,7,30,18:00,28.7,,19.3,,57,,24.0,,15,,,,99.42,,36.0,,,,
2017-07-30 19:00:00,2017-07-30 19:00,2017,7,30,19:00,28.2,,19.4,,59,,26.0,,13,,,,99.44,,35.0,,,,
2017-07-30 20:00:00,2017-07-30 20:00,2017,7,30,20:00,26.0,,19.4,,67,,26.0,,12,,,,99.47,,33.0,,,,
2017-07-30 21:00:00,2017-07-30 21:00,2017,7,30,21:00,24.0,,19.8,,78,,21.0,,6,,,,99.48,,31.0,,,,
2017-07-30 22:00:00,2017-07-30 22:00,2017,7,30,22:00,22.1,,18.9,,82,,21.0,,7,,,,99.51,,29.0,,,,
2017-07-30 23:00:00,2017-07-30 23:00,2017,7,30,23:00,21.4,,18.4,,83,,22.0,,9,,,,99.53,,28.0,,,,
2017-07-31 00:00:00,2017-07-31 00:00,2017,7,31,00:00,21.0,,18.1,,84,,22.0,,11,,,,99.53,,27.0,,,,
2017-07-31 01:00:00,2017-07-31 01:00,2017,7,31,01:00,19.0,,17.2,,89,,4.0,,6,,,,99.59,,,,,,
2017-07-31 02:00:00,2017-07-31 02:00,2017,7,31,02:00,16.4,,15.6,,95,,30.0,,4,,,,99.58,,,,,,
2017-07-31 03:00:00,2017-07-31 03:00,2017,7,31,03:00,16.3,,15.7,,96,,29.0,,4,,,,99.59,,,,,,
2017-07-31 04:00:00,2017-07-31 04:00,2017,7,31,04:00,15.4,,14.8,,96,,30.0,,5,,,,99.61,,,,,,
2017-07-31 05:00:00,2017-07-31 05:00,2017,7,31,05:00,15.2,,15.0,,99,,27.0,,6,,,,99.62,,,,,,
2017-07-31 06:00:00,2017-07-31 06:00,2017,7,31,06:00,16.0,,15.8,,99,,23.0,,6,,,,99.62,,,,,,
2017-07-31 07:00:00,2017-07-31 07:00,2017,7,31,07:00,16.0,,15.9,,99,,30.0,,4,,,,99.6,,,,,,
2017-07-31 08:00:00,2017-07-31 08:00,2017,7,31,08:00,18.4,,17.2,,93,,27.0,,5,,,,99.67,,,,,,
2017-07-31 09:00:00,2017-07-31 09:00,2017,7,31,09:00,21.8,,18.3,,80,,24.0,,6,,,,99.63,,28.0,,,,
2017-07-31 10:00:00,2017-07-31 10:00,2017,7,31,10:00,23.5,,17.9,,71,,24.0,,4,,,,99.62,,29.0,,,,
2017-07-31 11:00:00,2017-07-31 11:00,2017,7,31,11:00,25.9,,18.6,,64,,23.0,,5,,,,99.56,,32.0,,,,
2017-07-31 12:00:00,2017-07-31 12:00,2017,7,31,12:00,27.9,,18.1,,55,,27.0,,6,,,,99.51,,34.0,,,,
2017-07-31 13:00:00,2017-07-31 13:00,2017,7,31,13:00,29.1,,18.2,,52,,28.0,,12,,,,99.42,,35.0,,,,
2017-07-31 14:00:00,2017-07-31 14:00,2017,7,31,14:00,29.2,,18.9,,54,,16.0,,14,,,,99.32,,36.0,,,,
2017-07-31 15:00:00,2017-07-31 15:00,2017,7,31,15:00,29.2,,17.8,,50,,20.0,,14,,,,99.27,,35.0,,,,
2017-07-31 16:00:00,2017-07-31 16:00,2017,7,31,16:00,29.8,,17.4,,48,,21.0,,12,,,,99.21,,35.0,,,,
2017-07-31 17:00:00,2017-07-31 17:00,2017,7,31,17:00,29.4,,15.9,,44,,19.0,,16,,,,99.15,,34.0,,,,
2017-07-31 18:00:00,2017-07-31 18:00,2017,7,31,18:00,28.9,,18.2,,53,,21.0,,11,,,,99.09,,35.0,,,,
2017-07-31 19:00:00,2017-07-31 19:00,2017,7,31,19:00,27.9,,17.9,,55,,22.0,,12,,,,99.11,,34.0,,,,
2017-07-31 20:00:00,2017-07-31 20:00,2017,7,31,20:00,26.3,,17.4,,58,,23.0,,11,,,,99.1,,32.0,,,,
2017-07-31 21:00:00,2017-07-31 21:00,2017,7,31,21:00,24.2,,17.1,,64,,24.0,,10,,,,99.1,,30.0,,,,
2017-07-31 22:00:00,2017-07-31 22:00,2017,7,31,22:00,23.9,,16.4,,63,,24.0,,15,,,,99.07,,29.0,,,,
2017-07-31 23:00:00,2017-07-31 23:00,2017,7,31,23:00,22.7,,16.1,,66,,25.0,,11,,,,99.04,,27.0,,,,
